license_type,license_prefix,license_number,name,address,city,township,sanitarian,area,phone
SFE,4781,028395,CREEKSIDE INTERMEDIATE SCHOOL,"2615 BAKER ROAD",DEXTER,SCIO,Sherwin,"Dexter Community S","(734) 424-4186"
SFE,4781,028400,BURGER KING #472,"4885 WASHTENAW",ANN ARBOR,,Yet,"Burger King chain",734-434-8994
SFE,4781,028407,CLEARY'S PUB,"113 S. MAIN ST",CHELSEA,,Hauck,"01 PB Area Chelsea",734-475-1922
SFE,4781,028409,PADDOCK ELEMENTARY,"707 MARVIN STREET",MILAN,,Hansell,"Milan Area Schools","(734) 439-5137"
SFE,4781,028410,MILAN MIDDLE SCHOOL,"920 NORTH STREET",MILAN,,Hansell,"Milan Area Schools","(734) 439-5224"
SFE,4781,028415,CHELSEA COMMUNITY CENTER,"500 WASHINGTON",CHELSEA,,Hansell,"Chelsea Community",734-433-2201
SFE,4781,028417,UPTOWN CONEY ISLAND CHELSEA,"1555 S. MAIN ST",CHELSEA,,Sherwin,"Uptown Coney Chain",734-433-1012
SFE,4781,028420,SCOREKEEPERS,"310 MAYNARD ST",ANN ARBOR,,Sherwin,"05 VD Area UM Cam",734-263-5775
SFE,4781,028422,TAP ROOM,"201 W. MICHIGAN AVENUE",YPSILANTI,,Pearson,"10 SM Area Mich Ave",734-482-5320
SFE,4781,028425,ZAL GAZ GROTTO,"2070 W. STADIUM BLVD",ANN ARBOR,,Hansell,"11 RS Area Stadium",734-663-1202
SFE,4781,028429,CAFE ZOLA,"112 W. WASHINGTON",ANN ARBOR,,Yet,"15 SM Area Washng",734-769-2020
SFE,4781,028434,ARBY'S ROAST BEEF #615,"3015 WASHTENAW",YPSILANTI,,Kamenec,"Arby's chain",734-434-4760
SFE,4781,028435,AUBREE'S SALOON,"39 E. CROSS ST #41",YPSILANTI,,Pearson,"Aubree's Chain",734-483-1870
SFE,4781,028445,NORTHSIDE GRILL,"1015 BROADWAY",ANN ARBOR,,Yet,"06 CW Area Plymth F",734-995-0965
SFE,4781,028446,RELISH,"610 HILTON BLVD",ANN ARBOR,,Hansell,"08 CH Area Manches",734-761-7800
SFE,4781,028450,PACIFIC RIM BY KANA,"114 W. LIBERTY",ANN ARBOR,,Yet,"15 SM Area Washng",734-662-9303
SFE,4781,028452,KATHERINE'S CATERING,"359 METTY DR",ANN ARBOR,SCIO,Kamenec,"16 CW Area Jackson",734-930-4270
SFE,4781,028454,"WEBER'S DINING, KITCHEN, VENTURA","3050 JACKSON ROAD",ANN ARBOR,,Hansell,"11 RS Area Stadium",734-794-2274
SFE,4781,028455,PIONEER HIGH SCHOOL CAFETERIA,"601 W. STADIUM BLVD",ANN ARBOR,,Kamenec,"Ann Arbor Public Sch",734-994-2265
SFE,4781,028456,SCARLETT JR HIGH CAFETERIA,"3300 LORRAINE STREET",ANN ARBOR,,Kamenec,"Ann Arbor Public Sch",734-994-2250
SFE,4781,028458,OLD TOWN TAVERN,"122 W. LIBERTY",ANN ARBOR,,Yet,"15 SM Area Washng",734-662-9291
SFE,4781,028466,WASHTENAW MILK & ICE CREAM,"602 S. ASHLEY ST",ANN ARBOR,,Yet,"12 SM Area Dwntwn",734-662-3244
SFE,4781,028467,ST. MARY CATHOLIC CHURCH,"14200 E OLD U.S. 12",CHELSEA,,Hauck,"01 PB Area Chelsea",734-475-7561
SFE,4781,028470,POWELL'S PUB,"625 N. HURON ST",YPSILANTI,,Deedler,"13 RS Area EMU & C",734-484-1484
SFE,4781,028477,DEXTER'S PUB,"8114 MAIN ST",DEXTER,,Matranga,"02 VD Area Dexter",734-426-1234
SFE,4781,028481,DCH CATERING,"223 E. MAIN STREET",MANCHESTER,,Hauck,"08 CH Area Manches",734-428-9526
SFE,4781,028482,VILLAGE TAP,"237 Ε. ΜΑΙN ST",MANCHESTER,,Hauck,"08 CH Area Manches","(734) 428-7002"
SFE,4781,028493,DAN'S DOWNTOWN TAVERN,"103 E. MICHIGAN AVENUE",SALINE,,Yet,"07 CH Area Saline",734-429-3159
SFE,4781,028495,ARK, THE,"316 S. MAIN ST",ANN ARBOR,,Sherwin,"14 RS Area Main Stre",734-761-1800
SFE,4781,028497,SALINE MIDDLE SCHOOL,"7190 Ν ΜΑPLE",SALINE,,Yet,"Saline Community Sc","(734) 401-4350"
SFE,4781,028500,"BILL'S, INC.","1292 E. MICHIGAN AVENUE",YPSILANTI,YPSILANTI,Pearson,"18 CW Area Whittker",734-485-2831
SFE,4781,028506,LAKEWOOD ELEMENTARY SCHOOL,"344 GRALAKE",ANN ARBOR,,Kamenec,"Ann Arbor Public Sch",734-994-2265
SFE,4781,028507,ZION LUTHERAN CHURCH,"1501 W. LIBERTY",ANN ARBOR,,Hansell,"11 RS Area Stadium",734-994-4455
SFE,4781,028511,ST. PAULS LUTHERAN SCHOOL,"495 EARHART ROAD",ANN ARBOR,ANN ARBOR,Yet,"06 CW Area Plymth F",734-665-9117
SFE,4781,028521,DEE'S PLACE,"9876 MAIN ST",WHITMORE LAKE,NORTHFIELD,Yet,"03 PB Area Whit Lke","(734) 449-4707"
SFE,4781,028522,DOWNING FARMS GOLF COURSE,"8145 W. SEVEN MILE ROAD",NORTHVILLE,SALEM,Kamenec,"CW Area Jackson",248-486-0990
SFE,4781,028526,"MAC'S IN SALINE LLC","104 E. MICHIGAN AVE",SALINE,,Yet,"07 CH Area Saline","(734) 944-6227"
SFE,4781,028536,ROY'S SQUEEZE INN,"1315 E. MICHIGAN AVE",YPSILANTI,,Pearson,"18 CW Area Whittker",734-485-3999
SFE,4781,028538,"BRAE-BURN TAVERN, INC","10860 FIVE MILE RD",PLYMOUTH,SALEM,Pearson,"CW Area Jackson",734-453-1900
SFE,4781,028541,STARBUCKS COFFEE #2359,"222 S. STATE STREET",ANN ARBOR,,Matranga,"Starbuck's chain",734-623-8067
SFE,4781,028543,FIRST PRESBYTERIAN CHURCH,"1432 WASHTENAW",ANN ARBOR,,Hauck,"12 SM Area Dwntwn",734-662-4466
SFE,4781,028545,BROWN JUG RESTAURANT,"1204 S. UNIVERSITY",ANN ARBOR,,Kamenec,"04 VD Area UM Cam",734-761-3355
SFE,4781,028548,SLAUSON JR.HIGH SCHOOL,"1019 W. WASHINGTON",ANN ARBOR,,Kamenec,"Ann Arbor Public Sch",734-994-2265
SFE,4781,028553,HURON HIGH SCHOOL CAFETERIA,"2727 FULLER ROAD",ANN ARBOR,,Kamenec,"Ann Arbor Public Sch",734-994-2265
SFE,4781,028554,FORSYTHE JR. HIGH SCHOOL,"1655 NEWPORT ROAD",ANN ARBOR,,Kamenec,"Ann Arbor Public Sch",734-994-2265
SFE,4781,028559,"JAMES L. CRAWFORD LODGE #322","220 SUNSET RD",ANN ARBOR,,Pearson,"11 RS Area Stadium",734-761-7172
SFE,4781,028563,SIDETRACK,"56 E. CROSS ST",YPSILANTI,,Pearson,"19 CH Area AA Schls",734-483-1035
SFE,4781,028566,TAPPAN JR. HIGH SCHOOL,"2251 E. STADIUM BLVD",ANN ARBOR,,Kamenec,"Ann Arbor Public Sch",734-994-2265
SFE,4781,028571Z,CORATTI'S PIZZERIA,"512 E. WILLIAM",ANN ARBOR,,Sherwin,"05 VD Area UM Cam",
SFE,4781,028572,DAIRY QUEEN - PACKARD,"1805 PACKARD",ANN ARBOR,,Pearson,"20 CY Area Packard",734-665-5588
SFE,4781,028579,FLEETWOOD DINER,"300 S. ASHLEY",ANN ARBOR,,Sherwin,"12 SM Area Dwntwn",734-995-5502
SFE,4781,028585,BARTON HILLS HALF WAY HS,"733 COUNTRY CLUB DRIVE",ANN ARBOR,ANN ARBOR,Deedler,"Barton Hills CC Chair",734-663-8511
SFE,4781,028597,"SERRA'S D.Q. L.LC.","1801 WASHTENAW",YPSILANTI,YPSILANTI,Pearson,"03 PB Area Whit Lke",734-340-4108
SFE,4781,028600,WYLIE ELEMENTARY SCHOOL,"3060 KENSINGTON",DEXTER,,Sherwin,"Dexter Community S","(734) 424-4186"
SFE,4781,028606,LINCOLN BRICK ELEMENTARY,"8970 WHITTAKER ROAD",YPSILANTI,AUGUSTA,Pearson,"Lincoln Consolidated",734-484-7000
SFE,4781,028608,LINCOLN HIGH SCHOOL WEST,"7425 WILLIS ROAD",YPSILANTI,AUGUSTA,Pearson,"Lincoln Consolidated",734-484-7000
SFE,4781,028614,ASHLEY'S RESTAURANTS LTD,"338 S. STATE STREET",ANN ARBOR,,Sherwin,"05 VD Area UM Cam",734-996-9191
SFE,4781,028616,SUBWAY/PILOT TRAVEL #021,"750 BAKER ROAD",DEXTER,SCIO,Sherwin,"Subway chain",865-588-7488
SFE,4781,028617,DAIRY QUEEN OF SALINE,"400 E. MICHIGAN AVENUE",SALINE,,Pearson,"07 CH Area Saline","(734) 429-4830"
SFE,4781,028618,ICE CREAM TIME,"1240 ECORSE ROAD",YPSILANTI,YPSILANTI,Pearson,"09 PB Area Milan & E","(734) 485-3424"
SFE,4781,028622,ST. THOMAS SCHOOL CAFETERIA,"540 ELIZABETH STREET",ANN ARBOR,,Deedler,"15 SM Area Washngt",734-769-0911
SFE,4781,028628,ANN ARBOR CITY CLUB,"1830 WASHTENAW",ANN ARBOR,,Hauck,"04 VD Area UM Cam",734-662-3279
SFE,4781,028636,GANDY DANCER,"401 DEPOT STREET",ANN ARBOR,,Sherwin,"05 VD Area UM Cam",734-769-0592
SFE,4781,028639,DAIRY QUEEN OF DEXTER,"8041 MAIN STREET",DEXTER,,Pearson,"02 VD Area Dexter",734-426-8647
SFE,4781,028643,CALIFORNIA PIZZA KITCHEN,"870 BRIARWOOD CIRCLE",ANN ARBOR,,Hansell,"08 CH Area Manches",310-342-5000
SFE,4781,028651,FULL HOUSE INC,"57 ECORSE RD",YPSILANTI,,Pearson,"06 CW Area Plymth F",734-482-5920
SFE,4781,028656,"UA 190-IBEW 252","7920 JACKSON ROAD",ANN ARBOR,YPSILANTI,Matranga,"16 CW Area Jackson",734-424-0978
SFE,4781,028658,HOLMES ELEMENTARY SCHOOL,"1255 HOLMES ROAD",YPSILANTI,,Pearson,"Ypsilanti Community",734-221-1216
SFE,4781,028667,TRI-COUNTY SPORTSMEN'S LEAGUE,"8640 ΜΟΟN RD",SALINE,YORK,Matranga,"07 CH Area Saline","(734) 429-9561"
SFE,4781,028672,CLAGUE JR. HIGH SCHOOL,"2616 ΝΙΧΟN ROAD",ANN ARBOR,,Kamenec,"Ann Arbor Public Sch",734-994-2265
SFE,4781,028674,HENRY FORD ELEMENTARY,"2440 CLARK ROAD",YPSILANTI,,Pearson,"Ypsilanti Community",734-221-1934
SFE,4781,028679,LAKE FOREST GOLF CLUB,"3110 W ELLSWORTH ROAD",ANN ARBOR,LODI,Deedler,"17 CY Area Washtna",734-994-8580
SFE,4781,028688,HEIDELBERG,"215 Ν. ΜΑΙN ST",ANN ARBOR,,Kamenec,"14 RS Area Main Stre",734-585-0063
SFE,4781,028689,AMERICAN LEGION POST 322,"320 W. MICHIGAN AVENUE",SALINE,,Yet,"07 CH Area Saline","(734) 429-7310"
SFE,4781,028691,MR. PIZZA,"1484 WASHTENAW #1",YPSILANTI,,Hauck,"13 RS Area EMU & C",734-485-0010
SFE,4781,028700,EMANUEL UNITED CHURCH OF CHRIST,"324 W. MAIN STEET",MANCHESTER,,Hauck,"08 CH Area Manches",734-428-8359
SFE,4781,028702,ST. FRANCIS OF ASSISI PARISH,"2240 STADIUM BLVD",ANN ARBOR,YPSILANTI,Hauck,"12 SM Area Dwntwn",734-821-2100
SFE,4781,028704,YPSILANTI COMMUNITY HIGH SCHOOL,"2095 PACKARD",YPSILANTI,,Deedler,"Ypsilanti Community",734-221-1216
SFE,4781,028705,MARK 4 LOUNGE,"1180 S. MAIN STREET",CHELSEA,,Hauck,"01 PB Area Chelsea",734-475-8141
SFE,4781,028706,HOLIDAY'S RESTAURANT,"2080 W. STADIUM BLVD",ANN ARBOR,,Hansell,"11 RS Area Stadium",734-668-1292
SFE,4781,028715,MANCHESTER UNITED METHODIST CH,"501 ANN ARBOR STREET",MANCHESTER,,Hauck,"08 CH Area Manches",734-428-8495
SFE,4781,028725,SALEM ELEMENTARY,"7806 SALEM ROAD",NORTHVILLE,SALEM,Matranga,"South Lyon Schools",248-573-8925
SFE,4781,028728,ST. JOHN THE BAPTIST CATHOLIC CHURCH,"410 W. CROSS STREET",YPSILANTI,,Deedler,"13 RS Area EMU & C",734-483-3360
SFE,4781,028729,WINGS 'N THINGS,"3220 BROAD STREET",DEXTER,,Matranga,"02 VD Area Dexter",734-426-7754
SFE,4781,028733,FIRST UNITED METHODIST CHURCH,"209 WASHTENAW",YPSILANTI,,Deedler,"13 RS Area EMU & C",734-482-8374
SFE,4781,028736,ST. MARY'S PARISH CENTER,"110 E. MADISON",MANCHESTER,,Hauck,"08 CH Area Manches","(734) 428-8811"
SFE,4781,028738,ST. MARY'S CHURCH,"210 W. MAIN STREET",MANCHESTER,,Hauck,"08 CH Area Manches","(734) 428-8811"
SFE,4781,028747,CHELSEA HIGH SCHOOL,"740 N. FREER RD",CHELSEA,,Hansell,"Chelsea Community",734-433-2201
SFE,4781,028750,TRAVEL CENTERS OF AMERICA Τ/Α,"200 BAKER RD",DEXTER,SCIO,Matranga,"02 VD Area Dexter",734-426-3951
SFE,4781,028752,ZINGERMAN'S DELI,"422 DETROIT STREET",ANN ARBOR,,Matranga,"Zingerman's chain",734-663-3354
SFE,4781,028756,ST. PAUL LUTHERAN CHURCH,"420 W. LIBERTY",ANN ARBOR,,Yet,"12 SM Area Dwntwn",734-665-9117
SFE,4781,028759,RICK'S AMERICAN CAFE,"611 CHURCH STREET",ANN ARBOR,,Kamenec,"04 VD Area UM Cam",734-996-2748
SFE,4781,028763,SOUTH MEADOWS ELEMENTARY SCHOOL,"335 PIERCE STREET",CHELSEA,,Hansell,"Chelsea Community",734-433-2201
SFE,4781,028764,DWIGHT BEACH MIDDLE SCHOOL,"445 A.D. MAYER DRIVE",CHELSEA,,Hansell,"Chelsea Community",734-433-2201
SFE,4781,028765,NORTH CREEK ELEMENTARY SCHOOL,"699 MCKINLEY STREET",CHELSEA,,Hansell,"Chelsea Community.",734-433-2201
SFE,4781,028768,COTTAGE INN PIZZA,"546 PACKARD",ANN ARBOR,,Sherwin,"Cottage Inn chain",734-769-5555
SFE,4781,028770,COTTAGE INN PIZZA,"2301 W. STADIUM BLVD",ANN ARBOR,,Sherwin,"Cottage Inn chain",734-663-2822
SFE,4781,028772Z,EMMANUEL LUTHERAN CHURCH,"201 N RIVER ST",YPSILANTI,,Pearson,"19 CH Area AA Schls",734-482-7121
SFE,4781,028773,AMERICAN LEGION POST 557,"8225 DEXTER-CHELSEA",DEXTER,SCIO,Matranga,"02 VD Area Dexter",734-426-4511
SFE,4781,028776,HURON HILLS GOLF COURSE,"3465 E. HURON RIVER DRIVE",ANN ARBOR,,Deedler,"City of Ann Arbor",734-794-6246
SFE,4781,028784,TRAVIS POINTE COUNTRY CLUB,"2829 TRAVIS POINTE ROAD",ANN ARBOR,LODI,Deedler,"07 CH Area Saline",734-662-2582
SFE,4781,028787,STONEY CREEK UNITED METHODIST,"8635 STONY CREEK RD",YPSILANTI,AUGUSTA,Matranga,"09 PB Area Milan & E",734-482-0240
SFE,4781,028794,EARLE,"121 W. WASHINGTON",ANN ARBOR,,Yet,"15 SM Area Washngt",734-994-0211
SFE,4781,028796,LESLIE PARK GOLF COURSE,"2120 TRAVER ROAD",ANN ARBOR,,Deedler,"City of Ann Arbor",734-794-6245
SFE,4781,028798,BROOKSIDE GOLF COURSE,"6451 ANN ARBOR SALINE ROAD",SALINE,LODI,Matranga,"07 CH Area Saline","(734) 429-4276"
SFE,4781,028799,BETHLEHEM UNITED CHURCH OF CHRIST,"423 S. FOURTH AVENUE",ANN ARBOR,,Sherwin,"05 VD Area UM Cam",734-665-6149
SFE,4781,028800,AFTERNOON DELIGHT,"251 E. LIBERTY",ANN ARBOR,,Matranga,"15 SM Area Washng",734-665-7513
SFE,4781,028810,SALVATION ARMY,"100 ARBANA DR",ANN ARBOR,,Deedler,"12 SM Area Dwntwn",734-668-8353
SFE,4781,028818,ESTABROOK ELEMENTARY SCHOOL,"1555 W. CROSS STREET",YPSILANTI,YPSILANTI,Deedler,"Ypsilanti Community",734-221-1216
SFE,4781,028820,ERICKSON ELEMENTARY SCHOOL,"1427 LEVONA",YPSILANTI,,Deedler,"Ypsilanti Community",734-221-1605
SFE,4781,028821,"YPSILANTI INTERNATIONAL ELE SCHOOL (YIES","503 OAK",YPSILANTI,,Deedler,"Ypsilanti Community",734-221-1216
SFE,4781,028822,"KNIGHT'S BAR & RESTAURANT","2324 DEXTER ST",ANN ARBOR,ANN ARBOR,Sherwin,"Knight's chain",734-665-8644
SFE,4781,028823,"ST. PATRICK'S CHURCH-PARISH HALL","5671 WHITMORE LAKE ROAD",ANN ARBOR,NORTHFIELD,Matranga,"03 PB Area Whit Lke",734-662-8141
SFE,4781,028824,MORRISON COMMUNITY LIVING,"200 BRECON DRIVE",SALINE,,Yet,"07 CH Area Saline","(734) 429-1155"
SFE,4781,028827,WINES ELEMENTARY,"1701 NEWPORT ROAD",ANN ARBOR,,Kamenec,"Ann Arbor Public Sch",734-994-2265
SFE,4781,028828,THURSTON ELEMENTARY,"2300 PRAIRIE",ANN ARBOR,,Kamenec,"Ann Arbor Public Sch",734-994-2265
SFE,4781,028830,PITTSFIELD ELEMENTARY,"2543 PITTSFIELD BLVD.",ANN ARBOR,,Kamenec,"Ann Arbor Public Sch",734-994-2265
SFE,4781,028831,PATTENGILL ELEMENTARY,"2100 CRESTLAND",ANN ARBOR,,Kamenec,"Ann Arbor Public Sch",734-994-2265
SFE,4781,028833,MITCHELL ELEMENTARY,"3550 PITTSVIEW",ANN ARBOR,,Kamenec,"Ann Arbor Public Sch",734-994-2265
SFE,4781,028834,LOGAN ELEMENTARY,"2685 TRAVER RD",ANN ARBOR,,Kamenec,"Ann Arbor Public Sch",734-994-2265
SFE,4781,028835,LAWTON ELEMENTARY,"2250 S. SEVENTH STREET",ANN ARBOR,,Kamenec,"Ann Arbor Public Sch",734-994-2265
SFE,4781,028836,KING ELEMENTARY,"3800 WALDENWOOD",ANN ARBOR,,Kamenec,"Ann Arbor Public Sch",734-994-2265
SFE,4781,028838,HAISLEY ELEMENTARY,"825 DUNCAN",ANN ARBOR,,Kamenec,"Ann Arbor Public Sch",734-994-2265
SFE,4781,028839,EBERWHITE ELEMENTARY,"800 SOULE BLVD.",ANN ARBOR,,Kamenec,"Ann Arbor Public Sch",734-994-2265
SFE,4781,028840,DICKEN ELEMENTARY,"2135 RUNNYMEDE",ANN ARBOR,,Kamenec,"Ann Arbor Public Sch",734-994-2265
SFE,4781,028841,JIMMY JOHN'S #9016,"600 PACKARD",ANN ARBOR,,Matranga,"Jimmy Johns Chain",734-741-9200
SFE,4781,028842,CARPENTER ELEMENTARY,"4250 CENTRAL",ANN ARBOR,,Kamenec,"Ann Arbor Public Sch",734-994-2265
SFE,4781,028843,BURNS PARK ELEMENTARY,"1414 WELLS",ANN ARBOR,,Kamenec,"Ann Arbor Public Sch",734-994-2265
SFE,4781,028845,BACH ELEMENTARY,"600 W. JEFFERSON",ANN ARBOR,,Kamenec,"Ann Arbor Public Sch",734-994-2265
SFE,4781,028846,ANGELL ELEMENTARY,"1608 S. UNIVERSITY",ANN ARBOR,,Kamenec,"Ann Arbor Public Sch",734-994-2265
SFE,4781,028847,ALLEN ELEMENTARY,"2560 TOWNER",ANN ARBOR,,Kamenec,"Ann Arbor Public Sch",734-994-2265
SFE,4781,028848,ABBOT ELEMENTARY,"2670 SEQUOIA PARKWAY",ANN ARBOR,,Kamenec,"Ann Arbor Public Sch",734-994-2265
SFE,4781,028851,"WHITMORE LANES INC & CONEY","9455 MAIN STREET",WHITMORE LAKE,NORTHFIELD,Yet,"03 PB Area Whit Lke",734-449-4405
SFE,4781,028857,KLAGER ELEMENTARY SCHOOL,"405 ANN ARBOR STREET",MANCHESTER,,Hansell,"Manchester Public Sc","(734) 428-9711"
SFE,4781,028859,ANN ARBOR STEAM AT NORTHSIDE SCHOOL,"912 BARTON DRIVE",ANN ARBOR,,Kamenec,"Ann Arbor Public Sch",734-994-2265
SFE,4781,028860,WEST SIDE UNITED METHODIST,"900 S. SEVENTH STREET",ANN ARBOR,,Yet,"12 SM Area Dwntwn",734-663-4164
SFE,4781,028862,MACK ELEMENTARY SCHOOL,"920 MILLER",ANN ARBOR,,Kamenec,"Ann Arbor Public Sch",734-994-2265
SFE,4781,028867,BRYANT ELEMENTARY SCHOOL,"2150 SANTA ROSA",ANN ARBOR,,Kamenec,"Ann Arbor Public Sch",734-994-2265
SFE,4781,028870,METZGER'S GERMAN RESTAURANT,"305 N. ZEEB ROAD",ANN ARBOR,SCIO,Hauck,"16 CW Area Jackson",734-668-8987
SFE,4781,028879,TACO BELL #1938,"2280 W. STADIUM BLVD",ANN ARBOR,,Deedler,"Taco Bell chain",734-663-4764
SFE,4781,028887,VILLAGE KITCHEN,"241 N. MAPLE RD",ANN ARBOR,,Hansell,"11 RS Area Stadium",734-426-8417
SFE,4781,028896,WHITE CASTLE MICHIGAN #26,"3953 PACKARD",ANN ARBOR,,Deedler,"20 CY Area Packard",734-973-6811
SFE,4781,028904,"CHELSEA HIGH SCHOOL INDOOR CONCESSION","740 N. FREER ROAD",CHELSEA,,Hansell,"Chelsea Community.",734-433-2201
SFE,4781,028908,"L.O.O.M. YPSI LODGE # 782","5506 STONY CREEK RD",YPSILANTI,YPSILANTI,Hauck,"09 PB Area Milan & E",734-483-0950
SFE,4781,028929,KARL'S FAMILY RESTAURANT,"9779 N. TERRITORIAL ROAD",PLYMOUTH,SALEM,Matranga,"16 CW Area Jackson",734-455-8450
SFE,4781,028934,BOB EVANS RESTAURANTS LLC #89,"2411 CARPENTER ROAD",ANN ARBOR,PITTSFIELD,Deedler,"Bob Evans Restaurar",734-971-2220
SFE,4781,028939,SOTTINIS SUB SHOP,"205 S. FOURTH AVENUE",ANN ARBOR,,Kamenec,"15 SM Area Washng",734-769-7827
SFE,4781,028943,BELL'S DINER,"2167 W. STADIUM BLVD",ANN ARBOR,,Hansell,"11 RS Area Stadium",734-995-0226
SFE,4781,028947,ST. PAUL UNITED CH OF CHRIST,"122 W. MICHIGAN AVENUE",SALINE,,Yet,"07 CH Area Saline",734-429-7716
SFE,4781,028949,OCED SENIOR NUTRITION PROGRAM,"2025 E. CLARK ROAD",YPSILANTI,SUPERIOR,Hauck,"OCED",734-544-3800
SFE,4781,028952,MICHIGAN THEATER,"603 E. LIBERTY",ANN ARBOR,,Sherwin,"05 VD Area UM Cam",734-668-8397
SFE,4781,028963,CENTRAL ACADEMY MIDDLE & HIGH SCHOOL,"2461 S INDUSTRIAL HIGHWAY",ANN ARBOR,,Deedler,"Central Academy Cha",734-822-1100
SFE,4781,028986,MARK'S MIDTOWN CONEY,"529 E. MICHIGAN AVENUE",SALINE,,Deedler,"Mark's Midtown Chail",734-429-1755
SFE,4781,028988,"COLUMBUS HALL AND BANQUET CENTER, INC","8265 DEXTER-CHELSEA",DEXTER,SCIO,Matranga,"02 VD Area Dexter",734-426-5558
SFE,4781,028989,LITTLE CAESAR'S PIZZA,"3000 PACKARD",ANN ARBOR,,Matranga,"Little Caesars chain",313-471-6508
SFE,4781,,,"",YPSILANTI,YPSILANTI,Pearson,"09 PB Area Milan & E",734-482-9213
SFE,4781,029009,FRATERNAL ORDER OF EAGLES,"2935 HOLMES ROAD",YPSILANTI,YPSILANTI,Pearson,"09 PB Area Milan & E",734-482-9213
SFE,4781,029019,CHILI'S BAR & GRILL #70,"3795 WASHTENAW AVE",ANN ARBOR,,Hauck,"12 SM Area Dwntwn",734-973-6772
SFE,4781,029020,ATHLETIC BOOSTER CLUB OF DEXTER,"2615 BAKER ROAD",DEXTER,,Sherwin,"Dexter Community S",734-424-4170
SFE,4781,029024,IMMACULATE CONCEPTION CHURCH,"420 NORTH ST",MILAN,,Matranga,"09 PB Area Milan & E",734-439-2030
SFE,4781,029025,NECTO,"516 E. LIBERTY",ANN ARBOR,,Matranga,"15 SM Area Washng",734-994-5835
SFE,4781,029030,SENIOR CITIZEN RECREATION CENTER,"1015 CONGRESS",YPSILANTI,,Pearson,"19 CH Area AA Schls",734-483-5014
SFE,4781,029034,HUDSON MILLS HURON CLINTON,"8801 N. TERRITORIAL ROAD",DEXTER,DEXTER,Matranga,"02 VD Area Dexter",734-426-8211
SFE,4781,029046,TACO BELL #2837,"1590 S. MAIN STREET",CHELSEA,,Deedler,"KFC chain",248-446-0100
SFE,4781,029054,LINCOLN MIDDLE SCHOOL,"8744 WHITTAKER ROAD",YPSILANTI,AUGUSTA,Pearson,"Lincoln Consolidated",734-484-7000
SFE,4781,029055,ST. THOMAS PARISH HALL,"530 ELIZABETH STREET",ANN ARBOR,,Deedler,"15 SM Area Washng",734-761-8606
SFE,4781,029066,RAWSONVILLE ELEMENTARY SCHOOL,"3110 GROVE RD",YPSILANTI,YPSILANTI,Pearson,"Van Buren Schools",734-697-0011
SFE,4781,029087,JENNY'S PIZZA PERFECT,"332 S. FORD BLVD",YPSILANTI,YPSILANTI,Matranga,"09 PB Area Milan & E",734-485-8800
SFE,4781,029091,WELLERS' CARRIAGE HOUSE,"555 W. MICHIGAN AVENUE",SALINE,,Yet,"07 CH Area Saline","(734) 429-2115"
SFE,4781,029093,CASEY'S TAVERN,"304 DEPOT ST",ANN ARBOR,,Sherwin,"05 VD Area UM Cam",734-665-6775
SFE,4781,029097,BISHOP ELEMENTARY,"8888 WHITTAKER ROAD",YPSILANTI,AUGUSTA,Pearson,"Lincoln Consolidated",734-484-7000
SFE,4781,029116,ST. ANDREWS CHURCH OF CHRIST,"7610 ANN ARBOR STREET",DEXTER,,Matranga,"02 VD Area Dexter",734-426-8610
SFE,4781,029121,"LINCOLN BOOSTERS CONCESSION (OUTDOOR)","7425 WILLIS ROAD",YPSILANTI,AUGUSTA,Pearson,"Lincoln Consolidated",734-484-7000
SFE,4781,029123,"MARK'S MIDTOWN CONEY ISLAND IN","3672 S. STATE ST",ANN ARBOR,,Deedler,"Mark's Midtown Chai",734-747-6707
SFE,4781,029213,ANN ARBOR GOLF & OUTING,"400 E. STADIUM BLVD",ANN ARBOR,,Hansell,"11 RS Area Stadium & Jackson",734-663-4044
SFE,4781,029215,AMADEUS CAFE,"122 E. WASHINGTON",ANN ARBOR,,Kamenec,"15 SM Area Washngtn, Librty AA",734-665-8767
SFE,4781,029216,YPSILANTI MASONIC ASSOC,"5752 WHITTAKER ROAD",YPSILANTI,,Pearson,"18 CW Area Whittker & Mich Ave",734-482-5752
SFE,4781,029217,UPTOWN CONEY ISLAND,"3917 JACKSON ROAD",ANN ARBOR,,Sherwin,"Uptown Coney Chain",734-665-5909
SFE,4781,029220,OLIVE GARDEN # 1110,"445 E. EISENHOWER PKWY",ANN ARBOR,,Deedler,"20 CY Area Packard & Eisenhowr",734-663-6875
SFE,4781,029231,FIRST PRESBYTERIAN CHURCH,"300 N. WASHINGTON",YPSILANTI,,Pearson,"19 CH Area AA Schls & DepotTwn",734-482-1525
SFE,4781,029233,COTTAGE INN PIZZA,"2900 STATE STREET",ANN ARBOR,,Sherwin,"Cottage Inn chain",734-663-4500
SFE,4781,029235,FIRST UNITED METHODIST CHURCH,"120 S. STATE ST",ANN ARBOR,,Sherwin,"05 VD Area UM Campus Northwest",734-662-4536
SFE,4781,029237,SAICA,"1733 PLYMOUTH ROAD",ANN ARBOR,,Yet,"06 CW Area Plymth Rd, Ypsi",734-769-1212
SFE,4781,029246,AMERICAN HOUSE - CARPENTER,"3470 CARPENTER ROAD",YPSILANTI,PITTSFIELD,Deedler,"17 CY Area Washtnaw & Carpnter",734-677-0071
SFE,4781,029251,BROOKHAVEN MANOR,"401 W. OAKBROOK DRIVE",ANN ARBOR,,Deedler,"20 CY Area Packard & Eisenhowr",734-747-6786
SFE,4781,029261,EMU EAGLE CREST GRILLE,"1201 S. HURON",YPSILANTI,,Yet,"EMU Schools",734-487-2441
SFE,4781,029275,COTTAGE INN PIZZA,"520 S. MAIN ST",CHELSEA,,Sherwin,"Cottage Inn chain",734-475-8833
SFE,4781,029276,VICTORIOUS LIFE CHURCH OF GOD,"860 E CLARK RD.",YPSILANTI,YPSILANTI,Hauck,"09 PB Area Milan & Ecorse/Ford",734-482-4293
SFE,4781,029297,ST. MATTHEWS UNITED METHODIST CHURCH,"1344 BORGSTROM",YPSILANTI,YPSILANTI,Hauck,"09 PB Area Milan & Ecorse/Ford","(734) 483-5876"
SFE,4781,029299,PLEASANT RIDGE ELEMENTARY,"229 PLEASANT RIDGE",SALINE,,Yet,"Saline Community Schools","734-401-4350"
SFE,4781,029304,FRENCH QUARTER,"1494 ECORSE ROAD",YPSILANTI,YPSILANTI,Pearson,"09 PB Area Milan & Ecorse/Ford",313-400-1804
SFE,4781,029311,LIBERTY ATHLETIC CLUB OUTDOOR,"2975 W. LIBERTY",ANN ARBOR,SCIO,Hansell,"16 CW Area Jackson, Zeeb, Lohr",734-665-3738
SFE,4781,029318,PATHWAYS TO SUCCESS,"2800 STONE SCHOOL ROAD",ANN ARBOR,,Kamenec,"Ann Arbor Public Schools",734-994-2265
SFE,4781,029322,WHITMORE LAKE ELEMENTARY SCHOOL,"1077 BARKER RD",WHITMORE LAKE,NORTHFIELD,Yet,"Whitmore Lake Schools","(734) 449-4464"
SFE,4781,029323,OUR SAVIOR LUTHERAN CHURCH,"1515 S. MAIN STREET",CHELSEA,,Hauck,"01 PB Area Chelsea",734-475-1404
SFE,4781,029329,ZINGERMAN'S - NEXT DOOR,"418 DETROIT ST",ANN ARBOR,,Matranga,"Zingerman's chain",734-663-3354
SFE,4781,029330,WESTMINISTER PRESBYTERIAN CHUR,"1500 SCIO CHURCH ROAD",ANN ARBOR,,Deedler,"16 CW Area Jackson, Zeeb, Lohr",734-761-9320
SFE,4781,029331,CLASSIC PIZZA,"8015 HURON ST",DEXTER,,Matranga,"02 VD Area Dexter",734-426-1900
SFE,4781,029347,DIMO'S RESTAURANT,"2030 W. STADIUM BLVD",ANN ARBOR,,Hansell,"11 RS Area Stadium & Jackson",734-662-7944
SFE,4781,029348,MESSIAS TEMPLE CHURCH,"200 HARRIET STREET",YPSILANTI,,Pearson,"06 CW Area Plymth Rd, Ypsi",734-483-8092
SFE,4781,029349,HUDSON MILLS GOLF,"4800 DEXTER-PINCKNEY ROAD",DEXTER,DEXTER,Matranga,"02 VD Area Dexter",734-426-8211
SFE,4781,029351,FIRST UNITED METHODIST CHURCH,"1200 N. ANN ARBOR STREET",SALINE,,Yet,"07 CH Area Saline","(734) 429-4730"
SFE,4781,029352,COBBLESTONE FARM,"2781 PACKARD",ANN ARBOR,,Hansell,"City of Ann Arbor",734-794-6230
SFE,4781,029426,AMER'S,"314 S. STATE STREET",ANN ARBOR,,Sherwin,"Amer's chain",734-761-6000
SFE,4781,029427,BARTON HILLS COUNTRY CLUB,"730 COUNTRY CLUB DRIVE",ANN ARBOR,ANN ARBOR,Deedler,"Barton Hills CC Chain",734-663-8511
SFE,4781,029429,EVERGREEN ORIENTAL INC.,"2771 PLYMOUTH ROAD",ANN ARBOR,,Yet,"06 CW Area Plymth Rd, Ypsi",734-769-2748
SFE,4781,029437,TACO BELL # 5228,"5650 JACKSON AVENUE",ANN ARBOR,,Deedler,"Taco Bell chain",734-663-2100
SFE,4781,029439,LIBERTY ATHLETIC CLUB INDOOR SNACK BAR,"2975 W. LIBERTY",ANN ARBOR,SCIO,Hansell,"16 CW Area Jackson, Zeeb, Lohr",734-665-3738
SFE,4781,029447,BARRY BAGELS (BAGEL PLACE),"2515 JACKSON AVENUE",ANN ARBOR,,Hauck,"11 RS Area Stadium & Jackson",419-885-1000
SFE,4781,029454,SWEETWATERS CAFE,"123 W. WASHINGTON",ANN ARBOR,,Matranga,"Sweetwater's chain",734-769-2331
SFE,4781,029470,AYSE'S CAFE,"1703 PLYMOUTH ROAD",ANN ARBOR,,Yet,"06 CW Area Plymth Rd, Ypsi",734-662-1711
SFE,4781,029477,JEWISH COMMUNITY CENTER,"2935 BIRCH HOLLOW DRIVE",ANN ARBOR,,Deedler,"17 CY Area Washtnaw & Carpnter",734-971-0990
SFE,4781,029483,MARK'S MIDTOWN CONEY ISLAND,"3586 PLYMOUTH ROAD",ANN ARBOR,,Deedler,"Mark's Midtown Chain",734-998-0067
SFE,4781,029503,BARTON HILLS POOL SNACK,"600 COUNTRY CLUB DRIVE",ANN ARBOR,ANN ARBOR,Deedler,"Barton Hills CC Chain",734-663-8511
SFE,4781,029508,WEBER'S INN HABITAT/CABANA,"3050 JACKSON ROAD",ANN ARBOR,,Hansell,"11 RS Area Stadium & Jackson",734-769-2500
SFE,4781,029509,WEBER'S BAKERY, BANQUET, STOREROOM,"3050 JACKSON ROAD",ANN ARBOR,,Hansell,"11 RS Area Stadium & Jackson",734-769-2500
SFE,4781,029514,ARBY'S ROAST BEEF #6325,"1189 DEXTER STREET",MILAN,,Kamenec,"Arby's chain",734-439-2555
SFE,4781,029516,OUTBACK STEAKHOUSE,"3173 OAK VALLEY DRIVE",ANN ARBOR,,Deedler,"16 CW Area Jackson, Zeeb, Lohr",734-662-7400
SFE,4781,029528,MICHIGAN FRIENDS CENTER,"7748 CLARKS LAKE ROAD",CHELSEA,LYNDON,Hauck,"01 PB Area Chelsea",734-475-1892
SFE,4781,029532,NEW YORK PIZZA DEPOT,"605 E. WILLIAM",ANN ARBOR,,Sherwin,"04 VD Area UM Campus South",734-669-6973
SFE,4781,029534,MR. PIZZA #3,"6054 RAWSONVILLE ROAD",VAN BUREN TWP,,Hauck,"18 CW Area Whittker & Mich Ave",734-487-5111
SFE,4781,029547,PORTAGE YACHT CLUB,"8930 DEXTER-PINCKNEY ROAD",PINCKNEY,DEXTER,Matranga,"02 VD Area Dexter",734-426-4155
SFE,4781,029549,FOREST HEALTH MEDICAL CENTER,"135 S. PROSPECT ROAD",YPSILANTI,,Kamenec,"06 CW Area Plymth Rd, Ypsi",734-547-4700
SFE,4781,029552,GRIZZLY PEAK BREWING CO.,"120 W. WASHINGTON",ANN ARBOR,,Kamenec,"Mission Management Chain",734-741-7325
SFE,4781,029553,JIMMY JOHN'S #9012,"929 E. ANN STREET",ANN ARBOR,,Matranga,"Jimmy Johns Chain",734-913-9200
SFE,4781,029558,GODAIKO JAPANESE RESTAURANT,"3105 OAK VALLEY DRIVE",ANN ARBOR,,Deedler,"16 CW Area Jackson, Zeeb, Lohr",734-930-2880
SFE,4781,029559,LINCOLN HIGH SCHOOL EAST,"7525 WILLIS ROAD",YPSILANTI,AUGUSTA,Pearson,"Lincoln Consolidated Schools",734-484-7000
SFE,4781,029560,DEXTER EARLY EDUCATION COMPLEX,"7480 DAN HOEY ROAD",DEXTER,,Sherwin,"Dexter Community Schools","(734) 424-4186"
SFE,4781,029561,MILL CREEK MIDDLE SCHOOL,"7305 DEXTER-ANN ARBOR",DEXTER,,Sherwin,"Dexter Community Schools","(734) 424-4186"
SFE,4781,029562,MILAN FREE METHODIST CHURCH,"950 ARKONA RD",MILAN,,Matranga,"09 PB Area Milan & Ecorse/Ford","(734) 439-2414"
SFE,4781,029566,ST. JOSEPH MERCY HOSPITAL,"5301 E. HURON RIVER DRIVE",YPSILANTI,SUPERIOR,Hansell,"St. Joseph's Hospital-AA Chain","(734) 712-2021"
SFE,4781,029572,MEDITERRANO,"2900 S. STATE STREET #7",ANN ARBOR,,Deedler,"20 CY Area Packard & Eisenhowr",734-332-9700
SFE,4781,029593,HUNGRY HOWIE'S/MILAN PIZZA,"6 W. MAIN ST",MILAN,,Matranga,"Hungry Howie chain",734-439-1716
SFE,4781,029597,PIERCE LAKE GOLF COURSE,"1175 S. MAIN STREET",CHELSEA,,Hauck,"01 PB Area Chelsea",734-475-5858
SFE,4781,029607,BENNY'S FAMILY DINING,"1952 S. INDUSTRIAL HWY",ANN ARBOR,,Hauck,"20 CY Area Packard & Eisenhowr",734-663-6302
SFE,4781,029631,BURGER KING #481,"6190 W MICHIGAN AVENUE",SALINE,,Yet,"Burger King chain",734-944-9601
SFE,4781,029639,EARTHEN JAR,"311 S. 5TH AVE",ANN ARBOR,,Kamenec,"05 VD Area UM Campus Northwest",734-327-9464
SFE,4781,029649,U OF M HILLEL FOUNDATION,"1429 HILL STREET",ANN ARBOR,,Kamenec,"04 VD Area UM Campus South",734-769-0500
SFE,4781,029651,ST. ANDREW CATHOLIC CHURCH,"910 AUSTIN DRIVE",SALINE,,Yet,"07 CH Area Saline",734-429-5210
SFE,4781,029653,HERITAGE ELEMENTARY SCHOOL,"290 WOODLAND DRIVE",SALINE,,Yet,"Saline Community Schools","(734) 401-4350"
SFE,4781,029654,WOODLAND MEADOWS ELEMENTARY,"350 WOODLAND DRIVE",SALINE,,Yet,"Saline Community Schools","(734) 401-4350"
SFE,4781,029655,SHEKINAH CHRISTIAN CHURCH,"4600 SCIO CHURCH",ANN ARBOR,SCIO,Matranga,"16 CW Area Jackson, Zeeb, Lohr",734-662-6040
SFE,4781,029657,SILVER MAPLES OF CHELSEA DINING SERVICES,"100 SILVER MAPLES DR",CHELSEA,,Hansell,"01 PB Area Chelsea",734-433-5232
SFE,4781,029661,FIRST UNITED METHODIST CHURCH,"128 PARK STREET",CHELSEA,,Hauck,"01 PB Area Chelsea",734-475-8119
SFE,4781,029672,CONOR O'NEILLS,"318 S. MAIN ST",ANN ARBOR,,Sherwin,"14 RS Area Main Street AA",734-665-2968
SFE,4781,029673,ZOU ZOU'S,"101 N. MAIN ST",CHELSEA,,Hauck,"01 PB Area Chelsea",734-433-4226
SFE,4781,029674,PIZZA HOUSE,"618 CHURCH STREET",ANN ARBOR,,Kamenec,"04 VD Area UM Campus South",734-995-5095
SFE,4781,029680,"VILLAGE AT ST. JOSEPH HOSPITAL","5341 MCAULEY DRIVE",YPSILANTI,SUPERIOR,Hansell,"21 CY Area Kerrytown & AA Twp.",734-712-1620
SFE,4781,029681,FENDERS BAR & GRILL,"18-20 WABASH ST",MILAN,,Matranga,"09 PB Area Milan & Ecorse/Ford","(734) 439-3474"
SFE,4781,036846,PITTSFIELD RED ROBIN INC,"3797 CARPENTER ROAD",YPSILANTI,PITTSFIELD,Sherwin,"Red Robin Chain","(734) 794-2000"
SFE,4781,036849,DEXTER HIGH SCHOOL,"2200 N. PARKER RD",DEXTER,,Sherwin,"Dexter Community Schools","(734) 424-4186"
SFE,4781,036850,MCDONALD'S #7666,"1535 S. MAIN STREET",CHELSEA,,Hauck,"McDonalds chain","(734) 475-9620"
SST,4781,037117,AMERICAN EUROPEAN TRAILER,"P.O. BOX 497",HIGGINS LAKE,OUT OF COUNTY,Sherwin,"03 PB Area Whit Lke & Wash Ave",734-649-2458
SFE,4781,037153,THOMPSON'S PIZZA,"20700 OLD U.S. 12",CHELSEA,,Hauck,"01 PB Area Chelsea",734-475-7605
SFE,4781,037155,STONEBRIDGE GOLF CLUB,"1825 CLUB HOUSE DRIVE",ANN ARBOR,PITTSFIELD,Deedler,"16 CW Area Jackson, Zeeb, Lohr",734-429-8383
SST,4781,037453,CHELSEA KIWANIS TRAILER,"500 E. WASHINGTON",CHELSEA,,Hauck,"01 PB Area Chelsea",734-474-9012
SMF,4781,037612,WHIPS DOG DAY I,"2515 JACKSON ROAD",ANN ARBOR,,Hansell,"11 RS Area Stadium & Jackson",734-260-6513
SFE,4781,037672,FOOD ART CATERED AFFAIRS,"331 METTY DR",ANN ARBOR,SCIO,Kamenec,"08 CH Area Manchest & Briarwod",
SFE,4781,037675,YPSILANTI ART THEATRE CORP (DEJAVU),"203 PEARL ST",YPSILANTI,,Pearson,"10 SM Area Mich Ave/Ypsi City",734-557-8812
SST,4781,037748,HOTEL HICKMAN WILD WEST ADVENTURES STFU,"1575 N. STEINBACH RD",DEXTER,SUPERIOR,Sherwin,"02 VD Area Dexter",734-646-6261
SFE,4781,037759,ROLLING HILLS WATER PARK,"7660 STONY CREEK ROAD",YPSILANTI,YPSILANTI,Kamenec,"09 PB Area Milan & Ecorse/Ford","(734) 484-9676"
SFE,4781,037982Z,DOMINO'S PIZZA,"25 JACKSON INDUSTRIAL DRIVE",ANN ARBOR,,Sherwin,"Domino's chain",734-913-8888
SFE,4781,037992Z,DOMINO'S PIZZA,"2282 SOUTH MAIN STREET",ANN ARBOR,,Sherwin,"Domino's chain",734-332-1111
SFE,4781,038120,UNIVERSITY COMMONS,"817 ASA GRAY DRIVE",ANN ARBOR,,Matranga,"06 CW Area Plymth Rd, Ypsi","(734) 332-1221"
SFE,4781,038170,BRECON GRILLE,"101 W. MICHIGAN AVE",SALINE,,Yet,"07 CH Area Saline","(734) 429-4868"
SFE,4781,038293,DOMINICK'S,"812 MONROE AVE",ANN ARBOR,,Kamenec,"04 VD Area UM Campus South",734-662-5414
SFE,4781,038313,ROY'S BURGER & BBQ,"25 WABASH ST",MILAN,,Matranga,"09 PB Area Milan & Ecorse/Ford","(734) 439-1737"
SFE,4781,039150,SINBAD KONEY ISLAND,"2563 ELLSWORTH ROAD",YPSILANTI,,Hauck,"12 SM Area Dwntwn AA, Wash Ave",734-528-5800
SST,4781,039187,PJ & J'S BARBEQUE,"8162 N. MORLEY DR.",WILLIS,AUGUSTA,Hauck,"18 CW Area Whittker & Mich Ave",734-218-0917
SST,4781,039287,WATERS KITCHEN (STFU),"1600 STEPHENS DR.",YPSILANTI,YPSILANTI,Hauck,"09 PB Area Milan & Ecorse/Ford",734-255-2830
SFE,4781,039878,"BARNES & NOBLE BOOKSELLERS, INC","3235 WASHTENAW",ANN ARBOR,,Hauck,"12 SM Area Dwntwn AA, Wash Ave",734-973-0846
SFE,4781,040100,PERRY EARLY LEARNING CENTER (LOWER),"550 PERRY ST",YPSILANTI,,Deedler,"Ypsilanti Community Schools","(734) 221-1024"
SFE,4781,040288,HARVEST ELEMENTARY SCHOOL,"1155 CAMPUS PARKWAY",SALINE,,Yet,"Saline Community Schools","(734) 401-4350"
SFE,4781,040314,HURON HIGH INDOOR CONCESSIONS,"2727 FULLER ROAD",ANN ARBOR,,Kamenec,"Ann Arbor Public Schools",734-994-2265
SFE,4781,040339,HURON HIGH STADIUM CONCESSIONS,"2727 FULLER ROAD",ANN ARBOR,,Kamenec,"Ann Arbor Public Schools",734-994-2265
SFE,4781,040340,MEADOWS AT GLACIER HILLS,"4001 GLACIER HILL DRIVE",ANN ARBOR,ANN ARBOR,Deedler,"21 CY Area Kerrytown & AA Twp.",734-929-6753
SFE,4781,040654,CHINA CHEF RESTAURANT,"2870 WASHTENAW",YPSILANTI,YPSILANTI,Kamenec,"03 PB Area Whit Lke & Wash Ave",734-434-8877
SFE,4781,040656,TRINITY PRESBYTERIAN CHURCH,"10101 W. ANN ARBOR RD",PLYMOUTH,SUPERIOR,Deedler,"06 CW Area Plymth Rd, Ypsi","(734) 459-9550"
SFE,4781,040660,TWISTER'S ICE CREAM & MAIN STREET BAGEL,"901 S. MAIN STREET",CHELSEA,,Hauck,"01 PB Area Chelsea",517-202-3086
SFE,4781,041248,GENESIS OF ANN ARBOR,"2309 PACKARD",ANN ARBOR,,Hauck,"20 CY Area Packard & Eisenhowr",734-665-8883
SFE,4781,041263,LUCKY KITCHEN,"1753 PLYMOUTH ROAD",ANN ARBOR,,Yet,"06 CW Area Plymth Rd, Ypsi",734-747-9968
SFE,4781,041269,GUI LIN,"711 W. MICHIGAN AVENUE",SALINE,,Yet,"07 CH Area Saline",734-944-4448
SFE,4781,041276,SOUTH ARBOR ACADEMY,"8200 CARPENTER ROAD",YPSILANTI,YORK,Hansell,"National Heritage Academies",616-222-1700
SFE,4781,041287,PEACE NEIGHBORHOOD CENTER,"1111 N. MAPLE RD",ANN ARBOR,,Hansell,"11 RS Area Stadium & Jackson",734-662-3564
SFE,4781,041298,T. K. WU FINE CHINESE RESTAURANT,"510 E. LIBERTY",ANN ARBOR,,Matranga,"15 SM Area Washngtn, Librty AA",734-747-6662
SFE,4781,041491,ZINGERMAN'S ROADHOUSE,"2501 JACKSON ROAD",ANN ARBOR,,Matranga,"Zingerman's chain",734-663-3663
SFE,4781,041493,LINCOLN CHILDS ELEMENTARY SCHOOL,"7300 BEMIS ROAD",YPSILANTI,AUGUSTA,Pearson,"Lincoln Consolidated Schools",734-484-7000
SFE,4781,041881,OCED SENIOR NUTRITION PROGRAM,"106 PACKARD RD",ANN ARBOR,,Matranga,"OCED",734-794-6720
SFE,4781,042127,STARBUCKS COFFEE #2482,"1214 S. UNIVERSITY AVENUE",ANN ARBOR,,Matranga,"Starbuck's chain",734-994-4537
SFE,4781,042176,BRUEGGER'S BAGEL BAKERY,"709 N. UNIVERSITY",ANN ARBOR,,Deedler,"05 VD Area UM Campus Northwest",734-747-8561
SFE,4781,042177,BRUEGGER'S BAGEL BAKERY,"2260 S. MAIN STREET",ANN ARBOR,,Deedler,"16 CW Area Jackson, Zeeb, Lohr",734-213-2560
SFE,4781,042773,CHELSEA HIGH FOOTBALL CONCESSION,"500 E. WASHINGTON",CHELSEA,,Hansell,"Chelsea Community Schools",734-433-2201
SFE,4781,042775,PANERA BREAD #874,"903 W. EISENHOWER PKWY",ANN ARBOR,,Kamenec,"Panera Bread Chain",734-213-5800
SFE,4781,042776,PANERA BREAD #876,"3205 WASHTENAW",ANN ARBOR,,Kamenec,"Panera Bread Chain",734-677-0400
SFE,4781,042777,JET'S PIZZA,"3127 OAK VALLEY DRIVE",ANN ARBOR,PITTSFIELD,Pearson,"Jet's Pizza chain",734-629-7328
SFE,4781,042783,MR. SPOTS,"808 S. STATE STREET",ANN ARBOR,,Kamenec,"04 VD Area UM Campus South",734-747-7768
SFE,4781,042814,AHMO'S GYROS & DELI,"4001 STONE SCHOOL ROAD",ANN ARBOR,PITTSFIELD,Sherwin,"Ahmo's Chain","(734) 971-5552"
SFE,4781,043184,"FOOD GATHERERS / ROBERT J DELONIS CENTER","312 W. HURON",ANN ARBOR,,Deedler,"15 SM Area Washngtn, Librty AA",734-761-2796
SFE,4781,045010,PERRY EARLY LEARNING CENTER (UPPER),"550 PERRY ST.",YPSILANTI,,Deedler,"Ypsilanti Community Schools","734-221-1024"
SFE,4781,045012,OCED SENIOR NUTRITION PROGRAM,"701 W. ELLSWORTH ROAD",ANN ARBOR,PITTSFIELD,Matranga,"OCED",734-822-2117
SFE,4781,045015,STARBUCKS COFFEE #2342,"3597 WASHTENAW",ANN ARBOR,,Matranga,"Starbuck's chain",734-477-0478
SFE,4781,045741,THOMPSON'S BAR & GRILL,"10655 W. MICHIGAN AVE",SALINE,,Yet,"07 CH Area Saline",734-922-2327
SFE,4781,045753,A & W DRIVE IN,"8220 DEXTER-CHELSEA",DEXTER,SCIO,Matranga,"02 VD Area Dexter",734-426-4427
SFE,4781,045754,RACQUET CLUB OF ANN ARBOR,"3010 HICKORY LN",ANN ARBOR,ANN ARBOR,Matranga,"16 CW Area Jackson, Zeeb, Lohr","(734) 971-5441"
SFE,4781,045765,WHITMORE LAKE TAVERN,"9839 MAIN ST",WHITMORE LAKE,NORTHFIELD,Yet,"03 PB Area Whit Lke & Wash Ave",734-449-5011
SFE,4781,045770,INDEPENDENCE LAKE COUNTY PARK,"3200 JENNINGS ROAD",ANN ARBOR,WEBSTER,Matranga,"03 PB Area Whit Lke & Wash Ave","(734) 449-4437"
SFE,4781,045779,SADAKO JAPANESE RESTAURANT,"1321 S. UNIVERSITY",ANN ARBOR,,Kamenec,"04 VD Area UM Campus South","(734) 913-0057"
SFE,4781,046129,FORTIS ACADEMY,"3875 GOLFSIDE",YPSILANTI,YPSILANTI,Hansell,"National Heritage Academies",616-222-1700
SFE,4781,046132,MANCHESTER JR/SR HIGH SCHOOL,"20500 DUTCH DRIVE",MANCHESTER,,Hansell,"Manchester Public Schools",734-428-9711
SFE,4781,046134,MOE'S SOUTHWEST GRILL,"857 W. EISENHOWER PARKWAY",ANN ARBOR,,Deedler,"20 CY Area Packard & Eisenhowr",734-998-0900
SFE,4781,046135,SALINE HIGH SCHOOL,"1300 CAMPUS PARKWAY",SALINE,,Yet,"Saline Community Schools","734-401-4350"
SFE,4781,046136,SALINE HIGH SCHOOL - THE HIVE,"1300 CAMPUS PARKWAY",SALINE,,Yet,"Saline Community Schools","734-401-4373"
SFE,4781,046141,BETH ISRAEL CONGREGATION,"2000 WASHTENAW",ANN ARBOR,,Hauck,"04 VD Area UM Campus South",734-665-9897
SFE,4781,046148,WILLOW RUN CAMPUS,"235 SPENCER LANE",YPSILANTI,YPSILANTI,Deedler,"Ypsilanti Community Schools",734-221-1216
SFE,4781,046158,AMERICAN LEGION POST 268,"44 WABASH ST",MILAN,,Matranga,"09 PB Area Milan & Ecorse/Ford","(734) 439-2170"
SFE,4781,047159,SALINE HIGH OUTDOOR CONCESSIONS,"1300 CAMPUS PARKWAY",SALINE,,Yet,"Saline Community Schools","734-401-4350"
SFE,4781,047160,NEW GRACE APOSTOLIC TEMPLE,"2898 PACKARD",ANN ARBOR,,Hauck,"20 CY Area Packard & Eisenhowr",734-477-6888
SFE,4781,047162,CHRISTIAN'S CATERING,"45 TOLAN",MILAN,,Matranga,"09 PB Area Milan & Ecorse/Ford","(734) 439-3663"
SFE,4781,047173,BUFFALO WILD WINGS,"205 S. STATE STREET",ANN ARBOR,,Sherwin,"Buffalo Wild Wings Chain",586-781-0591
SFE,4781,047424,AUBREE'S PIZZERA & TAVERN,"2120 - 2122 WHITTAKER ROAD",YPSILANTI,YPSILANTI,Pearson,"Aubree's Chain",734-483-1111
SFE,4781,048203,"SALINE AREA SENIOR COUNCIL, INC","7190 N. MAPLE RD",SALINE,,Yet,"07 CH Area Saline",734-429-9274
SFE,4781,048206,LOS AMIGOS,"2851 E. MICHIGAN AVENUE",YPSILANTI,YPSILANTI,Pearson,"Los Amigos Chain","(734) 480-3084"
SFE,4781,048212,"BROWN CHAPEL A.M.E. CHURCH","1043 W. MICHIGAN AVE",YPSILANTI,,Pearson,"18 CW Area Whittker & Mich Ave",734-482-7050
SFE,4781,049027,ANN ARBOR EAGLE #2154,"7881 JACKSON RD",ANN ARBOR,SCIO,Matranga,"16 CW Area Jackson, Zeeb, Lohr",734-424-9551
SFE,4781,049030,CHELSEA SCH SOFTBALL CONCESSIONS,"14138 E. OLD U.S. 12",CHELSEA,,Hansell,"Chelsea Community Schools",734-433-2201
SFE,4781,049616,HUNGRY WOLF,"20400 AUSTIN ROAD",MANCHESTER,MANCHESTER,Hauck,"08 CH Area Manchest & Briarwod","(734) 428-9380"
SFE,4781,049619,STAR'S CAFE,"2575 JACKSON ROAD",ANN ARBOR,,Hauck,"11 RS Area Stadium & Jackson",734-996-0299
SFE,4781,050087,JOYFUL HOUSE,"515 E. MICHIGAN AVENUE",SALINE,,Yet,"07 CH Area Saline",734-944-3197
SFE,4781,050088,PITA KABOB GRILL,"619 E. WILLIAM",ANN ARBOR,,Sherwin,"04 VD Area UM Campus South","(734) 622-8082"
SFE,4781,050094,KYOCERA UNIMERCO TOOLING INC.,"6620 STATE RD.",SALINE,PITTSFIELD,Yet,"08 CH Area Manchest & Briarwod",734-944-4433
SFE,4781,050097,CHAN GARDEN,"2265 W. LIBERTY",ANN ARBOR,,Hansell,"11 RS Area Stadium & Jackson",734-222-8098
SFE,4781,050955,HONG KONG,"2339 ELLSWORTH RD",YPSILANTI,YPSILANTI,Hauck,"12 SM Area Dwntwn AA, Wash Ave",
SFE,4781,050961,JIMMY JOHN'S #9028,"2615 PLYMOUTH ROAD",ANN ARBOR,,Matranga,"Jimmy Johns Chain",734-930-2000
SFE,4781,050970,TOYOTA TECHNICAL CENTER,"1555 WOODRIDGE",ANN ARBOR,,Deedler,"Toyota",734-695-2901
SFE,4781,051327,MCDONALD'S #6332,"166 JAMES L. HART PARKWAY",YPSILANTI,YPSILANTI,Hauck,"McDonalds chain",734-485-4210
SFE,4781,051815,CARLYLE BAR & GRILL,"3660 JACKSON RD",ANN ARBOR,SCIO,Kamenec,"20 CY Area Packard & Eisenhowr",734-213-9800
SFE,4781,051817,LA FUENTE, INC,"1930 WHITTAKER RD",YPSILANTI,YPSILANTI,Pearson,"18 CW Area Whittker & Mich Ave",734-340-4111
SFE,4781,052117,WASHTENAW CHRISTIAN ACADEMY,"7200 MOON RD",SALINE,PITTSFIELD,Yet,"07 CH Area Saline",734-429-7733
SFE,4781,052393,VINOLOGY,"110 S. MAIN ST",ANN ARBOR,ANN ARBOR,Sherwin,"14 RS Area Main Street AA",734-222-9841
SFE,4781,052402,BLUE NILE,"221 E. WASHINGTON",ANN ARBOR,,Kamenec,"05 VD Area UM Campus Northwest",734-998-4746
SFE,4781,052866,RIVERSIDE INTERMEDIATE SCHOOL,"710 E. MAIN STREET",MANCHESTER,,Hansell,"Manchester Public Schools",734-428-9711
SFE,4781,052875,HAPPY'S PIZZA #12, INC,"612 E. MICHIGAN AVE",YPSILANTI,,Pearson,"Happy's Pizza Chain",734-485-0000
SFE,4781,052880,YPSILANTI MARRIOTT,"1275 S HURON ST",YPSILANTI,,Hauck,"06 CW Area Plymth Rd, Ypsi",734-487-2000
SFE,4781,052885,HUNGRY HOWIE'S,"1874 WHITTAKER ROAD",YPSILANTI,YPSILANTI,Matranga,"Hungry Howie chain",734-480-0400
SFE,4781,053068Z,BEWON,"3574 PLYMOUTH ROAD",ANN ARBOR,,,"",734-332-1004
SFE,4781,053069,BEN & JERRY'S HOMEMADE,"304 S. STATE STREET",ANN ARBOR,,Sherwin,"05 VD Area UM Campus Northwest",734-665-4440
SFE,4781,053071,SWEETWATERS COFFEE & TEA,"407 N 5TH AVENUE",ANN ARBOR,ANN ARBOR,Matranga,"Sweetwater's chain",734-622-0084
SFE,4781,053267,JIMMY JOHNS GOURMET SANDWICHES #9027,"537 W. CROSS ST.",YPSILANTI,,Matranga,"Jimmy Johns Chain",734-484-2700
SFE,4781,054231,MR. PIZZA,"800 ECORSE RD",YPSILANTI,YPSILANTI,Hauck,"09 PB Area Milan & Ecorse/Ford",734-483-6900
SFE,4781,054238,WHITMORE LAKE HIGH SCHOOL KITCHEN,"7430 WHITMORE LAKE RD.",WHITMORE LAKE,NORTHFIELD,Yet,"Whitmore Lake Schools",734-449-4464
SFE,4781,054552,POPEYE'S CHICKEN,"200 BAKER RD",DEXTER,SCIO,Matranga,"Popeye's Chain",734-426-3951
SFE,4781,054554,ANN ARBOR PRESCHOOL & EARLY CHILDHOOD,"2725 BOARDWALK",ANN ARBOR,,Kamenec,"Ann Arbor Public Schools",734-994-2265
SFE,4781,054555,ANTHONY'S GOURMET PIZZA,"1508 N. MAPLE RD",ANN ARBOR,,Matranga,"Anthony's Gourmet Pizza",734-213-2500
SFE,4781,054557,GRAND TRAVERSE PIE COMPANY,"291 N ZEEB RD",ANN ARBOR,SCIO,Hauck,"16 CW Area Jackson, Zeeb, Lohr",734-997-9702
SFE,4781,054759,"WHITMORE LAKE H.S. OUTDOOR CONCESSION","7430 WHITMORE LAKE RD",WHITMORE LAKE,NORTHFIELD,Yet,"Whitmore Lake Schools",734-449-4464
SFE,4781,055018,"WHITMORE LAKE H.S. INDOOR CONCESSION","7430 WHITMORE LAKE RD",WHITMORE LAKE,NORTHFIELD,Yet,"Whitmore Lake Schools",734-449-4464
SFE,4781,055022,JIMMY JOHN'S #9030,"3365 WASHTENAW AVE STE D",ANN ARBOR,,Matranga,"Jimmy Johns Chain",734-477-0000
SFE,4781,055400,CHIPOTLE MEXICAN GRILL #955,"3354 WASHTENAW AVE",ANN ARBOR,,Hansell,"Chipotle Chain",734-975-9912
SFE,4781,055403,ARCTIC COLISEUM CONCESSION STAND,"501 COLISEUM DR.",CHELSEA,,Hauck,"01 PB Area Chelsea",734-433-4444
SFE,4781,055405,JOE'S JAVA,"5333 MCAULEY DR",YPSILANTI,ANN ARBOR,Hansell,"St. Joseph's Hospital-AA Chain",734-712-4362
SFE,4781,055421,JETS PIZZA OF CHELSEA,"506 NORTH MAIN ST",CHELSEA,,Pearson,"Jet's Pizza chain",734-433-9700
SFE,4781,056043,JET'S PIZZA,"1298 ANNA J. STEPP",YPSILANTI,YPSILANTI,Pearson,"Jet's Pizza chain",248-629-7328
SFE,4781,056045,NO THAI! 2,"226 N 4TH AVE",ANN ARBOR,,Pearson,"No Thai!",734-213-0808
SFE,4781,056731,ASIAN LEGEND INC,"516 E. WILLIAM",ANN ARBOR,,Sherwin,"05 VD Area UM Campus Northwest",734-622-0750
SFE,4781,057317,FOREST SCHOOL,"1076 ECORSE ROAD",YPSILANTI,,Deedler,"Ypsilanti Community Schools",734-221-1216
SFE,4781,057327,GREENHILLS SCHOOL,"850 GREENHILLS DR.",ANN ARBOR,,Yet,"21 CY Area Kerrytown & AA Twp.",734-769-4010
SFE,4781,057331,STARBUCKS COFFEE #11966,"4585 WASHTENAW AVE",ANN ARBOR,PITTSFIELD,Matranga,"Starbuck's chain",734-973-3105
SFE,4781,057751,BLUE TRACTOR BBQ & BREWERY,"207 E. WASHINGTON",ANN ARBOR,,Kamenec,"Mission Management Chain",734-222-4095
SFE,4781,058141,STARBUCKS COFFEE #13531,"3650 CARPENTER RD.",ANN ARBOR,PITTSFIELD,Matranga,"Starbuck's chain",734-677-2415
SFE,4781,058150,LOYAL ORDER OF THE MOOSE #1253-ANN ARBOR,"10160 JACKSON RD",DEXTER,LIMA,Hauck,"01 PB Area Chelsea",734-433-1132
SFE,4781,058153,BUFFALO WILD WINGS,"216 JAMES L. HART PARKWAY",YPSILANTI,,Sherwin,"Buffalo Wild Wings Chain",734-480-7410
SFE,4781,058156,IHOP,"4221 ELLSWORTH RD",YPSILANTI,PITTSFIELD,Deedler,"17 CY Area Washtnaw & Carpnter",734-528-4467
SFE,4781,058158,MULTICULTURE ACADEMY,"5550 PLATT RD",ANN ARBOR,PITTSFIELD,Deedler,"17 CY Area Washtnaw & Carpnter",734-677-0732
SFE,4781,058160,MODEL ELEMENTARY SCHOOL (LINCOLN),"8850 WHITTAKER RD.",YPSILANTI,AUGUSTA,Pearson,"Lincoln Consolidated Schools",734-484-7000
SFE,4781,058164,DEXTER HIGH SCHOOL ATHLETIC BOOSTERS,"2200 N PARKER RD",DEXTER,,Sherwin,"Dexter Community Schools",734-424-4240
SFE,4781,058438,LEO'S CONEY ISLAND,"1342 ANNA J STEPP",YPSILANTI,YPSILANTI,Matranga,"Leo's Coney Island Chain",734-547-9202
SFE,4781,059688,BTB CANTINA (BIG TEN BURRITO CANTINA),"1140 S. UNIVERSITY (2ND FLOOR)",ANN ARBOR,,Kamenec,"04 VD Area UM Campus South",734-222-3715
SFE,4781,059689,"ICHIBAN JAPANESE STEAK HOUSE & SUSHI BAR","4641 WASHTENAW AVE",ANN ARBOR,PITTSFIELD,Pearson,"17 CY Area Washtnaw & Carpnter",734-975-0989
SFE,4781,059829,FRANKS PLACE,"104 E. MAIN STREET",MANCHESTER,,Hauck,"08 CH Area Manchest & Briarwod",734-428-8003
SFE,4781,059830,"LEO'S CONEY ISLAND #35","3644 CARPENTER RD, SUITE A",ANN ARBOR,PITTSFIELD,Matranga,"Leo's Coney Island Chain",734-971-2388
SFE,4781,059832,TRAVIS POINTE CC ALL SPORTS CAFE,"2829 TRAVIS POINTE RD",ANN ARBOR,LODI,Deedler,"07 CH Area Saline",734-662-2582
SFE,4781,060043,ACHILLES RESTAURANT,"3075 PACKARD",ANN ARBOR,,Hauck,"20 CY Area Packard & Eisenhowr",734-971-2020
SFE,4781,060048,ARCTIC BREAKWAY,"501 COLISEUM DR.",CHELSEA,,Hauck,"01 PB Area Chelsea",734-475-9999
SFE,4781,060057,OZONE DROP IN,"102 N. HAMILTON",YPSILANTI,,Pearson,"19 CH Area AA Schls & DepotTwn",734-662-2265
SFE,4781,060338,FULL CIRCLE COMMUNITY CENTER,"750 TOWNER",YPSILANTI,,Pearson,"10 SM Area Mich Ave/Ypsi City",734-485-2020
SFE,4781,060343,McDONALD'S #24999,"101 BAKER RD",DEXTER,SCIO,Hauck,"McDonalds chain",734-424-0461
SFE,4781,061042,TOYOTA TECH CENTER(YORK) - ARAMARK,"8777 PLATT RD",SALINE,YORK,Deedler,"Toyota",734-277-7553
SFE,4781,061045,SKYLINE HIGH SCHOOL CAFETERIA,"2552 N. MAPLE RD",ANN ARBOR,,Kamenec,"Ann Arbor Public Schools",734-994-2265
SFE,4781,061138,CHIPOTLE MEXICAN GRILL #1158,"858 BRIARWOOD CIRCLE, STE E130",ANN ARBOR,,Hansell,"Chipotle Chain",734-794-0600
SFE,4781,061524,HAIFA FALAFEL,"4585 WASHTENAW AVE STE 2",ANN ARBOR,,Pearson,"09 PB Area Milan & Ecorse/Ford",734-677-4410
SFE,4781,061525,CHIPOTLE MEXICAN GRILL #1219,"235 S. STATE ST.",ANN ARBOR,,Hansell,"Chipotle Chain",734-794-0800
SFE,4781,061526,"LEO'S CONEY ISLAND #34F","6889 STATE ST",SALINE,,Matranga,"Leo's Coney Island Chain",734-944-7100
SFE,4781,061568,SKYLINE HIGH SCHOOL CONCESSIONS,"2552 N. MAPLE",ANN ARBOR,,Kamenec,"19 CH Area AA Schls & DepotTwn",734-994-6515
SFE,4781,062090,MCDONALD'S #2999,"16 ECORSE ROAD",YPSILANTI,YPSILANTI,Hauck,"McDonalds chain",734-485-8416
SFE,4781,062093,PALM PALACE - PITTSFIELD,"2370 CARPENTER RD",ANN ARBOR,PITTSFIELD,Deedler,"17 CY Area Washtnaw & Carpnter",734-606-0706
SFE,4781,062376,UMI SUSHI,"3393 PLYMOUTH RD SUITE 200",ANN ARBOR,,Yet,"06 CW Area Plymth Rd, Ypsi",734-222-0826
SFE,4781,062660,GOLDEN EGG,"2660 WASHTENAW",YPSILANTI,,Deedler,"13 RS Area EMU & Campus Area",734-434-0100
SFE,4781,062661Z,DOMINO'S,"401 E. MICHIGAN",SALINE,,Sherwin,"Domino's chain",734-944-4555
SFE,4781,062662,"DOMINO'S PIZZA #1117 / T & R PIZZA","4910 WASHTENAW AVE",ANN ARBOR,,Sherwin,"Domino's chain",734-528-1111
SFE,4781,062663,"DOMINO'S PIZZA #1101 / T & R PIZZA","953 WASHTENAW AVE.",YPSILANTI,,Sherwin,"Domino's chain",734-482-5555
SFE,4781,062909,"EBA (CAFETERIA) C/O DOMINO'S","24 FRANK LLOYD WRIGHT",ANN ARBOR,,Hansell,"21 CY Area Kerrytown & AA Twp.",734-930-7248
SFE,4781,062913,BONE HEADS BAR-B-QUE INC,"10256 WILLIS ROAD",WILLIS,AUGUSTA,Kamenec,"18 CW Area Whittker & Mich Ave",734-461-9250
SFE,4781,062914,COMET COFFEE LLC,"16 NICKELS ARCADE",ANN ARBOR,,Sherwin,"05 VD Area UM Campus Northwest",734-222-0579
SFE,4781,062915,PANERA BREAD # 1366,"777 N. UNIVERSITY",ANN ARBOR,,Kamenec,"Panera Bread Chain",734-332-3402
SFE,4781,062919,NO THAI! 3,"1745 PLYMOUTH RD",ANN ARBOR,,Pearson,"No Thai!",734-663-8080
SFE,4781,063035,JAMAICAN JERK PIT,"314 S THAYER ST",ANN ARBOR,,Sherwin,"05 VD Area UM Campus Northwest",734-585-5278
SFE,4781,063065,GOOD TIME CHARLEYS,"1140 S. UNIVERSITY",ANN ARBOR,,Kamenec,"04 VD Area UM Campus South",734-668-8411
SFE,4781,063098,PANDA HOUSE,"229 N. MAPLE RD.",ANN ARBOR,,Hansell,"11 RS Area Stadium & Jackson",734-662-1818
SFE,4781,063304,SEOUL GARDEN RESTAURANT,"3125 BOARDWALK",ANN ARBOR,,Deedler,"20 CY Area Packard & Eisenhowr",734-997-2121
SFE,4781,063420,BEACH MIDDLE SCHOOL POOL,"445 AD MAYER DRIVE",CHELSEA,,Hansell,"Chelsea Community Schools",734-433-2201
SFE,4781,063421,BIG SKY DINER,"1340 ECORSE ROAD",YPSILANTI,YPSILANTI,Hauck,"09 PB Area Milan & Ecorse/Ford","(734) 481-0525"
SFE,4781,063423,TIO'S ON LIBERTY,"401 E. LIBERTY",ANN ARBOR,,Matranga,"15 SM Area Washngtn, Librty AA",734-761-6650
SFE,4781,063424,EVEN HOTEL,"610 HILTON BLVD.",ANN ARBOR,,Hansell,"08 CH Area Manchest & Briarwod",734-761-7800
SFE,4781,064335,"SUBWAY @ WAL-MART/MARUTI FAST FOODS, LLC","7000 EAST MICHIGAN AVE",SALINE,,Sherwin,"Subway chain",734-992-5200
SFE,4781,064394,"MANCHESTER ATHLETIC BOOSTER - FOOTBALL","20500 DUTCH DR.",MANCHESTER,,Hansell,"Manchester Public Schools","(734) 428-9711"
SFE,4781,064395,"MANCHESTER ATHLETIC BOOSTER - GYM","20500 DUTCH DR.",MANCHESTER,,Hansell,"Manchester Public Schools",734-428-7333
SFE,4781,064398,MCDONALD'S RESTAURANT #1992,"4775 WASHTENAW AVE",ANN ARBOR,PITTSFIELD,Hauck,"McDonalds chain",734-434-0434
SFE,4781,064400Z,JOLLY PUMPKIN CAFE AND BREWERY,"311 SOUTH MAIN ST",ANN ARBOR,,Kamenec,"Mission Management Chain",734-604-0977
SFE,4781,064784,ANN ARBOR REGENT HOTEL & SUITES,"2455 CARPENTER RD.",ANN ARBOR,,Matranga,"",734-973-6100
SFE,4781,064792,SAVA'S,"216 S. STATE ST.",ANN ARBOR,,Kamenec,"Sava Chain",734-623-2233
SFE,4781,064796,BRECON VILLAGE MEMORY SUPPORT CENTER,"202 BRECON DRIVE",SALINE,,Yet,"07 CH Area Saline",734-429-1155
SFE,4781,064930,EAST U PROVISIONS - REVIVE/REPLENISH,"619 E. UNIVERSITY AVE",ANN ARBOR,,Kamenec,"Red Hawk chain",734-994-7474
SFE,4781,064935,SUBWAY,"1478 ECORSE ROAD",YPSILANTI,YPSILANTI,Sherwin,"Subway chain",734-482-1176
SFE,4781,064936,MI ZARAPE II LLC,"7025 E MICHIGAN AVENUE",SALINE,,Yet,"18 CW Area Whittker & Mich Ave",734-470-6638
SFE,4781,064939,NAGOMI SUSHI & NOODLE,"1754 PLYMOUTH RD.",ANN ARBOR,,Yet,"06 CW Area Plymth Rd, Ypsi",734-761-5800
SFE,4781,065177,PILARS CAFE INC.,"2261 W. LIBERTY",ANN ARBOR,,Hauck,"11 RS Area Stadium & Jackson",734-929-4161
SFE,4781,065228,NICK'S ORIGINAL HOUSE OF PANCAKES,"3030 LOHR RD",ANN ARBOR,PITTSFIELD,Deedler,"16 CW Area Jackson, Zeeb, Lohr",734-622-6425
SFE,4781,065548,CHEN NEW CHINA INC,"6889 STATE RD., STE D",SALINE,,Yet,"",429-7288
SFE,4781,065798,LAB,"505 E. LIBERTY STE 300",ANN ARBOR,,Matranga,"15 SM Area Washngtn, Librty AA",734-277-2444
SFE,4781,065869,TIAN CHU,"613 E. WILLIAM",ANN ARBOR,,Sherwin,"05 VD Area UM Campus Northwest",734-657-5686
SFE,4781,065870,JOE'S JAVA @ SJMH - ANN ARBOR,"5301 EAST HURON RIVER DR.",ANN ARBOR,,Hansell,"St. Joseph's Hospital-AA Chain",734-712-2561
SFE,4781,066047,"NOODLES & COMPANY #8010","320 S. STATE STREET",ANN ARBOR,,Pearson,"Noodles & Co.",734-327-9041
SFE,4781,066049,"NOODLES & COMPANY #8009","3601 WASHTENAW, SUITE A",ANN ARBOR,,Pearson,"Noodles & Co.",734-477-5700
SFE,4781,066158,ANN ARBOR RED ROBIN INC,"575 BRIARWOOD CR.",ANN ARBOR,,Sherwin,"Red Robin Chain",734-997-9550
SFE,4781,066160,TOMUKUN NOODLE BAR,"505 E. LIBERTY ST. STE 200",ANN ARBOR,,Matranga,"15 SM Area Washngtn, Librty AA",734-995-8668
SFE,4781,066361,CENTRAL ACADEMY ELEMENTARY,"2455 S. INDUSTRIAL HWY",ANN ARBOR,,Deedler,"Central Academy Chain",734-822-1100
SFE,4781,066758,TASTE OF INDIA,"217 B - S. STATE ST.",ANN ARBOR,,Matranga,"15 SM Area Washngtn, Librty AA",734-327-6500
SFE,4781,066759,AMERICAN GRILL INC.,"1450 HOLMES ROAD",YPSILANTI,YPSILANTI,Pearson,"09 PB Area Milan & Ecorse/Ford",734-544-4453
SFE,4781,066762,ZAMAAN CAFE,"3580 PLYMOUTH RD",ANN ARBOR,ANN ARBOR,Deedler,"06 CW Area Plymth Rd, Ypsi",734-213-3350
SFE,4781,067168,AUNTIE ANNE'S PRETZELS,"261 BRIARWOOD CIRCLE",ANN ARBOR,,Hansell,"08 CH Area Manchest & Briarwod",734-213-5702
SFE,4781,067198,YPSILANTI HIGH SCHOOL INDOOR CONCESSION,"2095 PACKARD",YPSILANTI,,Deedler,"Ypsilanti Community Schools",734-221-1216
SFE,4781,067199,YPSILANTI HIGH SCHOOL SHADFORD FIELD,"2095 PACKARD",YPSILANTI,,Deedler,"Ypsilanti Community Schools",734-221-1216
SFE,4781,067360,SALINE MIDDLE SCHOOL OUTDOOR CONCESSION,"7190 MAPLE RD",SALINE,,Yet,"Saline Community Schools",734-401-4350
SFE,4781,067755,REGIONAL CAREER TECHNICAL CENTER @ ARDIS,"2100 ELLSWORTH",YPSILANTI,YPSILANTI,Deedler,"Ypsilanti Community Schools",734-221-1216
SFE,4781,067765,"BIGGBY COFFEE STORE 291 (ATOS, LLC)","1171 S. MAIN ST. STE # 1",CHELSEA,,Deedler,"Biggby Coffee chain",734-562-2183
SFE,4781,067928,"MANCINO'S PIZZA & GRINDERS","2883 CARPENTER ROAD",ANN ARBOR,PITTSFIELD,Yet,"Mancino's chain",734-677-3655
SFE,4781,067929,GRACE FELLOWSHIP CHURCH,"1375 S. HARRIS RD",YPSILANTI,YPSILANTI,Deedler,"",734-480-0077
SFE,4781,068037,FRITA BATIDOS,"117 W WASHINGTON",ANN ARBOR,,Yet,"12 SM Area Dwntwn AA, Wash Ave",734-761-2882
SFE,4781,068168,CEDARS OF DEXTER (THE),"411 CEDARS LANE",DEXTER,,Hansell,"02 VD Area Dexter",313-623-3668
SFE,4781,068280,JOE AND ROSIE,"8074 MAIN ST",DEXTER,,Matranga,"02 VD Area Dexter",734-253-2344
SFE,4781,068456,JOE'S CONEY ISLAND,"6066 RAWSONVILLE ROAD",VAN BUREN TWP,YPSILANTI,Kamenec,"18 CW Area Whittker & Mich Ave",734-482-5847
SFE,4781,068457,SATCHEL'S BBQ LLC,"3035 WASHTENAW AVE",ANN ARBOR,,Hauck,"Satchel's BBQ chain",734-971-5100
SFE,4781,068577,BREWED AWAKENINGS CAFE,"7025 E. MICHIGAN AVE",SALINE,PITTSFIELD,Yet,"07 CH Area Saline",734-316-2084
SFE,4781,068939,DKY SUSHI,"283 S. ZEEB ROAD",ANN ARBOR,SCIO,Hauck,"16 CW Area Jackson, Zeeb, Lohr","(734) 997-9197"
SFE,4781,069026,BLUE LEPRECHAUN,"1220 S. UNIVERSITY, SUITE 109",ANN ARBOR,,Kamenec,"Owner Porikos",734-929-5944
SFE,4781,069028,CALVARY BIBLE CHURCH,"8318 CARPENTER RD",YPSILANTI,YORK,Hauck,"09 PB Area Milan & Ecorse/Ford",734-434-4044
SFE,4781,069117,RAVENS CLUB (THE),"207 S. MAIN ST",ANN ARBOR,,Sherwin,"14 RS Area Main Street AA",734-214-0400
SFE,4781,069178,BLACK PEARL,"302 S. MAIN ST",ANN ARBOR,,Sherwin,"14 RS Area Main Street AA",734-222-0400
SFE,4781,069394,MANI OSTERIA & BAR,"341 EAST LIBERTY",ANN ARBOR,,Matranga,"15 SM Area Washngtn, Librty AA",734-769-6700
SFE,4781,069396,BOMBER RESTAURANT,"306 E. MICHIGAN AVENUE",YPSILANTI,,Pearson,"10 SM Area Mich Ave/Ypsi City",734-482-0550
SFE,4781,069754,ANN ARBOR REGENT HOTEL CONFERENCE CENTER,"2525 CARPENTER RD",ANN ARBOR,PITTSFIELD,Matranga,"17 CY Area Washtnaw & Carpnter",734-973-6100
SFE,4781,070026,SUBWAY,"3395 PLYMOUTH RD.",ANN ARBOR,,Sherwin,"Subway chain",734-761-4388
SFE,4781,070180,EAST ARBOR CHARTER ACADEMY,"6885 MERRIT RD",YPSILANTI,YPSILANTI,Hansell,"National Heritage Academies",616-222-1700
SFE,4678,070181Z,EAST MIDDLE SCHOOL,"510 EMERICK",YPSILANTI,,Deedler,"Ypsilanti Community Schools",734-221-1021
SFE,4781,070248,HOPE MEDICAL CLINIC,"518 HARRIET ST.",YPSILANTI,,Pearson,"10 SM Area Mich Ave/Ypsi City",734-484-2989
SFE,4781,070405,LOS AMIGOS,"625 HILTON BLVD.",ANN ARBOR,,Pearson,"Los Amigos Chain",734-327-0500
SFE,4781,070439,ARBOR PREPARATORY HIGH SCHOOL,"6800 HITCHINGHAM RD.",YPSILANTI,YPSILANTI,Hansell,"National Heritage Academies",616-929-1373
SFE,4781,070503,TMAZ TAQUERIA,"3182 PACKARD RD",ANN ARBOR,,Hauck,"20 CY Area Packard & Eisenhowr",734-477-6089
SFE,4781,070504,FIRST UNITED METHODIST CHURCH,"9318 MAIN ST.",WHITMORE LAKE,NORTHFIELD,Matranga,"03 PB Area Whit Lke & Wash Ave",810-229-8561
SFE,4781,070660,BRIDGEWATER BANK & TAVERN RESTAURANT,"8452 BOETTNER",BRIDGEWATER,BRIDGEWATER,Hauck,"08 CH Area Manchest & Briarwod",734-429-5875
SFE,4781,070746,QDOBA MEXICAN EATS #2250,"3279 WASHTENAW AVE",ANN ARBOR,,Pearson,"Qdoba Chain",734-973-6393
SFE,4781,070747,QDOBA MEXICAN EATS # 2157,"2252 S. MAIN STREET",ANN ARBOR,,Pearson,"Qdoba Chain",734-332-1489
SFE,4781,071058,ZAMMAN CAFE,"865 W. EISENHOWER PKWY",ANN ARBOR,,Deedler,"20 CY Area Packard & Eisenhowr",734-769-1113
SFE,4781,071270,WCCMH DD COMMERCIAL KITCHEN,"2140 E. ELLSWORTH RD",ANN ARBOR,PITTSFIELD,Deedler,"20 CY Area Packard & Eisenhowr",734-544-3050
SFE,4781,071758,PIONEER HIGH SCHOOL FIELD HOUSE,"601 W STADIUM BLVD",ANN ARBOR,,Kamenec,"Ann Arbor Public Schools",734-994-2265
SFE,4781,071862,POTBELLY SANDWICH SHOP 026,"300 S. STATE STEET",ANN ARBOR,,Hansell,"Potbelly Sandwich Works Chain","312-951-0600"
SFE,4781,071863,POTBELLY SANDWICH SHOP 077,"3785 WASHTENAW AVE",ANN ARBOR,,Hansell,"Potbelly Sandwich Works Chain","312-951-0600"
SFE,4781,071864,POTBELLY SANDWICH SHOP 197,"980 W. EISENHOWER (SUITE C)",ANN ARBOR,,Hansell,"Potbelly Sandwich Works Chain","312-951-0600"
SFE,4781,071948,MICHIGAN CREAMERY,"302 S. STATE STREET",ANN ARBOR,,Sherwin,"05 VD Area UM Campus Northwest",734-662-1700
SFE,4781,071949,RED ROCK BARBECUE/ BITTER TRUTH,"207 W. MICHIGAN AVENUE",YPSILANTI,,Pearson,"10 SM Area Mich Ave/Ypsi City",734-340-2381
SFE,4781,071952,INSOMNIA COOKIES #011,"1229 S UNIVERSITY AVE",ANN ARBOR,,Deedler,"04 VD Area UM Campus South",632-6654
SFE,4781,072150,ALLEY BAR,"112 W. LIBERTY",ANN ARBOR,,Yet,"15 SM Area Washngtn, Librty AA",734-662-8757
SFE,4781,072331,CHELA'S RESTAURANT & TAQUERIA,"693 S. MAPLE ROAD",ANN ARBOR,,Matranga,"11 RS Area Stadium & Jackson",734-332-6055
SFE,4781,072377,CHEF RESTAURANT MEDITERRANEAN CUISINE,"1098 N. HURON RIVER DR",YPSILANTI,,Deedler,"13 RS Area EMU & Campus Area",734-544-1161
SFE,4781,072642,JR'S CONCESSIONS,"8555 SILVER HILL ROAD",PINCKNEY,DEXTER,Matranga,"02 VD Area Dexter",734-355-0784
SFE,4781,072926,NT FOOD FOUNDRY,"4747 WASHTENAW AVE",ANN ARBOR,PITTSFIELD,Pearson,"",734-585-5499
SFE,4781,073067,TACO BELL #27886,"1085 E MICHIGAN AVE.",YPSILANTI,,Deedler,"Taco Bell chain",734-648-0558
SFE,4781,073069,CURRY ON,"2711 PLYMOUTH RD",ANN ARBOR,,Yet,"",734-418-3175
SFE,4781,073070,SOUTHPOINTE SCHOLARS CHARTER ACADEMY,"10550 GEDDES RD",YPSILANTI,,Hansell,"National Heritage Academies",616-222-1700
SFE,4781,073338,LIVE, THE LAST WORD DBA,"102 S. FIRST ST",ANN ARBOR,,Matranga,"15 SM Area Washngtn, Librty AA",734-585-5691
SFE,4781,073342,WURST BAR (THE),"705 W. CROSS ST",YPSILANTI,,Deedler,"13 RS Area EMU & Campus Area",734-458-6720
SFE,4781,073343,CONCORDIA UNIVERSITY DINING HALL,"4090 GEDDES ROAD",ANN ARBOR,ANN ARBOR,Yet,"21 CY Area Kerrytown & AA Twp.",734-995-7570
SFE,4781,073396,KNOX PRESBYTERIAN CHURCH,"2065 S WAGNER",ANN ARBOR,SCIO,Sherwin,"11 RS Area Stadium & Jackson",734-761-5669
SFE,4781,073399,APPLEBEE'S #8084,"3819 CARPENTER ROAD",YPSILANTI,,Deedler,"Applebee's Chain",248-262-1000
SFE,4781,073511,RESIDENCE INN BY MARRIOT,"3535 GREEN CT",ANN ARBOR,,Matranga,"06 CW Area Plymth Rd, Ypsi",734-327-0011
SFE,4781,073899,REDIES CENTER FOR REHAB & HEALTHY LIVING,"440 W RUSSELL ST",SALINE,,Yet,"",734-429-1141
SFE,4781,073901,MIKE'S DELI,"114 W. MIDDLE ST",CHELSEA,,Hauck,"01 PB Area Chelsea","(734) 475-5980"
SFE,4781,073955,WYNDHAM GARDEN / EXECUTIVE HOSPITALITY,"2900 JACKSON ROAD",ANN ARBOR,,Hansell,"11 RS Area Stadium & Jackson",734-665-4444
SFE,4781,073958,PANDA EXPRESS #2101,"620 BRIARWOOD CIRCLE D#113",ANN ARBOR,,Hansell,"08 CH Area Manchest & Briarwod",734-994-3696
SFE,4781,074016,CANCUN MEXICAN GRILL,"405 E. MICHIGAN AVENUE",SALINE,,Yet,"07 CH Area Saline",734-429-2262
SFE,4781,074405,COMMUNITY HIGH SCHOOL,"401 N DIVISION",ANN ARBOR,,Kamenec,"Ann Arbor Public Schools",734-994-2265
SFE,4781,074407,PHO HOUSE,"2224 WASHTENAW",YPSILANTI,YPSILANTI,Pearson,"03 PB Area Whit Lke & Wash Ave",
SFE,4781,074408,SMOKEHOUSE 52 BBQ,"125 S. MAIN ST",CHELSEA,,Hauck,"Smokehouse 52 BBQ",734-526-2565
SFE,4781,074412,NO THAI!,"1300 S UNIVERSITY STE #3",ANN ARBOR,,Pearson,"No Thai!",734-222-8080
SFE,4781,074562,CARDAMOM RESTAURANT,"1739 PLYMOUTH RD.",ANN ARBOR,,Yet,"05 VD Area UM Campus Northwest",734-662-2877
SFE,4781,074612,INSOMNIA COOKIES,"733 W CROSS ST",YPSILANTI,,Deedler,"13 RS Area EMU & Campus Area",734-632-6654
SFE,4781,074617,STARBUCKS COFEE #15010,"2793 PLYMOUTH RD",ANN ARBOR,,Matranga,"Starbuck's chain",734-332-6118
SFE,4781,074859,KING SHING INC,"2865 CARPENTER ROAD",ANN ARBOR,PITTSFIELD,Deedler,"17 CY Area Washtnaw & Carpnter",734-971-8999
SFE,4781,074953,BEARCLAW COFFEE CO.,"9188 N. TERRITORIAL ROAD",DEXTER,,Matranga,"Bearclaw Coffee Chain",734-369-9660
SFE,4781,074955,HUNGRY HOWIES #00072,"3365 WASHTENAW AVE STE J",ANN ARBOR,,Matranga,"Hungry Howie chain",734-929-0072
SFE,4781,074959Z,DOMINO'S PIZZA,"2601 PLYMOUTH ROAD",ANN ARBOR,,Sherwin,"Domino's chain",734-663-3333
SFE,4781,074961,INDEPENDENCE LAKE PARK- BLUE HERON PARK,"3200 JENNINGS RD",WHITMORE LAKE,WEBSTER,Matranga,"03 PB Area Whit Lke & Wash Ave",734-449-4437
SFE,4781,075119,SPORTS BAR WESTSIDE (THE),"5510 JACKSON ROAD",ANN ARBOR,,Kamenec,"16 CW Area Jackson, Zeeb, Lohr",734-668-7800
SFE,4781,075174,CINEMARK,"4100 CARPENTER ROAD",YPSILANTI,PITTSFIELD,Deedler,"17 CY Area Washtnaw & Carpnter",810-732-6668
SFE,4781,075513,LA CUISINE BERBERE,"1510 N. MAPLE RD",ANN ARBOR,,Hansell,"11 RS Area Stadium & Jackson",734-585-0686
SFE,4781,075621,"NOODLES & COMPANY #8015","2245 W. STADIUM BLVD.",ANN ARBOR,,Pearson,"Noodles & Co.",734-418-7930
SFE,4781,075664,CHICK INN,"501 HOLMES RD",YPSILANTI,YPSILANTI,Pearson,"09 PB Area Milan & Ecorse/Ford",734-483-3639
SFE,4781,075877,BELL TOWER HOTEL,"300 S THAYER",ANN ARBOR,,Sherwin,"05 VD Area UM Campus Northwest",734-769-3010
SFE,4781,075878,DON JUAN,"2135 W. STADIUM BLVD.",ANN ARBOR,,Hansell,"11 RS Area Stadium & Jackson",734-327-0500
SFE,4781,075928,SIGMA CHI FRATERNITY,"548 S STATE ST",ANN ARBOR,,Sherwin,"04 VD Area UM Campus South",
SFE,4781,076131,EL HARISSA,"1516 N MAPLE RD",ANN ARBOR,,Hansell,"11 RS Area Stadium & Jackson",734-585-0686
SFE,4781,076325,ZOLA BISTRO,"3030 WASHTENAW AVE",ANN ARBOR,,Yet,"",734-477-8088
SFE,4781,076882,BIGGBY COFFEE,"1510 WASHTENAW AVE",YPSILANTI,,Deedler,"Biggby Coffee chain",734-961-7429
SFE,4781,076883,"TIM HORTON'S CAFE & BAKE SHP","2220 WASHTENAW AVE",YPSILANTI,YPSILANTI,Kamenec,"Tim Hortons Chain",734-528-1776
SFE,4781,076885,AVENTURA,"216 E WASHINGTON",ANN ARBOR,,Kamenec,"Sava Chain",734-623-2233
SFE,4781,076886,BIGALORA WOODFIRED CUCINA,"3050 WASHTENAW #112",ANN ARBOR,,Hauck,"",734-971-2442
SFE,4781,077178,BUFFALO WILD WINGS,"3150 BOARDWALK",ANN ARBOR,,Sherwin,"Buffalo Wild Wings Chain",586-781-0591
SFE,4781,077244,STUFD,"505 W. CROSS",YPSILANTI,,Deedler,"13 RS Area EMU & Campus Area",734-340-6952
SFE,4781,077312,TOMUKUN KOREAN BBQ,"505 E LIBERTY STE 100",ANN ARBOR,,Matranga,"15 SM Area Washngtn, Librty AA",734-369-2602
SFE,4781,077430,KNIGHTS ON LIBERTY,"600 E LIBERTY ST",ANN ARBOR,,Sherwin,"Knight's chain",734-887-6899
SFE,4781,077431,SLURPING TURTLE,"608 E LIBERTY ST",ANN ARBOR,,Sherwin,"04 VD Area UM Campus South",734-887-6868
SFE,4781,077432,SEVA RESTAURANT,"2541 JACKSON RD",ANN ARBOR,,Hansell,"11 RS Area Stadium & Jackson",734-662-1111
SFE,4781,077435,MORNING OWL COFFEE CORP, THE,"9 W. MAIN STREET",MILAN,,Matranga,"09 PB Area Milan & Ecorse/Ford","(734) 508-6340"
SFE,4781,077546,FRANKS RESTAURANT,"334 MAYNARD",ANN ARBOR,,Sherwin,"05 VD Area UM Campus Northwest",734-761-5699
SFE,4781,077746,RED LOBSTER #0260,"2420 CARPENTER ROAD",ANN ARBOR,,Deedler,"17 CY Area Washtnaw & Carpnter",734-971-4412
SFE,4781,077945,HURON VALLEY PACE,"2940 ELLSWORTH RD",YPSILANTI,YPSILANTI,Pearson,"18 CW Area Whittker & Mich Ave",734-572-5777
SFE,4781,077946,ZINGERMAN'S CORNMAN FARM,"8540 ISLAND LAKE RD",DEXTER,DEXTER,Matranga,"Zingerman's chain",734-619-8100
SFE,4781,078068,AMA BISTRO,"215 S. STATE STREET",ANN ARBOR,,Sherwin,"05 VD Area UM Campus Northwest",734-780-7202
SFE,4781,078297,MAIZ MEXICAN CANTINA,"36 E. CROSS STREET",YPSILANTI,,Pearson,"19 CH Area AA Schls & DepotTwn",734-340-6010
SFE,4781,078409,MILAN DAIRY BARN,"805 DEXTER STREET",MILAN,,Matranga,"09 PB Area Milan & Ecorse/Ford",734-308-2223
SFE,4781,078410,BLANK SLATE CREAMERY LLC,"300 W. LIBERTY",ANN ARBOR,,Matranga,"12 SM Area Dwntwn AA, Wash Ave",734-922-5383
SFE,4781,078793,BIGGBY COFFEE,"3980 PLATT RD STE A",ANN ARBOR,,Deedler,"Biggby Coffee chain",734-368-9384
SFE,4781,078847,CARRIGAN CAFE,"101 S ANN ARBOR ST, STE 107",SALINE,,Yet,"07 CH Area Saline",734-316-7633
SFE,4781,078876,BEARCLAW COFFEE COMPANY,"2460 WASHTENAW AVE.",ANN ARBOR,,Matranga,"Bearclaw Coffee Chain",734-369-9660
SFE,4781,078985,McDONALD'S,"1177 DEXTER STREET",MILAN,,Hauck,"McDonalds chain",734-439-1520
SFE,4781,079126,GLAZIER COMMONS @ CRC,"805 W. MIDDLE ST",CHELSEA,,Hansell,"01 PB Area Chelsea",734-433-1000
SFE,4781,079127,ATRIA ANN ARBOR,"1901 PLYMOUTH RD",ANN ARBOR,,Yet,"",734-741-9500
SFE,4781,079128,SUSHI TIME,"7050 DEXTER-ANN ARBOR RD #100",DEXTER,,Matranga,"02 VD Area Dexter",734-253-2581
SFE,4781,079129,KRAZY JIM'S BLIMPY BURGER,"304 S. ASHLEY",ANN ARBOR,,Yet,"12 SM Area Dwntwn AA, Wash Ave",734-663-4590
SFE,4781,079410,ANN ARBOR COMEDY SHOWCASE,"212 S FOURTH AVE, STE A",ANN ARBOR,,Kamenec,"",734-996-9080
SFE,4781,079415,SKYLINE HIGH SCHOOL INDOOR CONCESSIONS,"2552 N MAPLE",ANN ARBOR,,Kamenec,"Ann Arbor Public Schools",734-994-7075
SFE,4781,079497,PF CHANGS CHINA BISTRO,"720 BRIARWOOD CIR",ANN ARBOR,,Hansell,"08 CH Area Manchest & Briarwod",734-780-3900
SFE,4781,079696,ANTONIO'S CONEY ISLAND,"2896 WASHTENAW AVE",YPSILANTI,YPSILANTI,Hauck,"03 PB Area Whit Lke & Wash Ave",734-905-7321
SFE,4781,079706,LA TORRE TAQUERIA MEXICAN RESTAURANT LLC,"1525 WASHTENAW AVE.",YPSILANTI,,Hauck,"03 PB Area Whit Lke & Wash Ave",734-905-7220
SFE,4781,079959,MCDONALD'S RESTAURANT 33298,"3325 WASHTENAW AVE",ANN ARBOR,,Hauck,"McDonalds chain",734-975-0466
SFE,4781,079960,MCDONALD'S RESTAURANT #3990,"3811 CARPENTER RD",YPSILANTI,PITTSFIELD,Hauck,"McDonalds chain",734-477-9010
SFE,4781,079962Z,MCDONALD'S #11520,"2675 PLYMOUTH RD",ANN ARBOR,,Hauck,"McDonalds chain",734-662-9343
SFE,4781,079965,MO P'S,"2071 GOLFSIDE",YPSILANTI,YPSILANTI,Pearson,"03 PB Area Whit Lke & Wash Ave",734-340-3972
SFE,4781,080021,LUNCH ROOM BAKERY & CAFE, THE,"2200 FULLER CT., SUITE 8B",ANN ARBOR,,Hansell,"Lunch Room Chain",734-224-8887
SFE,4781,080115,NORTHFIELD TOWNSHIP COMMUNITY CENTER,"9101 MAIN ST",WHITMORE LAKE,NORTHFIELD,Matranga,"",734-449-2295
SFE,4781,080205,DAIRY QUEEN OF YPSILANTI,"101 E. MICHIGAN AVENUE",YPSILANTI,,Pearson,"10 SM Area Mich Ave/Ypsi City",734-482-7374
SFE,4781,080371,RUTH'S CHRIS STEAKHOUSE,"314 S. FOURTH AVENUE",ANN ARBOR,,Kamenec,"15 SM Area Washngtn, Librty AA",734-585-5155
SFE,4781,080372,GABRIEL'S HOAGIE SHOP,"2585 E. MICHIGAN AVENUE",YPSILANTI,,Pearson,"18 CW Area Whittker & Mich Ave",734-483-5846
SFE,4781,080373,STATE THEATRE,"233 S. STATE STREET",ANN ARBOR,,Sherwin,"05 VD Area UM Campus Northwest",734-668-8397
SFE,4871,080588,HUNGRY HOWIES,"439 E. MICHIGAN AVE.",SALINE,,Matranga,"Hungry Howie chain",734-944-9188
SFE,4781,080589,JERUSALEM GARDEN,"314 E. LIBERTY",ANN ARBOR,,Matranga,"15 SM Area Washngtn, Librty AA",734-995-5060
SFE,4781,080835,JIMMY JOHNS #9064,"1149 S MAIN ST.",CHELSEA,,Matranga,"Jimmy Johns Chain",734-433-4300
SFE,4781,081244,DAIRY QUEEN,"2430 W. STADIUM BLVD",ANN ARBOR,,Pearson,"11 RS Area Stadium & Jackson",734-663-7361
SFE,4781,081248,NIXON FARMS,"6175 DALY RD",DEXTER,,Matranga,"",734-845-7127
SFE,4781,081251,STARBUCKS COFFEE #23127,"120 S ZEEB RD STE 101",ANN ARBOR,,Matranga,"Starbuck's chain",734-904-4823
SFE,4781,081252,PANCHEROS MEXICAN GRILL,"3155 ANN ARBOR SALINE STE C",ANN ARBOR,,Kamenec,"Pancheros Mexican Grill",734-332-4640
SFE,4781,081253,GLOBAL TECH ACADEMY,"1715 E. FOREST AVE.",YPSILANTI,YPSILANTI,Deedler,"Central Academy Chain",734-390-9625
SFE,4781,081255,BLACK DIESEL COFFEE LLC,"1423 E. STADIUM BLVD.",ANN ARBOR,,Hauck,"20 CY Area Packard & Eisenhowr",734-436-8255
SFE,4781,081334,A TASTE OF SOUL BY BIGGIE'S,"1004 W. MICHIGAN AVENUE",YPSILANTI,YPSILANTI,Pearson,"18 CW Area Whittker & Mich Ave",734-483-8360
SFE,4781,081373,CHAPALA MEXICAN RESTAURANT,"211 N. MAIN ST",ANN ARBOR,,Kamenec,"14 RS Area Main Street AA",734-996-1456
SFE,4781,081377,McDONALD'S #13841,"3001 LOHR ROAD",ANN ARBOR,PITTSFIELD,Hauck,"McDonalds chain",734-995-9356
SFE,4781,081789,STARBUCKS COFFEE #23876,"3141 ANN ARBOR-SALINE RD",ANN ARBOR,,Matranga,"Starbuck's chain",734-474-6377
SFE,4781,081790,SALT SPRINGS BREWERY,"117 S. ANN ARBOR RD.",SALINE,,Yet,"07 CH Area Saline",734-295-9191
SFE,4781,081898,GRADUATE ANN ARBOR,"615 E. HURON ST",ANN ARBOR,,Kamenec,"15 SM Area Washngtn, Librty AA",734-769-2200
SFE,4781,081926,LA MARQUEZA TAQUERIA MEXICAN,"1396 E. MICHIGAN AVENUE",YPSILANTI,YPSILANTI,Pearson,"18 CW Area Whittker & Mich Ave",734-219-7510
SFE,4781,082128,BABS' UNDERGROUND LOUNGE,"213 S. ASHLEY",ANN ARBOR,,Deedler,"BarStar Group",734-997-0800
SFE,4781,082285,CROSS AND RESURRECTION CHURCH,"812 ANN ST",YPSILANTI,,Deedler,"13 RS Area EMU & Campus Area",734-829-0148
SFE,4781,082367,BURGER KING #1029,"1073 E MICHIGAN AVE",YPSILANTI,,Yet,"Burger King chain",734-484-4714
SFE,4781,082368,BURGER KING #1025,"151 S. ZEEB ROAD",ANN ARBOR,,Yet,"Burger King chain",734-769-1658
SFE,4781,082369,BURGER KING #1011,"2170 RAWSONVILLE RD",VAN BUREN TWP,,Yet,"Burger King chain",734-484-0710
SFE,4781,082605,ARBY'S #6169,"195 BAKER RD",DEXTER,SCIO,Kamenec,"Arby's chain",734-426-0184
SFE,4781,082606,STORYPOINT,"6230 S STATE ST",SALINE,PITTSFIELD,Yet,"07 CH Area Saline",734-944-6600
SFE,4781,082613,TEXAS ROADHOUSE,"3133 ANN ARBOR-SALINE RD",ANN ARBOR,,Deedler,"",734-332-8850
SFE,4781,082614,RESIDENCE INN,"120 W HURON",ANN ARBOR,,Matranga,"",734-662-9999
SFE,4781,082615,SPENCER RESTAURANT,"113 E LIBERTY ST",ANN ARBOR,,Matranga,"15 SM Area Washngtn, Librty AA",734-369-3979
SFE,4781,082616,STONY LAKE BREWING COMPANY,"447 E MICHIGAN AVE",SALINE,,Yet,"07 CH Area Saline",734-757-4820
SFE,4781,082617,YPSI ALEHOUSE,"124 PEARL ST., STE 100",YPSILANTI,,Pearson,"10 SM Area Mich Ave/Ypsi City",734-487-1555
SFE,4781,082827,TIM HORTON'S,"1311 ANNA J STEPP DR",YPSILANTI,YPSILANTI,Kamenec,"Tim Hortons Chain",734-480-9151
SFE,4781,082829,BENITO'S PIZZA,"1088 N. HURON RIVER DR",YPSILANTI,,Deedler,"13 RS Area EMU & Campus Area",961-0707
SFE,4781,083087,MCDONALDS- KJ1 INC,"5550 W. MICHIGAN AVE",YPSILANTI,PITTSFIELD,Hauck,"McDonalds chain",734-572-1452
SFE,4781,083219,AMERICAN LEGION POST 282,"100 ECORSE RD",YPSILANTI,,Pearson,"",734-547-5450
SFE,4781,083220,ANTHONY'S GOURMET PIZZA INC,"1924 PACKARD RD",ANN ARBOR,,Matranga,"Anthony's Gourmet Pizza",734-213-2500
SFE,4781,083225,SHINOLA CAFE,"301 S MAIN ST",ANN ARBOR,,Sherwin,"14 RS Area Main Street AA",734-389-7013
SFE,4781,083394,ONCE UPON A GRILL,"3148 PACKARD",ANN ARBOR,,Hauck,"20 CY Area Packard & Eisenhowr",734-997-5277
SFE,4781,083397Z,DOMINOS PIZZA,"2121 S. GROVE ROAD",YPSILANTI,,Sherwin,"Domino's chain",734-483-8000
SFE,4781,083406Z,PITA EXPRESS BRIARWOOD,"452 BRIARWOOD CIRCLE",ANN ARBOR,,Hansell,"08 CH Area Manchest & Briarwod",734-623-0390
SFE,4781,083408,TOAST 2 TOAST -HOLIDAY INN,"3155 BOARDWALK DRIVE",ANN ARBOR,ANN ARBOR,Deedler,"20 CY Area Packard & Eisenhowr",734-213-1900
SFE,4781,083409,"COMMON CUP THE /UNIVERSIITY LUTHERN CHAP","1511 WASHTENAW",ANN ARBOR,,Hauck,"12 SM Area Dwntwn AA, Wash Ave",734-327-6914
SFE,4781,083588,SUBWAY #45922,"3098 PLATT RD",ANN ARBOR,,Sherwin,"Subway chain",734-975-8865
SFE,4781,083589,CHINESE TONITE RESTAURANT,"1127 S. MAIN STREET",CHELSEA,,Hauck,"01 PB Area Chelsea",734-475-3797
SFE,4781,084652Z,SPORES CAFE,"814 S. STATE ST",ANN ARBOR,,,"",734-888-6874
SFE,4781,201294,MILES OF GOLF,"3113 CARPENTER RD",YPSILANTI,,Matranga,"17 CY Area Washtnaw & Carpnter",734-973-9004
SFE,4781,201297,JIMMY JOHN'S #9074,"120 S. ZEEB RD",ANN ARBOR,SCIO,Matranga,"Jimmy Johns Chain",734-761-6700
SFE,4781,203125,MCSHANE'S IRISH PUB,"2203 ELLSWORTH ROAD",YPSILANTI,YPSILANTI,Pearson,"12 SM Area Dwntwn AA, Wash Ave",734-434-0494
SFE,4781,203128,WASHTENAW INTERNATIONAL SCHOOL,"105 N MANSFIELD",YPSILANTI,,Deedler,"Ypsilanti Community Schools",734-221-1216
SFE,4781,203130,HAMPTON INN ANN ARBOR WEST,"2910 JACKSON RD",ANN ARBOR,ANN ARBOR,Hansell,"11 RS Area Stadium & Jackson",734-994-1100
SFE,4781,203131,ROOSROAST COFFEE,"117 E LIBERTY",ANN ARBOR,,Pearson,"15 SM Area Washngtn, Librty AA",734-222-9202
SFE,4781,203133,TROPICAL SMOOTHIE,"885 W. EISENHOWER PKWY",ANN ARBOR,,Sherwin,"Tropical Smoothie Chain",734-882-2971
SFE,4781,203134,NO THAI,"2276 S. MAIN ST",ANN ARBOR,,Pearson,"",734-369-2604
SFE,4781,203566,GREYLINE- ZINGERMAN'S EVENT SPACE,"100 N ASHLEY",ANN ARBOR,,Matranga,"Zingerman's chain",734-663-3354
SFE,4781,203570,EMU CROSSROADS MARKET PLACE,"HOYT CONFERENCE CENTER",YPSILANTI,,Yet,"EMU Schools",734-487-4453
SFE,4781,203571,EMU STUDENT CENTER STARBUCKS,"900 OAKWOOD BLVD.",YPSILANTI,,Yet,"EMU Schools",734-487-4453
SFE,4781,203572,EMU BANQUET,"900 OAKWOOD BLVD.",YPSILANTI,,Yet,"EMU Schools",734-487-4453
SFE,4781,203573,EMU CONVOCATION CENTER,"799 HEWITT ROAD",YPSILANTI,,Yet,"EMU Schools",734-487-4453
SFE,4781,203578,EMU COMMONS,"529 ST JOHN ST, UPPER LEVEL",YPSILANTI,,Yet,"EMU Schools",734-487-4453
SFE,4781,203579,EMU TU TACO,"900 OAKWOOD BLVD.",YPSILANTI,,Yet,"EMU Schools",734-487-4453
SFE,4781,203584,"EMU STUDENT CENTER CATERING KITCHEN, 1F","900 OAKWOOD BLVD.",YPSILANTI,,Yet,"EMU Schools",734-487-4453
SFE,4781,203588,EMU CONCESSION HOME BOOTH,"RYNEARSON STADIUM",YPSILANTI,,Yet,"EMU Schools",734-487-4453
SFE,4781,203589,EMU BASEBALL CONCESSION BOOTH,"799 N HEWITT",YPSILANTI,,Yet,"EMU Schools",734-487-4453
SFE,4781,203797,LOS TRES AMIGOS CHELSEA,"350 N MAIN ST",CHELSEA,,Hauck,"01 PB Area Chelsea",734-593-9166
SFE,4781,203798,RHYTHM & BREWS @ GOOGLE,"2300 TRAVERWOOD DR",ANN ARBOR,,Yet,"06 CW Area Plymth Rd, Ypsi",917-502-5986
SFE,4781,203801,MARKET CAFE,"2300 TRAVERWOOD DR",ANN ARBOR,,Yet,"06 CW Area Plymth Rd, Ypsi",917-502-5986
SFE,4781,203953,EMU TRUE BURGERS,"900 OAKWOOD",YPSILANTI,,Yet,"EMU Schools",734-487-4453
SFE,4781,204171,BASKIN ROBBINS,"1952 W. STADIUM BLVD",ANN ARBOR,,Matranga,"11 RS Area Stadium & Jackson",734-332-3493
SFE,4784,204460,SWEETWATERS WESTGATE LLC,"2503 JACKSON AVE",ANN ARBOR,,Matranga,"Sweetwater's chain",734-827-5116
SFE,4781,204461,ST. JAMES EPISCOPAL,"3279 BROAD STREET",DEXTER,,Matranga,"02 VD Area Dexter",734-426-8247
SFE,4781,204579,APEX CUISINE,"620 S. STATE ST.",ANN ARBOR,,Sherwin,"Apex Cuisine",734-417-5543
SFE,4781,205139,"LINCOLN HIGH SCHOOL CONCESSIONS (INDOOR)","7425 WILLIS RD",YPSILANTI,AUGUSTA,Pearson,"Lincoln Consolidated Schools",734-484-7000
SFE,4781,205140,"CASABLANCA MOROCCA & MEDITERANEAN CUISIN","2333 WASHTENAW",YPSILANTI,YPSILANTI,Hauck,"03 PB Area Whit Lke & Wash Ave",734-961-7825
SFE,4781,205752,MISS KIM,"415 N 5TH AVE",ANN ARBOR,,Matranga,"Zingerman's chain",734-275-0099
SFE,4781,205759,JIMMY JOHN'S #9048,"3945 S STATE ST",ANN ARBOR,,Matranga,"Jimmy Johns Chain",734-662-4700
SFE,4781,206428,DETROIT PIZZA PUB,"207 N. MAIN ST",ANN ARBOR,,Kamenec,"14 RS Area Main Street AA",734-780-7344
SFE,4781,208128,OLGA'S KITCHEN #202,"3500 WASHTENAW AVE, STE P",ANN ARBOR,,Hauck,"Olga's Kitchen Chain",248-262-1000
SFE,4781,208129Z,TURKISH VILLAGE CAFE,"120 E. LIBERTY ST.",ANN ARBOR,,,"",734-263-2996
SFE,4781,208139,QUALITY INN & SUITES,"2376 CARPENTER RD",ANN ARBOR,,Deedler,"17 CY Area Washtnaw & Carpnter",734-477-9977
SFE,4781,210837,CHINA KING,"3901 JACKSON RD",ANN ARBOR,SCIO,Kamenec,"16 CW Area Jackson, Zeeb, Lohr",
SFE,4781,211422,MINY'S MEXICAN RESTAURANT,"2866 WASHTENAW",YPSILANTI,,Hauck,"Miny's Chain",734-434-0857
SFE,4781,212281,RAPPOURT BREW & CHEW,"2721 PLYMOUTH RD",ANN ARBOR,,Yet,"06 CW Area Plymth Rd, Ypsi",734-929-2430
SFE,4781,212282,HOMES BREWERY, LLC,"2321 JACKSON AVE",ANN ARBOR,,Hauck,"11 RS Area Stadium & Jackson",734-260-4627
SFE,4781,212283,EMAGINE SALINE,"1335 E MICHIGAN AVE",SALINE,,Yet,"07 CH Area Saline",734-316-5500
SFE,4781,212284,UNIVERSITY LIVING,"2865 S. MAIN STREET",ANN ARBOR,,Deedler,"20 CY Area Packard & Eisenhowr",734-669-3030
SFE,4781,212291Z,DOMINO'S PIZZA,"716 PACKARD",ANN ARBOR,,Sherwin,"Domino's chain",734-769-4444
SFE,4781,212553,TUP TIM THAI CUISINE,"4896 WASHTENAW",ANN ARBOR,PITTSFIELD,Pearson,"17 CY Area Washtnaw & Carpnter",734-528-5588
SFE,4781,212554,ROLLING MEADOWS GOLF COURSE,"6484 SUTTON RD",WHITMORE LAKE,NORTHFIELD,Matranga,"06 CW Area Plymth Rd, Ypsi",734-662-5144
SFE,4781,212555,GINGER DELI COMISSARY,"4175 WHITMORE LAKE RD",ANN ARBOR,ANN ARBOR,Sherwin,"Ginger Deli Chain","248-390-8621"
SFE,4781,212728,CASPIAN MEDITERRAN GRILL,"1334 ANNA J STEPP DR",YPSILANTI,,Pearson,"18 CW Area Whittker & Mich Ave",734-219-0505
SFE,4781,212729,PRETZEL BELL,"226 S MAIN ST",ANN ARBOR,,Kamenec,"Mission Management Chain",734-994-2773
SMF,4781,214472,AWESOME DOG'S LLC,"18211 W PLEASANT LAKE RD",MANCHESTER,,Hauck,"01 PB Area Chelsea",734-320-0698
SFE,4781,215077,ONE BOWL RESTAURANT,"1220 S. UNIVERSITY, STE 110",ANN ARBOR,,Kamenec,"04 VD Area UM Campus South",734-747-7006
SFE,4781,215087,FIRST BITE, MADE FROM SCRATCH,"108 S. MAIN STREET",ANN ARBOR,,Sherwin,"14 RS Area Main Street AA",734-369-4765
SFE,4781,215091,MCDONALD'S #2936,"373 N. ZEEB ROAD",ANN ARBOR,SCIO,Hauck,"McDonalds chain",734-994-6214
SFE,4781,215111,STAYBRIDGE SUITES ANN ARBOR,"3850 RESEARCH PARK DR",ANN ARBOR,,Hansell,"08 CH Area Manchest & Briarwod",734-213-1400
SFE,4781,215112,HOT POT CHEN,"2255 W. STADIUM BLVD",ANN ARBOR,,Hansell,"11 RS Area Stadium & Jackson",734-668-8389
SFE,4781,215113,MAMA SATTO,"715 N. UNIVERSITY",ANN ARBOR,,Sherwin,"05 VD Area UM Campus Northwest","(734) 213-3044"
SFE,4781,216115,DEXTER CREAMERY,"8106 MAIN ST",DEXTER,,Matranga,"02 VD Area Dexter",734-619-7700
SFE,4781,216928,ENCUENTRO LATINO,"228 W. MICHIGAN AVENUE",YPSILANTI,,Pearson,"10 SM Area Mich Ave/Ypsi City",734-483-1727
SFE,4781,217495,TROPICAL SMOOTHIE CAFE',"607 E LIBERTY ST",ANN ARBOR,,Sherwin,"Tropical Smoothie Chain",734-585-0266
SFE,4781,217498Z,LARKSPUR LANDING SELECT,"2300 GREEN ROAD",ANN ARBOR,,Yet,"06 CW Area Plymth Rd, Ypsi",734-996-4444
SFE,4781,218764,AL'S EXPRESS LLC,"1653 HOLMES ROAD",YPSILANTI,YPSILANTI,Pearson,"09 PB Area Milan & Ecorse/Ford",734-544-3474
SFE,4781,218867,PINKBERRY BRIARWOOD,"100 BRIARWOOD CIRCLE, KI-34",ANN ARBOR,,Hansell,"08 CH Area Manchest & Briarwod",734-222-4700
SFE,4781,220176,HYATT PLACE,"3223 S STATE ST",ANN ARBOR,,Hansell,"08 CH Area Manchest & Briarwod",734-995-1234
SFE,4781,220178,FAMILY TAKEOUT, LLC,"510 W. MICHIGAN AVENUE",YPSILANTI,,Pearson,"10 SM Area Mich Ave/Ypsi City",734-485-1923
SFE,4781,220181,KOSMO'S BOPSHOP,"308 S. ASHLEY",ANN ARBOR,,Kamenec,"15 SM Area Washngtn, Librty AA",734-369-4767
SFE,4781,220186,EMU CHICK FIL A,"878 W. CROSS ST",YPSILANTI,,Yet,"EMU Schools",734-487-4453
SFE,4781,220189,"DETROIT ST. FILLING STATION, LUNCH ROOM","300 DETROIT STREET",ANN ARBOR,,Hansell,"Lunch Room Chain",734-224-2161
SFE,4781,220190,EMU BUILD PIZZA BY DESIGN,"900 OAKWOOD",YPSILANTI,,Yet,"EMU Schools",734-487-4453
SFE,4781,220198,BAYMONT INN & SUITES,"1230 DEXTER ST",MILAN,,Matranga,"09 PB Area Milan & Ecorse/Ford",734-439-1400
SFE,4781,220199,LITTLE CAESAR'S PIZZA,"1783 WASHTENAW",YPSILANTI,,Matranga,"Little Caesars chain",734-483-4200
SFE,4781,220361,GROTTO, THE,"303 S. ASHLEY ST",ANN ARBOR,,Yet,"12 SM Area Dwntwn AA, Wash Ave",734-369-4212
SFE,4781,220613,HUNGRY HOWIE'S PIZZA,"1530 HOLMES RD",YPSILANTI,YPSILANTI,Matranga,"Hungry Howie chain",734-896-5151
SFE,4781,220614,734 BREWING COMPANY,"15 E CROSS ST",YPSILANTI,,Pearson,"19 CH Area AA Schls & DepotTwn",734-340-3468
SFE,4781,220615,LA TAQUERIA ANN ARBOR,"106 E LIBERTY ST SUITE 120",ANN ARBOR,,Matranga,"15 SM Area Washngtn, Librty AA",734-369-6922
SFE,4781,220617,ANN ARBOR FISH AND CHICKEN,"4872 WASHTENAW AVE",ANN ARBOR,PITTSFIELD,Pearson,"17 CY Area Washtnaw & Carpnter",734-544-1833
SFE,4781,220622,BUDDY'S PIZZA,"3153 ANN ARBOR SALINE RD",ANN ARBOR,PITTSFIELD,Deedler,"16 CW Area Jackson, Zeeb, Lohr",248-855-6222
SFE,4781,220707,ROBIN HILLS FARM,"20390 N M-52",CHELSEA,SYLVAN,Hauck,"01 PB Area Chelsea",248-246-0532
SFE,4781,221470,242 CAFE,"648 S WAGNER",ANN ARBOR,,Kamenec,"16 CW Area Jackson, Zeeb, Lohr",810-231-0190
SFE,4781,221475,SWEETWATERS OF YPSILANTI,"735 W. CROSS ST",YPSILANTI,,Matranga,"Sweetwater's chain",734-340-6865
SFE,4781,222121,DUNKIN DONUTS,"608 S. HEWITT",YPSILANTI,YPSILANTI,Pearson,"12 SM Area Dwntwn AA, Wash Ave",734-434-9380
SFE,4781,223774,POKE FISH,"3500 WASHTENAW AVE E-4",ANN ARBOR,,Hauck,"12 SM Area Dwntwn AA, Wash Ave",734-922-2207
SFE,4781,223914,BLACK ROCK,"3776 S. STATE ST",ANN ARBOR,PITTSFIELD,Hansell,"08 CH Area Manchest & Briarwod",734-992-7625
SFE,4781,224116,BLOM MEADWORKS,"100 S FOURTH AVE, SUITE 110",ANN ARBOR,,Kamenec,"15 SM Area Washngtn, Librty AA",734-548-9729
SFE,4781,224384,MOMO/SUSHI BAR,"895 W. EISENHOWER PKWY",ANN ARBOR,,Deedler,"20 CY Area Packard & Eisenhowr",734-800-4909
SFE,4781,224599,BLIND PIG CAFE,"208 S. FIRST ST",ANN ARBOR,,Matranga,"15 SM Area Washngtn, Librty AA",734-996-8555
SFE,4781,224604,LOS AMIGOS FIESTA,"4855 WASHTENAW",ANN ARBOR,PITTSFIELD,Pearson,"Los Amigos Chain",734-434-5554
SFE,4781,225113,LAN CITY HAND-PULLED NOODLE,"2612 WASHTENAW",YPSILANTI,,Kamenec,"03 PB Area Whit Lke & Wash Ave",734-717-8886
SFE,4781,225477,ST. JOE'S MERCY HOPSITAL - CHELSEA,"775 S. MAIN ST",CHELSEA,,Hansell,"St. Joseph's Hospital-AA Chain",734-593-5770
SFE,4781,225478,"JOE'S JAVA @ ST JOE'S MERCY HOSP-CHELSE","775 S. MAIN ST",CHELSEA,,Hansell,"St. Joseph's Hospital-AA Chain",734-593-5770
SST,4781,226044,GOOD EATS MOBILE FOOD STFU,"6000 WASHINGTON ST",ROMULUS,OUT OF COUNTY,Pearson,"10 SM Area Mich Ave/Ypsi City",734-747-3836
SFE,4781,226135,KANG'S KOREAN RESTAURANT,"1327 S. UNIVERSITY",ANN ARBOR,,Kamenec,"04 VD Area UM Campus South",734-761-1327
SFE,4781,227309,CIRC BAR/KING & WHITE,"210 S. FIRST ST",ANN ARBOR,,Matranga,"15 SM Area Washngtn, Librty AA",734-277-3656
SFE,4781,227310,FAIRFIELD INN & SUITES,"326 JAMES L HART PKWY",YPSILANTI,YPSILANTI,Pearson,"18 CW Area Whittker & Mich Ave",752-5799
SFE,4781,228371,LAS DOS FUENTES LLC,"1960 WHITTAKER RD",YPSILANTI,YPSILANTI,Pearson,"18 CW Area Whittker & Mich Ave",734-961-6644
SFE,4781,228372,GO M.A.D. FITNESS,"1015 DEXTER",MILAN,MILAN,Matranga,"09 PB Area Milan & Ecorse/Ford",734-508-6786
SFE,4781,228374,"EMU EASTERN EATERIES- MELT LAB/CIAO BELL","7 ANN ST",YPSILANTI,,Yet,"EMU Schools",734-487-4453
SFE,4781,228375,EMU EASTERN EATERIES COMMISSARY- CLUCK,"7 ANN ST",YPSILANTI,,Yet,"EMU Schools",734-487-5543
SFE,4781,228377,EMU EASTERN EATERIES- THE MARKET/EAGLES,"7 ANN AT",YPSILANTI,,Yet,"EMU Schools",734-487-4453
SFE,4781,228378,EMU EASTERN EATERIES COMMISSARY PIZZA,"7 ANN ST",YPSILANTI,,Yet,"EMU Schools",734-487-4453
SFE,4781,229500,LITTLE CAESARS,"527 W. MAIN STREET",MILAN,,Matranga,"Little Caesars chain",734-508-6472
SFE,4781,229501,HELLO! ICE CREAM,"3744 PLAZA DR",ANN ARBOR,PITTSFIELD,Hansell,"08 CH Area Manchest & Briarwod",419-279-0233
SFE,4781,230399,CHELA'S DEXTER RESTAURANT,"7065 DEXTER ANN ARBOR RD",DEXTER,,Matranga,"02 VD Area Dexter",734-580-2149
SMF,4781,231023,PIZZA HOUSE (MOBILE),"618 CHURCH ST",ANN ARBOR,,Kamenec,"04 VD Area UM Campus South",734-995-5095
SFE,4781,231674,NIGHTCAP/LO-FI,"220 S. MAIN ST",ANN ARBOR,,Deedler,"BarStar Group",734-369-6070
SFE,4781,231675,MA LOU'S FRIED CHICKEN,"15 W. MICHIGAN AVENUE",YPSILANTI,,Pearson,"10 SM Area Mich Ave/Ypsi City",734-905-7994
SFE,4781,234056,VALIANT BAR & GRILL,"1120 SOUTH MAIN ST",CHELSEA,,Kamenec,"Owner Porikos",734-475-7714
SFE,4781,234858,PALIO,"347 S. MAIN ST",ANN ARBOR,,Matranga,"Mainstreet Ventures chain",734-930-6156
SFE,4781,234860,CHOP HOUSE (THE)/MSVRG DOWNTOWN VENTURES,"322 S. MAIN ST",ANN ARBOR,,Matranga,"Mainstreet Ventures chain",734-669-8826
SFE,4781,234861,CARSON'S,"2000 COMMONWEALTH AVE",ANN ARBOR,,Matranga,"Mainstreet Ventures chain",734-622-0537
SFE,4781,234862,REAL SEAFOOD COMPANY,"341 S MAIN ST",ANN ARBOR,,Matranga,"Mainstreet Ventures chain",734-668-6062
SFE,4781,234863,LA PINA LOCA,"3980 PLATT RD",ANN ARBOR,,Pearson,"17 CY Area Washtnaw & Carpnter",734-929-5487
SFE,4781,234930,HOWARDS HOAGIES,"2011 MCCARTNEY",YPSILANTI,YPSILANTI,Matranga,"09 PB Area Milan & Ecorse/Ford",734-484-1707
SFE,4781,235895,CHINA PALACE,"2905 WASHTENAW AVE",YPSILANTI,YPSILANTI,Hauck,"03 PB Area Whit Lke & Wash Ave",734-829-0999
SFE,4781,235936,JUICY KITCHEN CAFE LLC,"1506 N. MAPLE RD",ANN ARBOR,,Hansell,"11 RS Area Stadium & Jackson",734-585-5562
SFE,4781,236182,BLUE LLAMA,"314 S. MAIN ST",ANN ARBOR,,Sherwin,"14 RS Area Main Street AA",734-372-3200
SFE,4781,236184,ANNAS HOUSE,"445 E. EISENHOWER PKWY",ANN ARBOR,,Deedler,"20 CY Area Packard & Eisenhowr",734-726-9490
SFE,4781,236187,LITTLE CAESARS,"1595 HOLMES RD",YPSILANTI,YPSILANTI,Matranga,"Little Caesars chain",734-487-9231
SFE,4781,236442,BANDITO'S,"3395 PLYMOUTH RD",ANN ARBOR,,Yet,"06 CW Area Plymth Rd, Ypsi",734-996-0234
SFE,4781,236774,BIGGBY COFFEE,"2550 W STADIUM BLVD",ANN ARBOR,,Deedler,"Biggby Coffee chain",734-436-4783
SFE,4781,236886,TIM HORTON'S,"325 N. ZEEB RD",ANN ARBOR,SCIO,Kamenec,"Tim Hortons Chain",734-769-0845
SFE,4781,237130,CORELIFE EATERY,"205 N. Maple Rd Suite 26",ANN ARBOR,,Hansell,"11 RS Area Stadium & Jackson",734-412-4101
SFE,4781,237131,TASTE KITCHEN,"521 E. LIBERTY",ANN ARBOR,,Matranga,"15 SM Area Washngtn, Librty AA",734-369-4241
SFE,4781,237132,COCO FRESH TEA & JUICE,"1731 PLYMOUTH RD",ANN ARBOR,,Yet,"06 CW Area Plymth Rd, Ypsi",734-368-9943
SFE,4781,237133,K & D BISTRO,"1290 ANNA J STEPP DR",YPSILANTI,YPSILANTI,Pearson,"18 CW Area Whittker & Mich Ave",734-961-8908
SFE,4781,237272,RICEWOOD,"1928 PACKARD RD",ANN ARBOR,,Hauck,"20 CY Area Packard & Eisenhowr",
SFE,4781,237273,ARBY'S #6111,"5660 JACKSON RD",ANN ARBOR,,Kamenec,"Arby's chain",734-665-1505
SFE,4781,237481,POKE POKE,"312 S. STATE ST",ANN ARBOR,,Sherwin,"05 VD Area UM Campus Northwest",
SFE,4781,237686,VERTEX COFFEE ROASTERS,"1335 S. UNIVERSITY",ANN ARBOR,,Kamenec,"04 VD Area UM Campus South",734-489-1914
SFE,4781,237687,SMALL POTATOES CATERING LLC,"9230 MAIN ST",WHITMORE LAKE,,Yet,"",248-312-8326
SFE,4781,237689,KFC - KENTUCKY FRIED CHICKEN,"4040 WASHTENAW",ANN ARBOR,,Deedler,"KFC chain",734-971-6130
SFE,4781,237690,KFC,"39 E. MICHIGAN AVENUE",YPSILANTI,,Deedler,"KFC chain",734-482-9663
SFE,4781,237691Z,ROTISSERIE KING,"2263 W LIBERTY",ANN ARBOR,,Hansell,"11 RS Area Stadium & Jackson",734-255-1132
SFE,4781,237694,PEPPERS MEXICAN GRILL INC,"39 E. MAIN ST",MILAN,,Matranga,"09 PB Area Milan & Ecorse/Ford",734-628-7170
SST,4781,237695,SMOKEY JOE'S BBQ,"45820 JUDD RD",VAN BUREN TWP,OUT OF COUNTY,Kamenec,"18 CW Area Whittker & Mich Ave",
SFE,4781,237696,SHAKE SHACK,"3030 WASHTENAW AVE #107",ANN ARBOR,,Hauck,"12 SM Area Dwntwn AA, Wash Ave",734-412-4762
SFE,4781,237698,MANIACAL MEAD CO,"1497 ECORSE",YPSILANTI,YPSILANTI,Pearson,"09 PB Area Milan & Ecorse/Ford",734-961-8056
SFE,4781,237701,WENDYS #4984,"760 E. MICHIGAN AVE",SALINE,,Pearson,"Wendy's chain",248-262-1000
SFE,4781,237702,WENDYS #3824,"4020 CARPENTER RD",YPSILANTI,PITTSFIELD,Pearson,"Wendy's chain",248-262-1000
SFE,4781,237703,WENDYS #9192,"750 S. HEWITT RD",YPSILANTI,YPSILANTI,Pearson,"Wendy's chain",248-262-1000
SFE,4781,237704,WENDYS #3613,"3100 BOARDWALK",ANN ARBOR,,Pearson,"Wendy's chain",248-262-1000
SFE,4781,237705,WENDYS #11259,"73 S. ZEEB RD",ANN ARBOR,SCIO,Pearson,"Wendy's chain",248-262-1000
SFE,4781,237706,WENDYS #7788,"1640 COMMERCE PARK DR",CHELSEA,,Pearson,"Wendy's chain",248-262-1000
SFE,4781,237787,ORE CREEK CRAFT CIDERS,"9280 MCGREGOR",PINCKNEY,DEXTER,Matranga,"02 VD Area Dexter",734-726-5562
SFE,4781,237791,THE BEER GROTTO,"8059 MAIN ST",DEXTER,,Matranga,"02 VD Area Dexter",734-253-2502
SFE,4781,237792,REVEL AND ROLL,"1950 S. INDUSTRIAL HWY",ANN ARBOR,,Hauck,"20 CY Area Packard & Eisenhowr",734-665-4474
SFE,4781,238048,CITY LIMITS DINER,"220 W. MICHIGAN AVE",SALINE,,Yet,"07 CH Area Saline",810-513-8116
SFE,4781,238049,WEST END GRILL (THE),"120 W. LIBERTY ST",ANN ARBOR,,Yet,"12 SM Area Dwntwn AA, Wash Ave",734-747-6260
SFE,4781,238051,JEFFERSON MARKET (THE),"609 W. JEFFERSON ST",ANN ARBOR,,Yet,"15 SM Area Washngtn, Librty AA",734-665-6666
SFE,4781,238586,SWEETING,"854 BRIARWOOD CIRCLE",ANN ARBOR,,Kamenec,"08 CH Area Manchest & Briarwod",734-213-5213
SFE,4781,240262,ARBOR TREE LOUNGE,"3600 PLYMOUTH RD",ANN ARBOR,,Yet,"06 CW Area Plymth Rd, Ypsi",734-769-9800
SFE,4781,240264,JOES PIZZA,"1107 S. UNIVERSITY, SUITE B",ANN ARBOR,,Kamenec,"04 VD Area UM Campus South",734-213-5625
SFE,4781,240266,BABA DARI,"601 PACKARD RD",ANN ARBOR,,Kamenec,"04 VD Area UM Campus South",734-998-0131
SFE,4781,240268,HOLA SEOUL,"715 N. UNIVERSITY",ANN ARBOR,,Sherwin,"05 VD Area UM Campus Northwest",734-369-6418
SFE,4781,241520,SUBWAY,"4009 CARPENTER RD",YPSILANTI,PITTSFIELD,Sherwin,"Subway chain",734-677-0940
SFE,4781,241558,KENTUCKY FRIED CHICKEN,"502 E. MICHIGAN AVE",SALINE,,Deedler,"KFC chain",734-429-4350
SFE,4781,241560,REGENTS FIELD,"204 S. MAIN ST",ANN ARBOR,,Sherwin,"14 RS Area Main Street AA",734-800-4143
SFE,4781,241561,AKI SUSHI BAR & GRILL,"1828 WHITTAKER RD",YPSILANTI,YPSILANTI,Pearson,"18 CW Area Whittker & Mich Ave",734-480-9888
SFE,4781,241954,THAI SPOON,"4119 STONE SCHOOL RD",ANN ARBOR,PITTSFIELD,Deedler,"17 CY Area Washtnaw & Carpnter",734-975-0277
SFE,4781,241955,LITTLE CAESARS CONCESSIONS @ EMU,"799 HEWITT RD",YPSILANTI,,Yet,"EMU Schools",734-487-2282
SFE,4781,241956,GREEN OAKS GOLF COURSE,"1775 E. CLARK RD",YPSILANTI,,Hauck,"",734-485-0881
SFE,4781,242658,SMOOTHIE KING,"2625 JACKSON RD",ANN ARBOR,,Hansell,"11 RS Area Stadium & Jackson",734-658-4036
SFE,4781,244890,SUBWAY #7635,"1156 DEXTER ST, #5",MILAN,,Sherwin,"Subway chain",734-439-3737
SFE,4781,245575,SUBWAY,"6060 RAWSONVILLE RD",VAN BUREN TWP,,Sherwin,"Subway chain",734-485-7827
SFE,4781,246426,CAHOOTS CAFE,"206 E. HURON ST",ANN ARBOR,,Kamenec,"12 SM Area Dwntwn AA, Wash Ave",734-249-8898
SFE,4781,247331Z,PARIS BANH MI,"609 E WILLIAM ST",ANN ARBOR,,Sherwin,"04 VD Area UM Campus South",734-263-2690
SFE,4781,247333,BURGER 1,"1771 PLYMOUTH RD",ANN ARBOR,,Yet,"06 CW Area Plymth Rd, Ypsi",734-215-6660
SFE,4781,247335,TEA NINJA,"535 E. LIBERTY ST",ANN ARBOR,,Sherwin,"05 VD Area UM Campus Northwest",734-263-2772
SFE,4781,247748,JAGGED FORK (THE),"414 S. MAIN ST",ANN ARBOR,,Sherwin,"14 RS Area Main Street AA",734-929-2402
SFE,4781,248327,MD BAGEL FRAGEL,"3500 WASHTENAW AVE, STE I",ANN ARBOR,,Hauck,"12 SM Area Dwntwn AA, Wash Ave",734-929-2756
SFE,4781,248947,"PARADISE /TOARMINA'S PIZZA/MICKEY'S","699 W MICHIGAN",SALINE,,Yet,"07 CH Area Saline",734-316-2942
SST,4781,249461,LITTLE CAESARS PIZZA #1 STFU,"4317 EARL CT",YPSILANTI,,Sherwin,"Little Caesars chain",734-531-8643
SFE,4781,249612,BONE HEADS BBQ,"1333 E. MICHIGAN AVE",SALINE,,Kamenec,"",734-470-6175
SFE,4781,249613,DRIP HOUSE COFFEE CO,"1336 S. MAIN",ANN ARBOR,,Hauck,"20 CY Area Packard & Eisenhowr","734-657-1565"
SFE,4781,249614,ERRATIC ALE CO,"8080 GRAND ST, UNIT 3",DEXTER,,Matranga,"02 VD Area Dexter",734-545-6913
SFE,4781,249656,MARCO'S PIZZA #1052,"4068 PACKARD ST",ANN ARBOR,,Hauck,"Marco's Pizza chain",734-973-1750
SFE,4781,249657,MARCO'S PIZZA #1043,"1154 DEXTER ST",MILAN,,Hauck,"Marco's Pizza chain",734-439-3938
SFE,4781,249659,HUNGRY HOWIES PIZZA #3608,"2026 W. STADIUM BLVD",ANN ARBOR,,Matranga,"Hungry Howie chain",734-999-4777
SFE,4781,249660,CINNABON,"100 BRIARWOOD CIRCLE F121",ANN ARBOR,,Hansell,"08 CH Area Manchest & Briarwod",734-996-7279
SFE,4781,250059,BEYOND JUICERY EATERY #1,"3500 WASHTENAW AVE",ANN ARBOR,,Hauck,"12 SM Area Dwntwn AA, Wash Ave",313-300-7280
SST,4781,250229,NACHO AVERAGE TOSTADO LLC,"7762 SPRUCE CT",YPSILANTI,,Pearson,"09 PB Area Milan & Ecorse/Ford",734-883-6290
SFE,4781,250230,DOMINO'S PIZZA,"9567 MAIN ST",WHITMORE LAKE,NORTHFIELD,Sherwin,"Domino's chain",734-333-9633
SFE,4781,250244,AMANDA'S KITCHEN,"2000 WASHTENAW AVE",ANN ARBOR,,Hauck,"",734-239-3444
SFE,4781,250390,BELLFLOWER RESTAURANT,"209 PEARL ST",YPSILANTI,,Pearson,"10 SM Area Mich Ave/Ypsi City",
SFE,4781,250542,BEYOND JUICERY & EATERY #2,"1300 S. UNIVERSITY AVE, STE 4",ANN ARBOR,,Hauck,"04 VD Area UM Campus South",313-300-7280
SFE,4781,250578,"GRATEFUL CROW (WARRIORS MANAGEMENT, INC)","420 N. MAIN ST, SUITE 100",CHELSEA,,Hauck,"01 PB Area Chelsea",734-562-2903
SFE,4781,250580,PIZZA BOB'S,"800 S. STATE ST",ANN ARBOR,,Kamenec,"04 VD Area UM Campus South",734-665-4517
SST,4781,250581,ROCK THE BAR (STFU),"133 W. MICHIGAN AVE #104",YPSILANTI,,Pearson,"06 CW Area Plymth Rd, Ypsi",734-972-6968
SFE,4781,250720,SHARETEA,"310 S. STATE ST",ANN ARBOR,,Sherwin,"04 VD Area UM Campus South",734-926-8940
SFE,4781,250722,EXPRESS FISH & CHICKEN,"3015 E MICHIGAN AVE",YPSILANTI,,Pearson,"10 SM Area Mich Ave/Ypsi City",313-680-2448
SFE,4781,250723,SHALIMAR RESTAURANT,"307 S. MAIN ST",ANN ARBOR,,Sherwin,"12 SM Area Dwntwn AA, Wash Ave",734-663-1500
SFE,4781,250725,GROWING HOPE,"922 W. MICHIGAN AVE",YPSILANTI,YPSILANTI,Pearson,"10 SM Area Mich Ave/Ypsi City",734-786-8401
SFE,4781,250726,WESLEYS CATERING,"20390 N. M-52",CHELSEA,,Hauck,"01 PB Area Chelsea",734-646-0858
SFE,4781,250727,SWEETWATERS COFFEE & TEA MEIJER,"3145 ANN ARBOR SALINE RD",ANN ARBOR,,Matranga,"Sweetwater's chain",734-369-8697
SST,4781,250728,FOODIES CATERING SERVICES,"7927 NEMCO WAY",BRIGHTON,,Sherwin,"07 CH Area Saline",734-717-9168
SST,4781,250991,JAMAICAN SPICE STFU,"1047 S. GROVE",YPSILANTI,,Pearson,"10 SM Area Mich Ave/Ypsi City",734-489-3935
SFE,4781,250992,PIZZA HUT #37227,"2160 RAWSONVILLE RD",VAN BUREN TWP,YPSILANTI,Kamenec,"Pizza Hut Chain",734-483-8800
SST,4781,251020Z,A & J'S ITS A WRAP,"6466 BUCK ST",TAYLOR,,,"",
SFE,4781,251158,LEO'S CONEY ISLAND,"160 S. ZEEB RD, STE A",ANN ARBOR,SCIO,Matranga,"Leo's Coney Island Chain",734-749-8510
SFE,4781,251159,SIDE BISCUIT,"1232 PACKARD RD",ANN ARBOR,,Hauck,"20 CY Area Packard & Eisenhowr",734-531-6777
SFE,4781,251389,SUBWAY,"2124 WHITTAKER RD",YPSILANTI,,Sherwin,"Subway chain",734-834-9898
SFE,4781,252035,"BILL'S BEER GARDEN, TAVERN MGMT LLC/DBA","218 S. ASHLEY/211 W Washington",ANN ARBOR,,Sherwin,"12 SM Area Dwntwn AA, Wash Ave",734-434-3400
SFE,4781,252038,GINGER DELI STOREFRONT LIBERTY,"203 E. LIBERTY",ANN ARBOR,,Sherwin,"Ginger Deli Chain",248-390-8621
SFE,4781,252176,PITA PITA,"2649 WASHTENAW AVE",YPSILANTI,YPSILANTI,Pearson,"12 SM Area Dwntwn AA, Wash Ave",734-528-3333
SFE,4781,252177,ALL SEASONS OF ANN ARBOR,"4600 ALL SEASON",ANN ARBOR,ANN ARBOR,Yet,"21 CY Area Kerrytown & AA Twp.",734-864-4004
SFE,4781,252178,WASHTENAW GOLF CLUB,"2955 PACKARD RD",YPSILANTI,YPSILANTI,Deedler,"03 PB Area Whit Lke & Wash Ave",734-434-2150
SFE,4781,252368,QUICKLY BOBA CAFE,"1220 S. UNIVERSITY #100",ANN ARBOR,,Kamenec,"04 VD Area UM Campus South",734-882-2189
SFE,4781,252482,BLAZIN' BURGERZ,"2593 ELLSWORTH RD",YPSILANTI,YPSILANTI,Hauck,"10 SM Area Mich Ave/Ypsi City",734-905-7480
SFE,4781,252525,CHICKEN SHACK,"2547 ELLSWORTH RD",YPSILANTI,YPSILANTI,Hauck,"12 SM Area Dwntwn AA, Wash Ave",734-219-9000
SFE,4781,252885,TMAZ TAQUERIA DEXTER,"2529 DEXTER AVE",ANN ARBOR,,Hansell,"11 RS Area Stadium & Jackson",734-780-7225
SFE,4781,252887,ALPHA DINER,"4389 JACKSON",ANN ARBOR,SCIO,Kamenec,"16 CW Area Jackson, Zeeb, Lohr",734-780-7102
SFE,4781,252888,DIXBORO HOUSE - THE BORO,"5400 PLYMOUTH RD",ANN ARBOR,SUPERIOR,Kamenec,"06 CW Area Plymth Rd, Ypsi",734-669-3310
SFE,4781,252890,COLDSTONE CREAMERY,"3597B WASHTENAW AVE",ANN ARBOR,,Hauck,"12 SM Area Dwntwn AA, Wash Ave",734-403-1926
SFE,4781,252891,DEVILLE'S CRAZY DIAMOND,"110 N. MAIN ST",CHELSEA,,Hauck,"01 PB Area Chelsea",248-840-4150
SFE,4781,252892,POPEYE'S #947,"2387 ELLSWORTH RD",YPSILANTI,,Matranga,"Popeye's Chain",734-206-2006
SFE,4781,253014,TACO BELL #37841,"2351 ELLSWORTH RD",YPSILANTI,YPSILANTI,Deedler,"Taco Bell chain",734-434-1344
SFE,4781,253015,TACO BELL #37839,"3860 S. STATE RD",ANN ARBOR,PITTSFIELD,Deedler,"Taco Bell chain",734-665-7177
SFE,4781,253017,PANDA EXPRESS #3345,"5645 JACKSON RD",ANN ARBOR,SCIO,Hansell,"16 CW Area Jackson, Zeeb, Lohr",734-926-9977
SFE,4781,253129,CHIPOTLE MEXICAN GRILL #3758,"2295 W. STADIUM BLVD",ANN ARBOR,,Hansell,"Chipotle Chain",734-274-6185
SFE,4781,253131,HAMPTON INN & SUITES,"515 JAMES L HART PKWY",YPSILANTI,YPSILANTI,Pearson,"18 CW Area Whittker & Mich Ave",734-879-9565
SFE,4781,253132,WINGSTOP 1871,"3500 WASHTENAW AVE, STE F",ANN ARBOR,,Hauck,"12 SM Area Dwntwn AA, Wash Ave",734-356-8600
SFE,4781,253185,NAUTI MI ON THE RIVER,"9260 MCGREGOR RD",PINCKNEY,DEXTER,Matranga,"02 VD Area Dexter",734-726-5441
SFE,4781,253186,CHELSEA COMFORT INN - BREAKFAST,"1645 COMMERCE PARK DR",CHELSEA,,Hauck,"01 PB Area Chelsea",734-433-8000
SFE,4781,253315,SIMPLI FRESH,"3980 PLATT RD, STE E",ANN ARBOR,,Pearson,"20 CY Area Packard & Eisenhowr",
SFE,4781,253371,CULVER'S 455,"5910 JACKSON RD",ANN ARBOR,SCIO,Kamenec,"16 CW Area Jackson, Zeeb, Lohr",734-741-1111
SFE,4781,253372,BORIMEX RESTAURANT,"5561 CARPENTER RD",YPSILANTI,PITTSFIELD,Pearson,"17 CY Area Washtnaw & Carpnter",734-340-5762
SFE,4781,253374Z,KANBU DOWNTOWN,"241 E. LIBERTY",ANN ARBOR,,Sherwin,"",734-465-8884
SFE,4781,253376,LITTLE CAESARS,"6901 STATE RD",SALINE,,Matranga,"Little Caesars chain",734-470-6481
SFE,4781,253377,HOPCAT AA,"311 MAYNARD",ANN ARBOR,,Sherwin,"12 SM Area Dwntwn AA, Wash Ave",734-436-2875
SFE,4781,253378,JJ CRAB HOUSE,"2871 CARPENTER RD",ANN ARBOR,PITTSFIELD,Deedler,"17 CY Area Washtnaw & Carpnter",734-222-1111
SFE,4781,253381,SALEM HILLS GOLF CLUB,"8810 SIX MILE RD",NORTHVILLE,SALEM,Matranga,"06 CW Area Plymth Rd, Ypsi",248-437-2152
SFE,4781,253543,YPSI COCKTAIL CLUB,"102 W MICHIGAN AVE",YPSILANTI,,Pearson,"12 SM Area Dwntwn AA, Wash Ave",734-882-2169
SFE,4781,253544,JET'S PIZZA,"7011 DEXTER ANN ARBOR RD",DEXTER,,Pearson,"Jet's Pizza chain",734-424-9810
SFE,4781,253613,GOODLYFE SMOOTHIES,"6062 RAWSONVILLE RD",VAN BUREN TWP,YPSILANTI,Kamenec,"Goodlyfe Smoothies Chain",734-905-7470
SFE,4781,253726,CHIPPEWA SNACK SHACK,"2525 GOLFSIDE",YPSILANTI,,Hauck,"",734-434-6100
SFE,4781,253939,AUBREE'S PIZZERIA & GRILL,"8031 MAIN ST., STE. 100",DEXTER,,Pearson,"Aubree's Chain",734-424-1400
SFE,4781,253941,SAGANWORKS LABS (JIBARITO),"309 S MAIN ST",ANN ARBOR,,Sherwin,"12 SM Area Dwntwn AA, Wash Ave",734-372-3200
SFE,4781,254048,KOREAN GOURMET,"1139 BROADWAY",ANN ARBOR,,Yet,"06 CW Area Plymth Rd, Ypsi",734-769-8900
SFE,4781,254429,BEYOND JUICERY & EATERY,"3200 ANN ARBOR SALINE RD",ANN ARBOR,PITTSFIELD,Hauck,"20 CY Area Packard & Eisenhowr",313-300-7280
SFE,4781,254430,TROPICAL SMOOTHIE CAFE,"5609 JACKSON RD STE 107",ANN ARBOR,SCIO,Sherwin,"Tropical Smoothie Chain",734-929-5530
SFE,4781,254433,SC SPOT AT WCC- CREATIVE DINING SERVICES,"4800 E HURON RIVER DR",ANN ARBOR,,Hauck,"",734-477-8598
SFE,4781,254434,JAVA SPOT AT WCC- CREATIVE DINING SERVIC,"4800 E HURON RIVER DR",ANN ARBOR,,Hauck,"",734-477-8598
SFE,4781,254435,SS CHINA ONE,"517 W CROSS ST",YPSILANTI,,Deedler,"13 RS Area EMU & Campus Area",734-481-3333
SFE,4781,254465,QDOBA MEXICAN EATS #1934,"80 S ZEEB RD, STE 104",ANN ARBOR,SCIO,Pearson,"Qdoba Chain",734-585-1300
SFE,4781,255208,BOBA TEA HOUSE,"3780 JACKSON RD, STE C",ANN ARBOR,SCIO,Kamenec,"16 CW Area Jackson, Zeeb, Lohr",734-436-4794
SST,4781,255210,SALINE AREA LIONS CLUB (STFU),"PO BOX 412",SALINE,,Sherwin,"07 CH Area Saline",660-4801
SFE,4781,255768,THOMSON REUTERS,"6300 INTERFIRST DR",ANN ARBOR,PITTSFIELD,Yet,"07 CH Area Saline",517-403-0154
SFE,4781,255790,THOMPSON & CO,"400 N RIVER ST",YPSILANTI,,Pearson,"19 CH Area AA Schls & DepotTwn",734-441-6200
SFE,4781,255791,DALAT RESTAURANT,"2216 S MAIN ST",ANN ARBOR,,Deedler,"20 CY Area Packard & Eisenhowr",734-487-7600
SFE,4781,256645,SHAWARMA SHOP,"2993 S. STATE ST",ANN ARBOR,,Hansell,"08 CH Area Manchest & Briarwod",734-369-6552
SFE,4781,257625,STRAY HEN CAFE,"403 E WASHINGTON ST",ANN ARBOR,,Sherwin,"12 SM Area Dwntwn AA, Wash Ave",224-616-4851
SFE,4781,257626,COURTYARD ANN ARBOR,"3205 BOARDWALK DR",ANN ARBOR,,Deedler,"20 CY Area Packard & Eisenhowr",734-995-5900
SST,4781,257628,DON GUICHOS KITCHEN STFU,"5229 MICHIGAN AVE",YPSILANTI,,Pearson,"09 PB Area Milan & Ecorse/Ford",586-746-7620
SFE,4781,257630,HOLIDAY INN EXPRESS UNIVERSITY SOUTH,"3583 RESEARCH PARK DR",ANN ARBOR,,Hansell,"08 CH Area Manchest & Briarwod",734-213-1200
SFE,4781,258442,HYPERION COFFEE COMPANY,"111 W. LIBERTY ST",ANN ARBOR,,Hansell,"11 RS Area Stadium & Jackson",734-510-0398
SFE,4781,258608,LAN CITY NOODLE BAR,"1235-1237 S UNIVERSITY",ANN ARBOR,,Kamenec,"04 VD Area UM Campus South",734-929-5329
SFE,4781,258610,TIM HORTONS,"3975 S STATE RD",ANN ARBOR,,Kamenec,"Tim Hortons Chain",734-214-3939
SST,4781,258613,FEDUP MINISTRIES,"16 S. Washington St.",YPSILANTI,,Hansell,"11 RS Area Stadium & Jackson",865-300-7078
SFE,4781,258617,NO THAI ONLINE,"1952 S. INDUSTRIAL HWY",ANN ARBOR,,Pearson,"No Thai!",734-585-5484
SFE,4781,259232,BAMBU ANN ARBOR,"3354 WASHTENAW AVE, STE E",ANN ARBOR,,Hauck,"12 SM Area Dwntwn AA, Wash Ave",734-263-2481
SFE,4781,259234,LUCKY 7 CHINESE FOOD,"1777 WASHTENAW AVE",YPSILANTI,YPSILANTI,Hauck,"",734-482-7770
SFE,4781,259418,BRIDGE COMMUNITY CAFE,"217 W. MICHIGAN AVE",YPSILANTI,,Pearson,"10 SM Area Mich Ave/Ypsi City",734-896-3710
SFE,4781,259419,M-36 COFFEE ROASTERS,"1101 S UNIVERSITY",ANN ARBOR,,Kamenec,"04 VD Area UM Campus South",734-945-6934
SFE,4781,259423,MOGE TEE ANN ARBOR,"2603 PLYMOUTH RD",ANN ARBOR,,Yet,"06 CW Area Plymth Rd, Ypsi",734-773-3922
SFE,4781,259630,TIM HORTONS,"524 E. MICHIGAN AVE",SALINE,,Kamenec,"Tim Hortons Chain",734-429-0761
SFE,4781,259636,REGAL BEAGLE,"817 E. MICHIGAN AVE",YPSILANTI,,Pearson,"10 SM Area Mich Ave/Ypsi City",734-961-7045
SFE,4781,260346,COTTAGE INN,"3219 BROAD ST STE 101",DEXTER,,Sherwin,"Cottage Inn chain",734-426-5110
SFE,4781,260347,MANCHESTER DINER,"108 ADRIAN ST",MANCHESTER,,Hauck,"08 CH Area Manchest & Briarwod",734-428-0721
SFE,4781,260348,HOLIDAY INN EXPRESS & SUITES,"323 N ZEEB RD",ANN ARBOR,SCIO,Hauck,"16 CW Area Jackson, Zeeb, Lohr",734-827-1100
SFE,4781,260349,SWEETWATERS COFFEE & TEA-PLYMOUTH GREEN,"3393 PLYMOUTH RD",ANN ARBOR,,Matranga,"Sweetwater's chain",734-369-4568
SFE,4781,260550,CULVERS OF CHELSEA,"1610 S. MAIN ST",CHELSEA,,Kamenec,"Culver's Chain",734-562-2494
SFE,4781,260640,WASHTENAW INTERMEDIATE SCHOOL DISTRICT,"1735 S WAGNER RD",ANN ARBOR,SCIO,Kamenec,"16 CW Area Jackson, Zeeb, Lohr",734-994-8111
SFE,4781,260641,RITESPICE,"16 S. Washington",YPSILANTI,,Pearson,"10 SM Area Mich Ave/Ypsi City",734-730-5846
SFE,4781,260802,MARCO'S PIZZA #1275,"3238 ANN ARBOR-SALINE RD",ANN ARBOR,,Hauck,"Marco's Pizza chain",734-492-5900
SFE,4781,260992,HOMES BREWERY COMMISSARY/DOZER COFFEE,"112 JACKSON PLAZA",ANN ARBOR,,Hauck,"11 RS Area Stadium & Jackson",734-260-4627
SFE,4781,260993,PLATE SUSHI & CHICKEN,"1133 BROADWAY ST",ANN ARBOR,,Yet,"06 CW Area Plymth Rd, Ypsi",734-369-6127
SFE,4781,260994,FIREHOUSE SUBS,"3500 WASHTENAW AVE",ANN ARBOR,,Hauck,"17 CY Area Washtnaw & Carpnter",734-369-2299
SFE,4781,261194,CINNAHOLIC,"121 E. LIBERTY",ANN ARBOR,,Sherwin,"12 SM Area Dwntwn AA, Wash Ave",734-707-1955
SFE,4781,261195,DUNKIN DONUTS,"1629 S. MAIN ST",CHELSEA,,Pearson,"Dunkin Donuts Chain",734-562-2004
SFE,4781,261277,YAYA'S PIZZA,"2257 ELLSWORTH RD",YPSILANTI,YPSILANTI,Pearson,"12 SM Area Dwntwn AA, Wash Ave",734-547-5203
SFE,4781,261434,MANHATTAN FISH & CHICKEN,"3330 S GROVE ST",YPSILANTI,YPSILANTI,Kamenec,"",734-340-4124
SFE,4781,261552Z,SHISH KABAB PALACE,"2722 WASHTENAW AVE",YPSILANTI,,Pearson,"03 PB Area Whit Lke & Wash Ave",734-221-5633
SMF,4781,261553,KONA ICE OF YPSILANTI MOBILE #1,"4317 EARL CT",YPSILANTI,YPSILANTI,Yet,"Kona Ice chain",734-531-8643
SFE,4781,261554,CONDADO TACOS 33,"401 E. LIBERTY ST, #200",ANN ARBOR,,Matranga,"15 SM Area Washngtn, Librty AA",614-947-1171
SFE,4781,261555,STATION 300 SALINE,"830 E WOODLAND DR",SALINE,,Yet,"07 CH Area Saline",734-429-5457
SFE,4781,261660,EVEREST SHERPA RESTAURANT,"2803 OAK VALLEY DR",ANN ARBOR,PITTSFIELD,Deedler,"16 CW Area Jackson, Zeeb, Lohr",734-997-5490
SFE,4781,262113,BIG ENTERTAINMENT,"4095 CARPENTER RD",YPSILANTI,PITTSFIELD,Deedler,"20 CY Area Packard & Eisenhowr",734-660-5335
SFE,4781,262114,FIVE GUYS BURGERS AND FRIES,"3601 WASHTENAW AVE",ANN ARBOR,,Hauck,"Five Guy's Chain",845-682-0192
SFE,4781,262115,FIVE GUYS BURGERS AND FRIES,"3155 ANN ARBOR-SALINE RD",ANN ARBOR,,Hauck,"Five Guy's Chain",845-414-3934
SFE,4781,262116,SODEXO AT KLA ANN ARBOR,"1200 WOODRIDGE AVE",ANN ARBOR,,Deedler,"",734-210-6500
SFE,4781,262117,YPSILANTI NUTRITION,"1338 ANNA J STEPP DR",YPSILANTI,,Pearson,"18 CW Area Whittker & Mich Ave",
SFE,4781,262119,PICASSO @ WACKER,"4950 S. STATE ST",ANN ARBOR,PITTSFIELD,Hansell,"08 CH Area Manchest & Briarwod",734-930-7248
SFE,4781,262120,TROPICAL SMOOTHIE,"3400 WASHTENAW AVE",ANN ARBOR,,Sherwin,"Tropical Smoothie Chain",248-513-3666
SFE,4781,262202,MONTY'S PUBLIC HOUSE,"3140 PACKARD",ANN ARBOR,,Hauck,"20 CY Area Packard & Eisenhowr",734-929-5462
SST,4781,262203,KONA ICE OF YPSILANTI STFU #1,"4317 EARL CT",YPSILANTI,,Sherwin,"Kona Ice chain",734-531-8643
SST,4781,262204,KONA ICE OF YPSILANTI STFU #2,"4317 EARL CT",YPSILANTI,,Sherwin,"Kona Ice chain",734-531-8643
SFE,4781,262298,SEOUL (THE),"620 E. LIBERTY ST",ANN ARBOR,,Sherwin,"04 VD Area UM Campus South",734-585-0472
SFE,4781,262451,NAMASTE FLAVOURS ARBOR,"400 S. DIVISION",ANN ARBOR,,Sherwin,"05 VD Area UM Campus Northwest",734-995-1545
SFE,4781,262452,RICEWOOD MAPLE,"245 W. MAPLE RD",ANN ARBOR,,Hansell,"11 RS Area Stadium & Jackson",734-929-5405
SST,4781,262514,KONA ICE OF YPSILANTI STFU #3,"4317 EARL CT",YPSILANTI,,Sherwin,"Kona Ice chain",734-531-8643
SST,4781,262515,KONA ICE OF YPSILANTI STFU #4,"4317 EARL CT",YPSILANTI,,Sherwin,"Kona Ice chain",734-531-8643
SST,4781,262516,LUCKY BEEZ STFU,"7134 FIELDING ST",YPSILANTI,,Yet,"10 SM Area Mich Ave/Ypsi City",734-219-3666
SFE,4781,262723,COSA SABROSA,"2070 W STADIUM BLVD",ANN ARBOR,,Hansell,"11 RS Area Stadium & Jackson",734-330-6028
SFE,4781,262724,EL LIMON,"2709 PLYMOUTH RD",ANN ARBOR,,Yet,"06 CW Area Plymth Rd, Ypsi",734-780-7088
SST,4781,262725,TABORS FOOD SERVICES STFU,"9260 WLLOW RD",WILLIS,AUGUSTA,Hauck,"18 CW Area Whittker & Mich Ave",734-217-3966
SFE,4781,262790,AMAIZEING DELI & CAFE,"1329 S. UNIVERSITY AVE",ANN ARBOR,,Kamenec,"04 VD Area UM Campus South",734-996-0009
SFE,4781,262791,APPLEBEES #8061,"1005 W. EISENHOWER",ANN ARBOR,,Deedler,"Applebee's Chain",248-262-1000
SFE,4781,262792,D.P. DOUGH,"729 W. CROSS ST",YPSILANTI,,Deedler,"13 RS Area EMU & Campus Area",734-291-0100
SFE,4781,263290,HILTON GARDEN INN ANN ARBOR,"1401 BRIARWOOD CIRCLE",ANN ARBOR,,Hansell,"08 CH Area Manchest & Briarwod",734-327-6400
SFE,4781,263291,TOWNEPLACE SUITES ANN ARBOR,"1301 BRIARWOOD CIRCLE",ANN ARBOR,,Hansell,"08 CH Area Manchest & Briarwod",734-327-5900
SFE,4781,263294,SALINE INN,"434 E. MICHIGAN AVE",SALINE,,Yet,"07 CH Area Saline",734-429-2004
SFE,4781,263295,EVERGREEN DOWNTOWN,"208 W. LIBERTY ST",ANN ARBOR,,Yet,"12 SM Area Dwntwn AA, Wash Ave",734-769-2748
SFE,4781,263296,COCO FRESH TEA & JUICE,"2535 JACKSON AVE",ANN ARBOR,,Yet,"06 CW Area Plymth Rd, Ypsi",734-492-3956
SFE,4781,263297,CAFE LIV,"202 N WASHINGTON",YPSILANTI,,Pearson,"10 SM Area Mich Ave/Ypsi City",
SFE,4781,263304,STEAK N SHAKE,"4120 ELLSWORTH RD",YPSILANTI,,Deedler,"17 CY Area Washtnaw & Carpnter",734-528-4006
SFE,4781,263373,WASHTENAW COMMUNITY COLLEGE CATERING SVC,"4800 E. HURON RIVER DR",ANN ARBOR,,Hauck,"WCC Schools",734-477-8598
SFE,4781,263718,MILAN CONEY ISLAND,"1152 DEXTER ST",MILAN,,Matranga,"09 PB Area Milan & Ecorse/Ford",734-439-3503
SFE,4781,263719,STRATEGIC FOX COLLECTION,"8768 N. TERRITORIAL RD",PLYMOUTH,SALEM,Matranga,"16 CW Area Jackson, Zeeb, Lohr","248-885-5570"
SFE,4781,263720,FOX CLASSIC CLUBHOUSE,"8768 N TERRITORIAL",PLYMOUTH,SALEM,Matranga,"16 CW Area Jackson, Zeeb, Lohr",248-885-5570
SFE,4781,263721,GOLDEN FOX CLUBHOUSE,"8768 N. TERRITORIAL RD",PLYMOUTH,SALEM,Matranga,"16 CW Area Jackson, Zeeb, Lohr",248-885-5570
SFE,4781,263722,EL TAPATIO TAQUERIA RESTAURANT,"3045 CARPENTER",YPSILANTI,,Deedler,"17 CY Area Washtnaw & Carpnter",734-369-2606
SFE,4781,263724,CUPPY'S BEST SOULFUL BISTRO,"2469 WASHTENAW AVE",YPSILANTI,,Hauck,"",734-961-8384
SFE,4781,263725,SMOKEY MICHIGAN,"20390 M-52",CHELSEA,,Hauck,"01 PB Area Chelsea",734-210-8102
SFE,4781,263863,MARCO'S PIZZA #1104,"148 BARKER RD",WHITMORE LAKE,NORTHFIELD,Hauck,"Marco's Pizza chain",734-449-1111
SFE,4781,263864,GOT BURGER,"301 W. CROSS ST",YPSILANTI,,Deedler,"13 RS Area EMU & Campus Area",734-219-7240
SFE,4781,264027,NOORI CHICKEN ANN ARBOR,"1355 E MICHIGAN AVE",ANN ARBOR,,Kamenec,"04 VD Area UM Campus South",734-780-7068
SFE,4781,264028,PALGONG TEA,"2264 S. MAIN ST",ANN ARBOR,,Deedler,"20 CY Area Packard & Eisenhowr",734-882-2870
SFE,4781,264029,VENUE BY 4M,"1919 S. INDUSTRIAL HWY",ANN ARBOR,,Hauck,"20 CY Area Packard & Eisenhowr",734-800-0128
SFE,4781,264762,C. KING & CO. CAFE,"101 W MICHIGAN AVE",YPSILANTI,,Pearson,"10 SM Area Mich Ave/Ypsi City",917-548-8800
SFE,4781,264766,MILLIE'S COFFEEHOUSE,"227 E. MAIN ST",MANCHESTER,,Hauck,"08 CH Area Manchest & Briarwod","(734) 212-3212"
SFE,4781,264768,19 DRIPS COFFEE AND TEA,"2891 JACKSON AVE",ANN ARBOR,,Hauck,"11 RS Area Stadium & Jackson",734-585-0461
SFE,4781,264769,MOON WINKS CAFE,"5151 PLYMOUTH RD",ANN ARBOR,,Matranga,"06 CW Area Plymth Rd, Ypsi",734-994-5151
SFE,4781,264902,SUBWAY,"1107 S. MAIN ST",CHELSEA,,Sherwin,"Subway chain",734-475-7827
SST,4781,265281,CURT GOT CRABS (STFU),"43006 LEXINGTON CT",VAN BUREN TWP,,Kamenec,"Out of County TFU",248-845-8435
SFE,4781,266891,FAT DADDY'S CHICKEN & WAFFLES,"411 E. WASHINGTON ST, SUITE A",ANN ARBOR,,Sherwin,"12 SM Area Dwntwn AA, Wash Ave",734-585-0557
SFE,4781,266892,HOMEWOOD SUITES BY HILTON ANN ARBOR,"2457 S. STATE ST",ANN ARBOR,,Hansell,"08 CH Area Manchest & Briarwod",734-214-3955
SFE,4781,266895,MAMA PIZZA,"5 N. HAMILTON",YPSILANTI,,Pearson,"10 SM Area Mich Ave/Ypsi City",734-896-3843
SFE,4781,267084,UNION REC,"545 S. MAIN ST",ANN ARBOR,,Yet,"12 SM Area Dwntwn AA, Wash Ave",734-636-9999
SFE,4781,267087,BAO SPACE,"205 N. MAIN ST",ANN ARBOR,,Kamenec,"14 RS Area Main Street AA",734-436-8488
SFE,4781,350157,FIRST WATCH RESTAURANTS #680,"3059 OAK VALLEY DR",ANN ARBOR,,Deedler,"20 CY Area Packard & Eisenhowr",941-500-1987
SFE,4781,350158,JET'S PIZZA,"978 E. MICHIGAN AVE",SALINE,,Pearson,"Jet's Pizza chain",734-429-9700
SFE,4781,350159,ISSA'S PIZZA,"530 N. HURON ST",YPSILANTI,,Deedler,"13 RS Area EMU & Campus Area",734-905-7076
SFE,4781,350160,CANNELLE ANN ARBOR,"110 E. WASHINGTON ST",ANN ARBOR,,Kamenec,"15 SM Area Washngtn, Librty AA",734-519-1300
SST,4781,351310,DELECTABOWL STFU,"6269 POTOMAC CIR",WEST BLOOMFIELD,,Hauck,"09 PB Area Milan & Ecorse/Ford",248-560-7433
SFE,4781,351346,HAPPY WOK USA,"1916 W. STADIUM BLVD",ANN ARBOR,,Hansell,"11 RS Area Stadium & Jackson",734-665-6888
SFE,4781,351347,HAMPTON INN,"925 VICTORS WAY",ANN ARBOR,,Deedler,"20 CY Area Packard & Eisenhowr",734-665-5000
SFE,4781,351348,BASIL BABE,"701 W. CROSS ST",YPSILANTI,,Deedler,"13 RS Area EMU & Campus Area",734-487-4000
SFE,4781,351457,SWEETGREEN,"311 S. STATE ST",ANN ARBOR,,Sherwin,"sweetgreen chain",805-304-8250
SFE,4781,351507,HARVEST MOON CAFE,"5484 W. MICHIGAN AVE",YPSILANTI,,Pearson,"18 CW Area Whittker & Mich Ave",734-434-8100
SFE,4781,351508,IT KICKS,"4175 WHITMORE LAKE RD",ANN ARBOR,,Sherwin,"03 PB Area Whit Lke & Wash Ave",734-657-3602
SFE,4781,351509,CHRISTINA'S SWEET TREATS AND MORE,"901 W. MICHIGAN AVE, STE B",SALINE,,Yet,"07 CH Area Saline",734-355-0754
SMF,4781,351633,TOP DOG MOBILE,"1069 STAMFORD RD",YPSILANTI,,Hauck,"19 CH Area AA Schls & DepotTwn",734-972-8651
SFE,4781,351779,COMMON GRILL (THE),"112 S. MAIN ST",CHELSEA,,Hauck,"01 PB Area Chelsea",734-475-0470
SFE,4781,351780,TIKALITO,"1346 E. MICHIGAN AVE",YPSILANTI,,Pearson,"18 CW Area Whittker & Mich Ave",734-644-4988
SFE,4781,351784,JASMINE BUBBLE TEA & EATERY,"340 MAYNARD ST #4",ANN ARBOR,,Sherwin,"05 VD Area UM Campus Northwest",
SFE,4781,351789,RIVERSIDE PIZZA PINCKNEY,"9310 MCGREGOR RD",PINCKNEY,,Matranga,"02 VD Area Dexter",734-426-0800
SFE,4781,351937,SUBWAY,"2868 WASHTENAW AVE",YPSILANTI,,Sherwin,"Subway chain",734-572-4200
SFE,4781,351938,PANERA BREAD #1105,"3611 PLYMOUTH RD",ANN ARBOR,,Kamenec,"Panera Bread Chain",734-332-6279
SFE,4781,351939,DOS HERMANDOS MEXICAN GRILL,"402 W. MICHIGAN AVE",YPSILANTI,,Pearson,"10 SM Area Mich Ave/Ypsi City",734-485-2008
SFE,4781,351940,POLO FIELDS GOLF & COUNTRY CLUB,"5200 POLO FIELDS DR",ANN ARBOR,SCIO,Deedler,"16 CW Area Jackson, Zeeb, Lohr",734-998-1555
SFE,4781,351984,MENCHIES FROZEN YOGURT,"3155 ANN ARBOR-SALINE RD",ANN ARBOR,,Matranga,"",222-1125
SFE,4781,351985,SWEETGREEN,"3070 WASHTENAW AVE, #D107",ANN ARBOR,,Sherwin,"sweetgreen chain",
SFE,4781,351986,OVER THE EDGE PIZZA,"230 E MAIN ST",MANCHESTER,,Hauck,"08 CH Area Manchest & Briarwod",
SFE,4781,352052,HIDDEN KING,"210 S MAIN ST",ANN ARBOR,,Sherwin,"14 RS Area Main Street AA",734-545-6760
SFE,4781,352181,VETERANS MEMORIAL PARK,"2150 JACKSON AVE",ANN ARBOR,,Hansell,"11 RS Area Stadium & Jackson",734-794-6235
SFE,4781,352183,SUBWAY,"1010 E. MICHIGAN AVE",SALINE,,Sherwin,"Subway chain",734-944-4447
SFE,4781,352184,MISFIT SOCIETY COFFEE CLUB,"615 E UNIVERSITY AVE",ANN ARBOR,,Kamenec,"04 VD Area UM Campus South",734-585-5343
SST,4781,352216,PITA DELIGHT STFU,"4235 WILLIS RD",MILAN,YPSILANTI,Kamenec,"18 CW Area Whittker & Mich Ave",313-415-6776
SST,4781,352417,KONA ICE OF YPSILANTI STFU #5,"4317 EARL CT",YPSILANTI,,Sherwin,"Kona Ice chain",635-3565
SFE,4781,352418,MORRISON COMMUNITY LIVING,"200 BRECON DR",SALINE,,Yet,"07 CH Area Saline",734-429-1155
SMF,4781,352419,KONA ICE OF YPSILANTI MOBILE #2,"4317 EARL CT",YPSILANTI,,Yet,"Kona Ice chain",734-483-4200
SST,4781,352420,KONA ICE OF YPSILANTI STFU #6,"4317 EARL CT",YPSILANTI,,Sherwin,"Kona Ice chain",734-483-4200
SFE,4781,352652,TOTALLY TEA,"100 BRIARWOOD CIR, K108",ANN ARBOR,,Hansell,"08 CH Area Manchest & Briarwod",
SFE,4781,352653,THE GREAT GREEK MEDITERRANEAN GRILL,"3268 ANN ARBOR-SALINE RD",ANN ARBOR,PITTSFIELD,Deedler,"16 CW Area Jackson, Zeeb, Lohr",373-7000
SFE,4781,352654,SHERATON ANN ARBOR HOTEL,"3200 BOARDWALK",ANN ARBOR,,Deedler,"20 CY Area Packard & Eisenhowr",734-996-0600
SFE,4781,352655,MANCINOS PIZZA & GRINDERS,"1323 E MICHIGAN AVE",SALINE,,Yet,"Mancino's chain",734-944-2838
SFE,4781,352656,HYPERION COFFEE COMPANY LLC,"306 N RIVER ST, STE D",YPSILANTI,,Hansell,"19 CH Area AA Schls & DepotTwn",734-547-5329
SFE,4781,352657,HONCHO A-GO-GO STFU,"545 S MAIN ST",ANN ARBOR,,Sherwin,"12 SM Area Dwntwn AA, Wash Ave",208-390-7089
SFE,4781,352658,ZIGGY'S,"206 W MICHIGAN AVE",YPSILANTI,,Pearson,"10 SM Area Mich Ave/Ypsi City",
SST,4781,352733,PARADISE MEXICAN RESTAURANT STFU,"447 E MICHIGAN AVE",SALINE,,Yet,"07 CH Area Saline",330-6009
SFE,4781,352827,CHELSEA'S TREEHOUSE,"1101 S MAIN ST, STE 400",CHELSEA,,Hauck,"01 PB Area Chelsea",734-475-1555
SFE,4781,352828,PAESANO RESTAURANT & WINE BAR,"3411 WASHTENAW AVE",ANN ARBOR,,Hauck,"12 SM Area Dwntwn AA, Wash Ave",734-971-0484
SFE,4781,352829,CHELSEA SCH BASEBALL CONCESSION,"14138 E OLD US 12",CHELSEA,,Hansell,"01 PB Area Chelsea",734-433-2201
SFE,4781,352831,SUBWAY / SPARTAN SUBS 13,"2410 W STADIUM BLVD",ANN ARBOR,,Sherwin,"Subway chain",734-994-6863
SFE,4781,352832,TACO BELL # 40657,"2655 WASHTENAW AVE",YPSILANTI,YPSILANTI,Deedler,"Taco Bell chain",734-434-8620
SFE,4781,353010,LUCA'S DINING & CONEY ISLAND,"309 E MICHIGAN AVE",YPSILANTI,,Pearson,"Luca's Coney Island",734-485-3005
SFE,4781,353417,HOMES BREWERY - EVENT CENTER,"112 JACKSON PLAZA",ANN ARBOR,SCIO,Hauck,"11 RS Area Stadium & Jackson",734-929-5212
SFE,4781,353419,PINE VIEW GOLF COURSE,"5820 STONEY CREEK RD",YPSILANTI,,Hauck,"09 PB Area Milan & Ecorse/Ford",734-481-0500
SFE,4781,353420,BLUE WHALE CAFE,"2420 E STADIUM BLVD",ANN ARBOR,,Hansell,"11 RS Area Stadium & Jackson",734-585-5221
SFE,4781,353421,TOARMINA'S PIZZA,"2145 W STADIUM BLVD",ANN ARBOR,,Deedler,"Toarminas Chain",734-800-2424
SST,4781,353422,TACOS EL CHAPARRITO,"1932 WASHTENAW AVE, APT 16",YPSILANTI,,Hauck,"17 CY Area Washtnaw & Carpnter",747-2174
SFE,4781,353480,PANERA BREAD #878,"140 S ZEEB RD",ANN ARBOR,,Kamenec,"Panera Bread Chain",734-332-6279
SFE,4781,353481,RICH JC,"1313 S UNIVERSITY AVE",ANN ARBOR,,Kamenec,"04 VD Area UM Campus South",734-769-2288
SFE,4781,353483,LA MARSA,"7049 DEXTER ANN ARBOR RD",DEXTER,,Matranga,"02 VD Area Dexter",734-580-2342
SFE,4781,353485,TOARMINA'S PIZZA & BURRITO JOINT,"1200 PACKARD ST",ANN ARBOR,,Deedler,"Toarminas Chain",734-995-4040
SFE,4781,353487,YPBOR F. M.,"2800 WASHTENAW AVE",YPSILANTI,YPSILANTI,Hauck,"03 PB Area Whit Lke & Wash Ave",734-434-7978
SFE,4781,353547,JETS PIZZA,"1749 PLYMOUTH RD",ANN ARBOR,,Pearson,"Jet's Pizza chain",734-332-1300
SST,4781,353548,VEGANO ITALIANO STFU,"PO BOX 409",WHITMORE LAKE,,Sherwin,"",315-558-2060
SFE,4781,353579,JALISCO MEXICAN RESTAURANT AND CANTINA,"1375 E MICHIGAN AVE",SALINE,,Yet,"07 CH Area Saline",734-291-0302
SFE,4781,353580,BOB'S FISH AND CHICKEN,"501 E MICHIGAN AVE",YPSILANTI,,Pearson,"09 PB Area Milan & Ecorse/Ford",734-483-5227
SFE,4781,353581,H & M FISH & CHICKEN/NU WAYZ,"1800 MICHIGAN AVE",YPSILANTI,,Matranga,"18 CW Area Whittker & Mich Ave",734-833-1324
SFE,4781,353888,VARA JUICE,"1510 WASHTENAW AVE, STE B",YPSILANTI,,Hauck,"17 CY Area Washtnaw & Carpnter",929-405-6773
SST,4781,353889,GRATEFUL CROW STFU,"420 N MAIN, STE 100",CHELSEA,,Hauck,"01 PB Area Chelsea",734-562-2903
SFE,4781,353890,TACO BELL STORE #40898,"1180 DEXTER RD",MILAN,,Deedler,"Taco Bell chain",734-526-3023
SST,4781,353891,KING OF SMOKE STFU,"39342 CHASE ST",ROMULUS,,Kamenec,"",
SST,4781,353892,STREGA KITCHEN STFU,"2591 VALLEY DR",ANN ARBOR,,Sherwin,"12 SM Area Dwntwn AA, Wash Ave",734-717-7412
SST,4781,353896,KONA ICE OF YPSILANTI STFU #7,"4317 EARL CT",YPSILANTI,,Sherwin,"Kona Ice chain",635-3565
SST,4781,353897,KONA ICE OF YPSILANTI STFU #8,"4317 EARL CT",YPSILANTI,,Sherwin,"Kona Ice chain",635-3565
SST,4781,353898,CARROZZA PIZZA (STFU),"713 ELLSWORTH RD",ANN ARBOR,,Pearson,"10 SM Area Mich Ave/Ypsi City",734-369-6290
SFE,4781,354001,JERSEY MIKE'S SUBS,"2561 JACKSON AVE",ANN ARBOR,,Deedler,"11 RS Area Stadium & Jackson",734-761-1121
SFE,4781,354087,TEXAS DE BRAZIL,"760 BRIARWOOD CIR",ANN ARBOR,,Hansell,"08 CH Area Manchest & Briarwod",734-336-1800
SFE,4781,354088,JEWISH FAMILY SERVICES,"2245 S. STATE ST",ANN ARBOR,,Hansell,"08 CH Area Manchest & Briarwod",734-769-0209
SFE,4781,354089,SOCOTRA COFFEE HOUSE,"3130 PACKARD ST",ANN ARBOR,,Hauck,"20 CY Area Packard & Eisenhowr",734-929-5672
SFE,4781,354090,LAZEEZ EATS,"2643 ELLSWORTH RD",YPSILANTI,,Pearson,"18 CW Area Whittker & Mich Ave",
SFE,4781,354091,TOARMINA'S PIZZA,"1510 WASHTENAW AVE",YPSILANTI,YPSILANTI,Deedler,"Toarminas Chain",734-802-2424
SFE,4781,354092,SWEETWATERS COFFEE & TEA 777,"777 E EISENHOWER PKWY",ANN ARBOR,,Matranga,"Sweetwater's chain",734-645-4248
SFE,4781,354093,RATERMAN BREAD HAUS & BISTRO,"8080 GRAND ST, STE 1B",DEXTER,,Matranga,"02 VD Area Dexter",503-980-8822
SFE,4781,354136,SPEEDYS BIG BURGERS,"10 N ADAMS",YPSILANTI,,Pearson,"10 SM Area Mich Ave/Ypsi City",734-340-3655
SFE,4781,354271,ALOHA HAWAIIAN BBQ,"882 W EISENHOWER PKWY",ANN ARBOR,,Deedler,"20 CY Area Packard & Eisenhowr",734-332-8789
SFE,4781,354348,SPIEDO,"307 S FIFTH AVE",ANN ARBOR,,Kamenec,"15 SM Area Washngtn, Librty AA",
SST,4781,354469,CATERED COFFEE,"528 LANE ST",CHELSEA,,Hauck,"01 PB Area Chelsea",
SFE,4781,354470,SONGBIRD CAFE, THE,"2707 PLYMOUTH RD",ANN ARBOR,,Hauck,"Songbird Cafe Chain",734-780-7100
SFE,4781,354471,DESI RUSHULU INDIAN CUISINE,"3022 PACKARD ST",ANN ARBOR,,Hauck,"20 CY Area Packard & Eisenhowr",734-361-8111
SFE,4781,354526,QUICKLY BOBA CAFE,"1329 E MICHIGAN AVE",SALINE,,Yet,"07 CH Area Saline",734-977-2124
SFE,4781,354548,WHITMORE LAKE MAIN STREET CAMPUS,"8845 MAIN ST",WHITMORE LAKE,NORTHFIELD,Yet,"Whitmore Lake Schools",734-449-4464
SFE,4781,354550,STARBUCKS COFFEE COMPANY #62729,"1620 S. MAIN ST",CHELSEA,,Matranga,"Starbuck's chain",
SFE,4781,354551,BODEGA BROS,"715 N UNIVERSITY AVE",ANN ARBOR,,Sherwin,"04 VD Area UM Campus South",369-6495
SST,4781,354591,SMOKEY MICHIGAN CATERING LLC,"20390 M-52",CHELSEA,,Hauck,"01 PB Area Chelsea",
SFE,4781,354689,SAM HILL,"5827 JACKSON RD",ANN ARBOR,SCIO,Kamenec,"16 CW Area Jackson, Zeeb, Lohr",
SFE,4781,354690,STIVER'S,"11 S FLETCHER RD",CHELSEA,,Hauck,"01 PB Area Chelsea",734-475-3610
SST,4781,354691,SHAWARMA CHEF STFU,"210 ECORSE RD",YPSILANTI,,Pearson,"09 PB Area Milan & Ecorse/Ford",734-262-4204
SFE,4781,354692,YORK FOOD & DRINK,"1928 PACKARD",ANN ARBOR,,Hauck,"20 CY Area Packard & Eisenhowr",734-662-0798
SST,4781,354693,WILLOW RUN BARBECUE CO,"1213 FALL RIVER RD",YPSILANTI,,Hansell,"09 PB Area Milan & Ecorse/Ford",734-899-0121
SFE,4781,354810,ELLEN'S FINE GOODS,"4721 RUNWAY BLVD",ANN ARBOR,,Yet,"20 CY Area Packard & Eisenhowr",734-646-8251
SST,4781,354859,FULLER FARMS FOODS STFU,"7330 FIVE MILE RD",NORTHVILLE,SALEM,Sherwin,"16 CW Area Jackson, Zeeb, Lohr","248-535-4359"
SFE,4781,354860,WHAT'S COOKING!,"3744 PLAZA DR",ANN ARBOR,,Hansell,"08 CH Area Manchest"
SFE,4781,354929,COTTAGE INN PIZZA,"501 E MICHIGAN AVE",SALINE,,Sherwin,"Cottage Inn chain",734-429-4774
SST,4781,354930,TRAVELIN' TOM'S OF YPSILANTI STFU,"4317 EARL CT",YPSILANTI,,Sherwin,"Kona Ice chain",635-3565
SFE,4781,354988,ARISE BAKERY AND CAFE,"972 E. MICHIGAN AVE",SALINE,,Yet,"07 CH Area Saline",734-316-2320
SFE,4871,354989,ST. ANDREWS EPISCOPAL CHURCH,"306 N DIVISION ST",ANN ARBOR,,Yet,"12 SM Area Dwntwn AA, Wash Ave",734-663-0518
SST,4781,355004,LITTLE CAESARS PIZZA #2 STFU,"4317 EARL CT",YPSILANTI,,Sherwin,"Little Caesars chain",635-3565
SFE,4781,355123,TOUS LES JOURS CAFE,"330 S MAPLE RD",ANN ARBOR,,Hansell,"11 RS Area Stadium & Jackson",734-436-4359
SFE,4781,355164,COTTAGE INN,"2407 WASHTENAW AVE",YPSILANTI,,Sherwin,"Cottage Inn chain",734-528-1515
SFE,4781,355165,GOLDEN RHINO GAMES,"2092 WHITTAKER RD",YPSILANTI,,Pearson,"18 CW Area Whittker & Mich Ave",734-544-1515
SFE,4781,355166,FAIRFIELD INN,"3285 BOARDWALK DR",ANN ARBOR,,Deedler,"20 CY Area Packard & Eisenhowr",
SFE,4781,355243,CULANTRO,"223 N. MAIN ST",ANN ARBOR,,Kamenec,"14 RS Area Main Street AA",734-369-4302
SFE,4781,355244,LA KTRINA MEXICAN RESTAURANT LLC,"1030 ECORSE RD",YPSILANTI,,Hauck,"09 PB Area Milan & Ecorse/Ford",734-961-8492
SFE,4781,355328,THE HEALTHY CHOICE CHELSEA,"1070 S. MAIN ST",CHELSEA,,Pearson,"Nutrition Shake Shops Chain",593-9443
SFE,4781,355329,LOWERTOWN BAR AND CAFE,"1031 BROADWAY ST",ANN ARBOR,,Yet,"06 CW Area Plymth Rd, Ypsi",734-926-8122
SFE,4781,355330,WOLVERINE PICKLEBALL LLC,"235 METTY DR",ANN ARBOR,SCIO,Kamenec,"16 CW Area Jackson, Zeeb, Lohr",734-489-1723
SFE,4781,355331,FRASER'S PUB,"2045 PACKARD ST",ANN ARBOR,,Hauck,"20 CY Area Packard & Eisenhowr",
SFE,4781,355332,MILK & FROTH,"328 S. MAIN ST",ANN ARBOR,,Sherwin,"12 SM Area Dwntwn AA, Wash Ave",
SFE,4781,355367,KIMCHI BOX,"1771 PLYMOUTH RD STE 101",ANN ARBOR,,Yet,"06 CW Area Plymth Rd, Ypsi",734-773-3652
SFE,4781,355455,NORTHERN GRIND COFFEE,"317 W. CROSS ST",YPSILANTI,,Deedler,"13 RS Area EMU & Campus Area",734-484-4684
SFE,4781,355500,SUBWAY #5150,"902 S STATE ST",ANN ARBOR,,Sherwin,"Subway chain",734-996-9140
SFE,4781,355501,SUBWAY #1135,"1315 S UNIVERSITY AVE",ANN ARBOR,,Sherwin,"Subway chain",734-761-4160
SST,4781,355503,TACOS DEL CASTILLO,"888 ECORSE RD",YPSILANTI,,Pearson,"09 PB Area Milan & Ecorse/Ford",
SFE,4781,355504,PERIDOT,"118 W LIBERTY ST",ANN ARBOR,,Yet,"15 SM Area Washngtn, Librty AA",734-773-3097
SFE,4781,355505,UNDER THE OAK,"4175 WHITMORE LAKE RD",ANN ARBOR,,Pearson,"03 PB Area Whit Lke & Wash Ave",734-385-6748
SFE,4781,355506,KHADI'S CUISINE,"421 W. CROSS",YPSILANTI,,Pearson,"10 SM Area Mich Ave/Ypsi City",734-905-7013
SFE,4781,355508,HIGHLINE SPIRITS,"3126 BROAD ST, STE B",DEXTER,,Matranga,"02 VD Area Dexter",517-290-8001
SFE,4781,355704Z,HAIFA FALAFEL,"1721 PLYMOUTH ROAD",ANN ARBOR,,Pearson,"06 CW Area Plymth Rd, Ypsi",734-665-4430
SFE,4781,355766,NSF INTERNATIONAL,"789 N DIXBORO",ANN ARBOR,ANN ARBOR,Kamenec,"21 CY Area Kerrytown & AA Twp.",734-476-0827
SFE,4781,355767,PULSE NUTRITION,"7045 DEXTER-ANN ARBOR RD",DEXTER,,Pearson,"02 VD Area Dexter",734-748-9099
SFE,4781,355829,OF RICE AND MEN ""ORAM"","312 S MAIN ST",ANN ARBOR,,Sherwin,"14 RS Area Main Street AA",
SFE,4781,356019,BASE CAMP,"5060 JACKSON RD #A",ANN ARBOR,SCIO,Kamenec,"16 CW Area Jackson, Zeeb, Lohr",
SFE,4781,356020,K BUENO,"118 N MAIN ST",CHELSEA,,Hauck,"01 PB Area Chelsea",
SFE,4781,356095,HAMPTON INN SALINE,"1250 E. MICHIGAN AVE",SALINE,,Yet,"07 CH Area Saline",734-977-9001
SFE,4781,356096,STRIDER COFFEE SHOP,"1608 JACKSON AVE",ANN ARBOR,,Pearson,"12 SM Area Dwntwn AA, Wash Ave",734-489-9664
SFE,4781,356097,LUCKY GARDEN,"1072 N HURON RIVER DR",YPSILANTI,,Deedler,"13 RS Area EMU & Campus Area",734-482-1000
SFE,4781,356129,BOBALEE CO (THE),"1286 ANNA J STEPP RD",YPSILANTI,,Pearson,"18 CW Area Whittker & Mich Ave",734-961-8772
SFE,4781,356130Z,GORA'S GRILL,"533 W. CROSS ST",YPSILANTI,,,,734-544-9707
SST,4781,356201,ROYAL POT STFU,"636 BUTEO DR",EAST LANSING,,Kamenec,"Out of County TFU",
SFE,4781,356202,LITTLE CAESARS 0001-0192,"5609 JACKSON RD SUITE 102",ANN ARBOR,,Matranga,"Little Caesars chain",544-5855
SFE,4781,356203,FOX HILLS - PERFORMANCE CENTER,"8768 N TERRITORIAL RD",PLYMOUTH,SALEM,Matranga,"16 CW Area Jackson, Zeeb, Lohr",453-7272
SFE,4781,356204,PLAYA BOWLS,"1200 S. UNIVERSITY",ANN ARBOR,,Kamenec,"04 VD Area UM Campus South",248-770-2727
SFE,4781,356205,REVEL RUN,"555 DANCER RD",CHELSEA,LIMA,Hauck,"01 PB Area Chelsea",395-2633
SFE,4781,356224,DUNKIN,"201 E LIBERTY",ANN ARBOR,,Pearson,"Dunkin Donuts Chain",248-213-9623
SST,4781,356225,BEARCLAW COFFEE MOBILE SPRINTER #1 STFU,"1546 JUDD RD",SALINE,,Sherwin,"Bearclaw Coffee Chain",369-9660
SST,4781,356226,BEARCLAW COFFEE MOBILE WH #4 (STFU),"1546 JUDD RD",SALINE,,Sherwin,"Bearclaw Coffee Chain",369-9660
SFE,4781,356441,COTTAGE INN,"2715 PLYMOUTH RD",ANN ARBOR,,Sherwin,"Cottage Inn chain",734-995-9101
SST,4781,356442,DESIGN BY THE HEART,"436 ORCHARD ST",YPSILANTI,,Sherwin,,734-460-6299
SFE,4781,356443,DOS HERMANOS EXPRESS,"25 JACKSON INDUSTRIAL DR",ANN ARBOR,,Kamenec,"16 CW Area Jackson, Zeeb, Lohr",
SFE,4781,356469,INDIA CAFE,"1797 WASHTENAW AVE",YPSILANTI,,Pearson,"03 PB Area Whit Lke & Wash Ave",734-686-4386
SFE,4781,356631,TOTORO SUSHI,"215 S STATE ST",ANN ARBOR,,Sherwin,"05 VD Area UM Campus Northwest",734-302-3511
SFE,4781,356632,IZZY'S HOAGIE SHOP,"1924 W. STADIUM BLVD",ANN ARBOR,,Hansell,"11 RS Area Stadium & Jackson",734-994-1235
SFE,4781,356633,MADRAS MASALA,"2016 PACKARD ST",ANN ARBOR,,Hauck,"Madras Masala Chain",734-222-9006
SFE,4781,356634,PIZZA PAZZA,"407 N. FIFTH AVE",ANN ARBOR,,Matranga,"21 CY Area Kerrytown & AA Twp.",734-968-9166
SFE,4781,356635,GMA LINDA'S DINER,"9610 M-52",MANCHESTER,,Hauck,"08 CH Area Manchest & Briarwod",734-428-1248
SFE,4781,356637,VERTEX COFFEE ROASTERS,"307 N RIVER ST",YPSILANTI,,Kamenec,"10 SM Area Mich Ave/Ypsi City",248-767-4488
SFE,4781,356638,PEACH LAB ANN ARBOR,"1220 S UNIVERSITY #102",ANN ARBOR,,Kamenec,"04 VD Area UM Campus South",
SFE,4781,356639,HEN AT VALOR,"573 STATE CIRCLE",ANN ARBOR,PITTSFIELD,Sherwin,"08 CH Area Manchest & Briarwod",
SFE,4781,356781,PALACE TANG,"1773 PLYMOUTH RD SUITE 104",ANN ARBOR,,Yet,"06 CW Area Plymth Rd, Ypsi",369-8886
SFE,4781,356782,JERSEY MIKE'S SUB,"3650 CARPENTER RD SUITE F",YPSILANTI,PITTSFIELD,Deedler,"17 CY Area Washtnaw & Carpnter",734-477-9930
SFE,4781,356820,LE DOG,"306 S. MAIN ST 1E",ANN ARBOR,,Matranga,"14 RS Area Main Street AA",322-7348
SFE,4781,356821,CANDY COATED CREAMERY,"1076 N. HURON RIVER DR",YPSILANTI,,Deedler,"13 RS Area EMU & Campus Area",
SFE,4781,356822,GRAN MAYA,"497 N. ZEEB RD",ANN ARBOR,SCIO,Hauck,"16 CW Area Jackson, Zeeb, Lohr",882-2942
SFE,4781,356875,TACOS DEL CASTILLO,"301 E. MICHIGAN AVE",YPSILANTI,,Pearson,"18 CW Area Whittker & Mich Ave",734-450-3386
SFE,4781,356876,MACHEKO GRILL,"2283 ELLSWORTH RD",YPSILANTI,,Pearson,"12 SM Area Dwntwn AA, Wash Ave",734-434-8989
SFE,4781,356877,DIBELLA'S OLD FASHIONED SUBMARINES,"904 W. EISENHOWER PARKWAY",ANN ARBOR,,Deedler,"20 CY Area Packard & Eisenhowr",734-997-9011
SFE,4781,356880,KRESGE/BAKERY,"805 W. MIDDLE ST",CHELSEA,,Hansell,"01 PB Area Chelsea",734-433-1000
SFE,4781,356881,FIRESIDE GRILLE/MACKINAW DINING,"805 W. MIDDLE ST",CHELSEA,,Hansell,"01 PB Area Chelsea",734-433-1000
SFE,4871,356883,IGGY'S EGGIES,"611 E. LIBERTY",ANN ARBOR,,Matranga,"15 SM Area Washngtn, Librty AA",
SFE,4781,356884,SIMPLY SCRUMPTIOUS CATERING,"4765 W. JOY RD",DEXTER,DEXTER,Matranga,"02 VD Area Dexter",262-3921
SFE,4781,356979,LAUNCH ANN ARBOR,"800 E. EISENHOWER PKWY",ANN ARBOR,,Deedler,"20 CY Area Packard & Eisenhowr",
SFE,4781,357101,PLANT BASED CONEYS,"42 E. CROSS ST",YPSILANTI,,Pearson,"19 CH Area AA Schls & DepotTwn",734-340-5050
SST,4781,357102,KONA ICE OF WESTERN WAYNE CO KEV 1623,"34422 ROSATI AVE",LIVONIA,,Sherwin,"Kona Ice chain",
SST,4781,357103,KONA ICE OF WESTERN WAYNE CO KEV1505,"34422 ROSATI AVE",LIVONIA,,Sherwin,"Kona Ice chain",
SFE,4781,357104,SIP BOBA TEA HOUSE,"1928 W. STADIUM BLVD",ANN ARBOR,,Hansell,"11 RS Area Stadium & Jackson",734-249-1222
SFE,4781,357105,LINCOLN BASEBALL/SOFTBALL COMPLEX,"7267 WILLIS RD",YPSILANTI,AUGUSTA,Pearson,"Lincoln Consolidated Schools",
SMF,4781,357189,GUD DOG (MOBILE),"235 SPENCER LN",YPSILANTI,,Pearson,,
SST,4781,357190,TACOS Y TORTAS EL CARNALITO (STFU),"14336 COOPER ST",TAYLOR,,Kamenec,"Out of County TFU",961-5301
SFE,4781,357362,SUBWAY #7493,"1094 N HURON RIVER DR",YPSILANTI,,Sherwin,"Subway chain",734-481-0162
SFE,4781,357363,DEXTER SENIOR CENTER,"2740 BAKER RD",DEXTER,,Matranga,OCED,474-8552
SFE,4781,357444,CHINA ONE MILAN,"29 E MAIN ST",MILAN,,Matranga,"09 PB Area Milan & Ecorse/Ford",439-8401
SFE,4781,357446,GOODLYFE SMOOTHIES,"4005 CARPENTER RD",YPSILANTI,,Kamenec,"Goodlyfe Smoothies Chain",
SFE,4781,357447,STONEFRUIT SOCIAL,"413 E. HURON ST SUITE C",ANN ARBOR,,Sherwin,"12 SM Area Dwntwn AA, Wash Ave",734-882-9610
SFE,4781,357448,MOLLY'S CUPCAKES,"617 E. LIBERTY ST",ANN ARBOR,,Matranga,"15 SM Area Washngtn, Librty AA",734-800-4943
SST,4781,357449,CHELA'S STREET TACOS STFU,"693 S MAPLE RD",ANN ARBOR,,Matranga,"Chela's Chain",277-7926
SFE,4781,357450,DETROIT WING COMPANY,"3234 ANN ARBOR SALINE RD",ANN ARBOR,PITTSFIELD,Deedler,"Detroit Wing Company Chain",734-263-1414
SST,4781,357451,TAQUERIA SALAZAR STFU,"2735 S. WAGNER RD",ANN ARBOR,,Kamenec,"16 CW Area Jackson, Zeeb, Lohr",999-6580
SFE,4781,357452,HOME TEAM ICE CREAM,"327 W. MAIN ST",MANCHESTER,,Hauck,"08 CH Area Manchest & Briarwod",
SST,4781,357453,CHAPALA ON WHEELS (STFU),"211 N. MAIN",ANN ARBOR,,Kamenec,"14 RS Area Main Street AA",996-1456
SFE,4781,357641,HANJAN POCHA,"106 S 1ST ST",ANN ARBOR,,Matranga,"15 SM Area Washngtn, Librty AA",652-7337
SFE,4781,357642,RUSTIC GLEN CLUBHOUSE,"12090 W MICHIGAN AVE",SALINE,BRIDGEWATER,Yet,"07 CH Area Saline",734-429-7679
SST,4781,357643,SAZON LATINO LLC (STFU),"4717 SYCAMORE DR",YPSILANTI,,Sherwin,,734-328-4430
SFE,4781,357794,ST. LOUIS CENTER,"16195 West OLD US 12",CHELSEA,,Hauck,"01 PB Area Chelsea",
SST,4781,357795,HOT JALAPENOS (STFU),"699 W. MICHIGAN AVE",SALINE,,Yet,"07 CH Area Saline",734-330-6009
SST,4781,358081,SHAVED ICE SUMMIT (STFU),"18551 SANDBORN RD",MANCHESTER,,Hauck,"08 CH Area Manchest & Briarwod",674-7372
SST,4781,358082,BEARCLAW MOBILE #3,"1546 JUDD RD",SALINE,,Sherwin,"Bearclaw Coffee Chain",818-0962
SST,4781,358083,WHAT'S IN YOUR CUP- YPSILANTI,"1816 WHITTAKER RD",YPSILANTI,,Pearson,"10 SM Area Mich Ave/Ypsi City",734-395-0809
SMF,4781,358084,DAT DANG DOG MOBILE,"12190 ISLAND LAKE RD",DEXTER,,Hansell,"02 VD Area Dexter",734-645-7771
SFE,4781,358085,DRAGONFLY AND BIRCH,"115 E. MAIN ST",MANCHESTER,,Hauck,"08 CH Area Manchest & Briarwod",734-212-3249
SST,4781,358170,COFFEE BUG (THE) STFU,"1336 HULL AVE",YPSILANTI,YPSILANTI,Pearson,"09 PB Area Milan & Ecorse/Ford",219-3121
SFE,4781,358171,LINKS AT WHITMORE LAKE,"1111 SIX MILE RD",WHITMORE LAKE,NORTHFIELD,Yet,"03 PB Area Whit Lke & Wash Ave",734-449-4653
SFE,4781,358172,ARBOR BREWING COMPANY - SESSION ROOM,"3685 JACKSON RD",ANN ARBOR,SCIO,Kamenec,"16 CW Area Jackson, Zeeb, Lohr",734-585-7300
SFE,4781,358173,KAHUNA SUNRISE,"152 BARKER RD",WHITMORE LAKE,NORTHFIELD,Yet,"03 PB Area Whit Lke & Wash Ave",559-9110
SFE,4781,358174,HEAR.SAY BREWING + THEATER,"2350 W LIBERTY ST",ANN ARBOR,,Hansell,"11 RS Area Stadium & Jackson",734-369-8564
SFE,4781,358175,YPSILANTI NATIONAL LITTLE LEAGUE,"70 S HARRIS RD",YPSILANTI,,Hansell,"10 SM Area Mich Ave/Ypsi City",
SFE,4781,358176,PITAWAY JACKSON,"5609 JACKSON RD",ANN ARBOR,,Deedler,"Pitaway Chain",248-821-8110
SST,4781,358177,THREE SENORITA'S STFU,"9650 GROSSE ILE PARKWAY",GROSSE ILE,,Matranga,"Out of County TFU",363-2953
SFE,4781,358178,LITTLE CAESARS PIZZA,"1944 STADIUM DR",ANN ARBOR,,Matranga,"Little Caesars chain",734-665-8621
SFE,4781,358179,GINGER DELI NORTH,"1701 PLYMOUTH RD",ANN ARBOR,,Sherwin,"Ginger Deli Chain",248-390-8621
SFE,4781,358180,TOASTIQUE,"200 E. WASHINGTON ST",ANN ARBOR,,Kamenec,"12 SM Area Dwntwn AA, Wash Ave",585-5965
SFE,4781,358181,YEE SIANG DUMPLINGS,"4837 WASHTENAW AVE",ANN ARBOR,,Pearson,"17 CY Area Washtnaw & Carpnter",734-879-1459
SFE,4781,358182,CAFE,"4833 E. HURON RIVER DRIVE",ANN ARBOR,,Hauck,,734-673-6998
SFE,4781,358190,MANCHESTER COMMISSARY LLC,"455 W MAIN ST",MANCHESTER,,Hauck,"08 CH Area Manchest & Briarwod",734-704-5001
SFE,4781,358353,FOOD ZONE CHINESE RESTAURANT,"7023 DEXTER ANN ARBOR RD",DEXTER,,Matranga,"02 VD Area Dexter",426-3410
SFE,4781,358354Z,BALIKBAYAN BOX/CITGO,"6999 E. MICHIGAN AVE",SALINE,,Yet,,734-429-7850
SFE,4781,358463,ECHELON KITCHEN AND BAR,"200 S. MAIN ST",ANN ARBOR,,Sherwin,"14 RS Area Main Street AA",734-369-2510
SST,4781,358464,BEARCLAW MOBILE #2,"1546 JUDD RD",SALINE,,Sherwin,"Bearclaw Coffee Chain",818-0962
SFE,4781,358493,HOUSE OF CHIMNEY CAKES CAFE,"216 S 4TH AVE",ANN ARBOR,,Sherwin,"12 SM Area Dwntwn AA, Wash Ave",734-882-2708
SFE,4781,358494,MILKSHAKE FACTORY,"326 S MAPLE RD STE 326",ANN ARBOR,,Hansell,"11 RS Area Stadium & Jackson",734-275-3883
SFE,4781,358495,RED LOTUS "PLANT BASED" KITHCEN,"529 E. LIBERTY",ANN ARBOR,,Matranga,"15 SM Area Washngtn, Librty AA",734-369-4241
SFE,4781,358496,OAKWOOD ST SUBS (EMU),"900 OAKWOOD ST",YPSILANTI,,Yet,"EMU Schools",487-1043
SFE,4781,358510,PITA WAY ANN ARBOR,"500 E WILLIAM",ANN ARBOR,,Deedler,"Pitaway Chain",734-926-2100
SST,4781,358547,TACOS EL PANDA STFU,"3555 WASHTENAW AVE.",ANN ARBOR,,Yet,"09 PB Area Milan & Ecorse/Ford",579-6884
SFE,4781,358550,SHARON UNITED METHODIST CHURCH - HALL,"19980 PLEASANT LAKE RD",MANCHESTER,SHARON,Hauck,"08 CH Area Manchest & Briarwod",734-428-0996
SFE,4781,358742,ONDO,"324 S STATE ST",ANN ARBOR,,Sherwin,"05 VD Area UM Campus Northwest",
SFE,4781,358743,BANGKOK CHINATOWN,"4023 CARPENTER RD",YPSILANTI,PITTSFIELD,Deedler,"17 CY Area Washtnaw & Carpnter",
SFE,4781,358744,JD'S PIZZA AND GRINDERS EXPRESS,"37 E MAIN ST",MILAN,,Matranga,"09 PB Area Milan & Ecorse/Ford",734-528-9200
SFE,4781,358745,MOKA & CO.,"333 S MAIN ST",ANN ARBOR,,Sherwin,"12 SM Area Dwntwn AA, Wash Ave",
SFE,4781,358757,ANN ARBOR CHRISTIAN SCHOOL,"5500 WHITMORE LAKE RD",ANN ARBOR,NORTHFIELD,Deedler,,741-4948
SFE,4781,358790,TACO BELL STORE #40315,"1655 PLYMOUTH RD",ANN ARBOR,,Deedler,"Taco Bell chain",248-446-0100
SFE,4781,358798,LOCKWOOD OF ANN ARBOR,"2195 E ELLSWORTH RD",ANN ARBOR,,Deedler,"17 CY Area Washtnaw & Carpnter",734-239-8882
SFE,4781,358799,MADRAS MASALA EXPRESS,"1143 BROADWAY ST",ANN ARBOR,,Hauck,"Madras Masala Chain",
SFE,4781,358892,EL SABOR DE MI TIERRA PUPUSERIA Y MAS,"505 S HURON ST",YPSILANTI,,Hansell,"10 SM Area Mich Ave/Ypsi City",734-879-1000
SMF,4781,358897,LILY PEDALS MOBILE,"6331 JONQUIL LN",YPSILANTI,YPSILANTI,Hansell,"18 CW Area Whittker & Mich Ave",517-795-3323
SFE,4781,358958,BROTHERS STREET FOOD,"3765 CARPENTER RD",YPSILANTI,PITTSFIELD,Deedler,"17 CY Area Washtnaw & Carpnter",
SST,4781,358959,ECHELON KITCHEN AND BAR,"200 S MAIN ST",ANN ARBOR,,Sherwin,"12 SM Area Dwntwn AA, Wash Ave",734-369-2511
SFE,4781,358960,DROP TOP PIZZA,"107 W MICHIGAN AVE.",SALINE,,Yet,"07 CH Area Saline",734-460-1345
SFE,4781,358961,SPICE PALACE,"2874 WASHTENAW AVE",YPSILANTI,YPSILANTI,Hauck,"03 PB Area Whit Lke & Wash Ave",734-882-7545
SFE,4781,358973,SANAA COFFEE HOUSE,"2227 ELLSWORTH RD",YPSILANTI,,Pearson,"13 RS Area EMU & Campus Area",
SFE,4781,358974,EMU EASTERN EATERIES PHO U,"7 ANN ST",YPSILANTI,,Yet,"EMU Schools",734-487-0444
SFE,4781,358975,CHELSEA BURGER,"110 W MIDDLE ST",CHELSEA,,Hauck,"01 PB Area Chelsea",
SFE,4781,359053,TWO SONGS BAKERY & MART,"1958 S INDUSTRIAL HWY SUITE C",ANN ARBOR,,Hauck,"20 CY Area Packard & Eisenhowr",
SFE,4781,359130,QAHWAH HOUSE ANN ARBOR,"211 N. MAPLE RD",ANN ARBOR,,Hansell,"11 RS Area Stadium & Jackson",734-369-2109
SST,4781,359136,TRAVELIN' TOM'S OF BELLEVILLE #1 STFU,"34422 ROSATI AVE",LIVONIA,,Sherwin,"Out of County TFU",734-658-9534
SFE,4781,359231,KPOT KOREAN BBQ AND HOT POT,"3769 CARPENTER RD, UNIT 4",YPSILANTI,PITTSFIELD,Deedler,"17 CY Area Washtnaw & Carpnter",734-585-0597
SFE,4781,359252,CUPS N CHAI,"214 S 4TH AVE",ANN ARBOR,,Sherwin,"12 SM Area Dwntwn AA, Wash Ave",369-8900
SFE,4781,359253,UPLIFT,"210 S. FIRST ST",ANN ARBOR,,Matranga,"12 SM Area Dwntwn AA, Wash Ave",210-1582
SFE,4781,359254,BAYMONT BY WYNDHAM CHELSEA,"1540 COMMERCE PARK DR",CHELSEA,,Hauck,"01 PB Area Chelsea",734-433-1600
SFE,4781,359317,SAMOSA HOUSE,"530 NORTH HURON ST",YPSILANTI,,Deedler,"13 RS Area EMU & Campus Area",734-472-2720
SFE,4781,359394,LATTE FACTORY (THE),"100 BRIARWOOD CIRCLE",ANN ARBOR,,Hansell,"08 CH Area Manchest & Briarwod",817-818-8284
SFE,4781,359395,KT'S,"52 BARKER RD",WHITMORE LAKE,NORTHFIELD,Yet,"03 PB Area Whit Lke & Wash Ave",216-7695
SFE,4781,359451,BB.Q CHICKEN,"322 S MAPLE RD, SUITE 2B",ANN ARBOR,,Hansell,"11 RS Area Stadium & Jackson",369-3561
SFE,4781,359452,POPO'S REAL CHINESE FOOD,"205 N MAIN ST",ANN ARBOR,,Kamenec,"14 RS Area Main Street AA",734-436-8488
SFE,4781,359453,MAMA G'S CATERING,"14200 E. OLD US 12",CHELSEA,,Hauck,,734-475-7561
SFE,4781,359454,42 NORTH SOCIAL HOUSE,"7954 ANN ARBOR ST",DEXTER,,Matranga,"02 VD Area Dexter",
SST,4781,359455,MAMA PIZZA STFU,"5 N HAMILTON ST",YPSILANTI,,Pearson,"10 SM Area Mich Ave/Ypsi City",734-896-3843
SFE,4781,359456,SAVVY SLIDERS,"2997 WASHTENAW AVE",YPSILANTI,,Hauck,"17 CY Area Washtnaw & Carpnter",
SFE,4781,359457,WAX BAR,"44 E CROSS ST",YPSILANTI,,Pearson,"19 CH Area AA Schls & DepotTwn",734-323-2300
SFE,4781,359590,BIWAKO SUSHI,"1355 E MICHIGAN AVE",SALINE,,Yet,"07 CH Area Saline",734-277-9140
SFE,4781,359591,SLIM CHICKENS 18302,"5505 ARBOR CHASE DR",ANN ARBOR,SCIO,Kamenec,"16 CW Area Jackson, Zeeb, Lohr",734-418-7177
SST,4781,359592,DUCK FAT & BACON,"7705 EISMAN ROAD",MANCHESTER,,Hauck,"01 PB Area Chelsea",720-840-8024
SFE,4781,359635,BONCHON KOREAN FRIED CHICKEN,"2272 S MAIN ST",ANN ARBOR,,Deedler,"20 CY Area Packard & Eisenhowr",734-794-5200
SFE,4781,359636,CULVER'S,"3015 LOHR RD",ANN ARBOR,PITTSFIELD,Kamenec,"Culver's Chain",734-821-0060
SFE,4781,359637,HELLO FAZ PIZZA,"2259 W LIBERTY",ANN ARBOR,,Hansell,"11 RS Area Stadium & Jackson",734-741-7777
SFE,4781,359639,CHOP DETROIT,"2121 OAK VALLEY",ANN ARBOR,PITTSFIELD,Deedler,"16 CW Area Jackson, Zeeb, Lohr",369-2126
SFE,4781,359646,CURIOUS COFFEE LLC,"100 S FOURTH AVE STE 110",ANN ARBOR,,Kamenec,"15 SM Area Washngtn, Librty AA",734-548-9729
SFE,4781,359774,SIAM SQUARE RESTAURANT,"883 W EISENHOWER PKWY",ANN ARBOR,,Deedler,"20 CY Area Packard & Eisenhowr",734-975-4541
SST,4781,359775,HEAR.SAY BREWING + THEATER STFU,"2350 W LIBERTY ST",ANN ARBOR,,Hansell,"11 RS Area Stadium & Jackson",734-369-8564
SFE,4781,359776,PAPA JOHNS,"2872 WASHTENAW AVE UNIT 2872-B",YPSILANTI,,Pearson,"03 PB Area Whit Lke & Wash Ave",734-337-2027
SFE,4781,359777,FIVE GUYS BURGERS & FRIES #4126,"5627 JACKSON",ANN ARBOR,,Hauck,"Five Guy's Chain",
SFE,4781,359930,CHICK N SEAFOOD SPOT,"3220 PACKARD",ANN ARBOR,,Hauck,"20 CY Area Packard & Eisenhowr",734-971-5703
SFE,4781,359931,JESUS HERNANDEZ CATERING,"2240 E. STADIUM BLVD",ANN ARBOR,,Hauck,"12 SM Area Dwntwn AA, Wash Ave",
SFE,4781,359932,STROMBOLI HOUSE,"215 S. FORD BLVD",YPSILANTI,YPSILANTI,Matranga,"09 PB Area Milan & Ecorse/Ford",734-757-0869
SFE,4781,359933,YOTSUBA JAPANESE RESTAURANT,"2222 HOGBACK ROAD",ANN ARBOR,,Pearson,"17 CY Area Washtnaw & Carpnter",734-971-5168
SFE,4781,359962,HOMETOWN PIZZA ANN ARBOR,"5060 JACKSON RD STE G",ANN ARBOR,SCIO,Kamenec,"16 CW Area Jackson, Zeeb, Lohr",734-369-9303
SFE,4781,359963,OSCAR'S SPORTS & GRILL,"6877 S STATE RD D",SALINE,,Yet,"07 CH Area Saline",310-702-3982
SFE,4781,360023,TANDURI KORNER,"6 S. WASHINGTON ST",YPSILANTI,,Pearson,"10 SM Area Mich Ave/Ypsi City",734-254-1071
SST,4781,3600631,ANTOJITOS EL DICHO DON ROGELIO (STFU),"1425 ECORSE RD",YPSILANTI,YPSILANTI,Hauck,"09 PB Area Milan & Ecorse/Ford",810-394-6688
SFE,4781,360064,PEACE HUB COMMUNITY RESOURCE CENTER,"1515 S. HARRIS",YPSILANTI,YPSILANTI,Pearson,"09 PB Area Milan & Ecorse/Ford",734-714-8800
SFE,4781,360065,KRISPY KRUNCHY CHICKEN,"505 S. HURON ST",YPSILANTI,,Hansell,"10 SM Area Mich Ave/Ypsi City",313-349-8442
SFE,4781,360092,AUNTIE ANNE'S & CINNABON,"3825 CARPENTER RD",YPSILANTI,,Hansell,"17 CY Area Washtnaw & Carpnter",313-695-6959
SFE,4781,360113,SAMBA BOWLS,"113 W. WASHINGTON",ANN ARBOR,,Yet,"12 SM Area Dwntwn AA, Wash Ave",734-249-2242
SFE,4781,360114,MOCHINUT,"1771 PLYMOUTH RD STE 103",ANN ARBOR,,Yet,"06 CW Area Plymth Rd, Ypsi",313-695-5606
SFE,4781,360115,U-M ROSS AT SSCII,"1000 OAK BROOK DR",ANN ARBOR,,Deedler,"20 CY Area Packard & Eisenhowr",
SFE,4781,360222,DEXTER BRUNCH HOUSE,"8124 MAIN ST",DEXTER,,Matranga,"02 VD Area Dexter",734-819-8143
SFE,4781,360223,AL REEM MEDITERRANEAN KITCHEN,"2130 WHITTAKER RD",YPSILANTI,,Pearson,"18 CW Area Whittker & Mich Ave",734-717-0927
SFE,4781,360224,JETS PIZZA,"3040 WASHTENAW AVE",YPSILANTI,,Pearson,"Jet's Pizza chain",734-579-0009
SFE,4781,360225,THE ROCK COFFEEHOUSE AND CHAPEL,"450 E. MICHIGAN AVE",SALINE,,Yet,"07 CH Area Saline",248-595-6981
SFE,4781,360243,OLIVE BRANCH RESTAURANT,"2269 ELLSWORTH RD",YPSILANTI,,Pearson,"10 SM Area Mich Ave/Ypsi City","(734) 961-7452"
SFE,4781,360265,PITA KING,"2412 E STADIUM BLVD",ANN ARBOR,,Hansell,"11 RS Area Stadium & Jackson",734-677-0686
SFE,4781,360338,ST. JOSEPH PARISH HALL,"6805 MAST ROAD",DEXTER,WEBSTER,Matranga,"02 VD Area Dexter",734-426-8483
SFE,4781,360418,MAT BREWING,"122 E. MAIN ST.",MANCHESTER,,Hauck,"08 CH Area Manchest & Briarwod",734-212-3226
SFE,4781,360552,TAYSTEE'S BURGERS,"2689 ANN ARBOR SALINE RD",ANN ARBOR,,Deedler,"20 CY Area Packard & Eisenhowr",734-263-2208
SFE,4781,360553,MCDONALDS NSN 3086,"7847 E. MICHIGAN AVE.",SALINE,,Hauck,"McDonalds chain",
SFE,4781,360554,LITTLE SKEWER,"209 S. MAIN ST",ANN ARBOR,,Sherwin,"14 RS Area Main Street AA",734-818-0283
SFE,4781,360555Z,AUNTIE ANNE'S AND CINNABON,"3145 ANN ARBOR-SALINE ROAD",ANN ARBOR,,Hansell,,734-330-2170
SFE,4781,360556,ARIRANG,"3135 OAK VALLEY DR",ANN ARBOR,PITTSFIELD,Deedler,"16 CW Area Jackson, Zeeb, Lohr",734-222-5959
SFE,4781,360557,STIMULATTE CAFE,"1816 WHITTAKER RD",YPSILANTI,,Pearson,"10 SM Area Mich Ave/Ypsi City",734-879-0220
SFE,4781,360558,VANGUARD HOTEL (THE),"201 GLEN AVE",ANN ARBOR,,Sherwin,"05 VD Area UM Campus Northwest",
SFE,4781,360559,RAMEN YA,"100 BRIARWOOD CIRCLE",ANN ARBOR,,Hansell,"08 CH Area Manchest & Briarwod",
SFE,4781,360560,BAYT AL MOCHA (MOCHA HOUSE CAFE),"109 CATHERINE ST",ANN ARBOR,,Kamenec,"14 RS Area Main Street AA",734-492-1700
SST,4781,360589,TRAVELIN' TOM'S OF BELLEVILLE #2 STFU,"34422 ROSATI AVE",LIVONIA,,Sherwin,"Out of County TFU",734-210-1358
SFE,4781,360602,CLARENDALE ANN ARBOR,"2830 S. MAIN ST.",ANN ARBOR,,Hauck,"20 CY Area Packard & Eisenhowr",734-359-3500
SFE,4781,360603,BO'S BAGELS,"1116 SOUTH UNIVERSITY AVENUE",ANN ARBOR,,Kamenec,"04 VD Area UM Campus South",734-669-3003
SFE,4781,360794,TRAVELIN TOMS COFFEE @ EMU,"799 N. HEWITT",YPSILANTI,YPSILANTI,Yet,"EMU Schools",734-635-3565
SFE,4781,360795,MCDONALD'S #10950,"2310 W. STADIUM BLVD",ANN ARBOR,,Hauck,"McDonalds chain",734-761-9087
SFE,4781,360841,DUNKIN,"342 S. STATE ST",ANN ARBOR,,Pearson,"Dunkin Donuts Chain",248-213-9623
SFE,4781,360842,FRIENDS KITCHEN,"210 S. FIRST ST",ANN ARBOR,,Matranga,"15 SM Area Washngtn, Librty AA",734-827-4153
SFE,4781,360843,GREAT WALL RESTAURANT,"2128 WHITTAKER RD.",YPSILANTI,,Pearson,"18 CW Area Whittker & Mich Ave",734-480-9040
SFE,4781,360844,LEFTY'S CHEESESTEAK,"3157 ANN ARBOR-SALINE RD",ANN ARBOR,PITTSFIELD,Deedler,"16 CW Area Jackson, Zeeb, Lohr",313-605-6452
SFE,4781,360845,BLUE LEMON THAI,"4175 WHITMORE LAKE RD",ANN ARBOR,,Sherwin,"03 PB Area Whit Lke & Wash Ave",734-999-6014
SST,4781,360907,DR TIMOS STFU,"11692 CHANDLER DRIVE",PLYMOUTH,,Matranga,"Out of County TFU",586-291-0387
SFE,4781,361014,HEN ON THE FLY,"1906 PACKARD ST",ANN ARBOR,,Sherwin,"20 CY Area Packard & Eisenhowr",
SFE,4781,361168,FUEL'D,"980 W EISENHOWER PKWY",ANN ARBOR,,Deedler,"20 CY Area Packard & Eisenhowr",
SST,4781,361231,EL REY BURGER'S STFU,"1515 RIDGE RD. LOT 267",YPSILANTI,YPSILANTI,Deedler,,829-7199
SST,4781,361232,HOLLOWELL'S FOOD TRUCK,"368 GREENWOOD ST",,,Matranga,"Out of County TFU",
SFE,4781,361301,X-GOLF ANN ARBOR,"333 N. MAPLE RD",ANN ARBOR,,Hansell,"11 RS Area Stadium & Jackson",734-316-7379
SFE,4781,361303,WATER TOWER DISTILLING CO,"23 N. WASHINGTON ST.",YPSILANTI,,Pearson,"10 SM Area Mich Ave/Ypsi City",810-479-1615
SFE,4781,361381,SUSHI DABU,"4037 CARPENTER RD",YPSILANTI,PITTSFIELD,Deedler,"17 CY Area Washtnaw & Carpnter",734-477-7400
SFE,4781,361382,LEFTY'S CHEESESTEAK,"4003 CARPENTER RD",YPSILANTI,PITTSFIELD,Deedler,"17 CY Area Washtnaw & Carpnter",313-605-6452
SFE,4781,361383,SHAWARMA PLUS,"9035 TEXTILE RD",YPSILANTI,YPSILANTI,Kamenec,"09 PB Area Milan & Ecorse/Ford",734-340-3772
SFE,4781,361384,DINOLAND ANN ARBOR LLC,"4735 WASHTENAW AVE",ANN ARBOR,,Pearson,"17 CY Area Washtnaw & Carpnter",313-443-7048
SFE,4781,361385,UNITEA CAFE,"522 E. WILLIAM ST",ANN ARBOR,,Matranga,"15 SM Area Washngtn, Librty AA",734-436-8945
SFE,4781,362302,PENN STATION EAST COAST-SUBS ANN ARBOR W,"5627 JACKSON RD",ANN ARBOR,,Kamenec,"16 CW Area Jackson, Zeeb, Lohr",734-575-4343
N/A,N/A,N/A,WASHTENAW COUNTY YOUTH CENTER,"4125 WASHTENAW AVE",ANN ARBOR,PITTSFIELD,Kamenec,"03 PB Area Whit Lke & Wash Ave",734-973-4343
SFE,4781,NEW24-23,TUPTIM THAI,"4905 WASHTENAW AVE",ANN ARBOR,,,,734-528-5588
SST,4781,NEW24-32,HOLLY'S DOG HOUSE (STFU),"5475 S STATE ST",ANN ARBOR,PITTSFIELD,Kamenec,,734-663-3223
SFE,4781,NEW24-53,MINY'S MEXICAN RESTAURANT,"1141 BROADWAY ST",ANN ARBOR,,Hauck,"Miny's Chain",369-2419
SFE,4781,NEW24-71,WING SNOB,"5627 JACKSON RD SUITE 104",ANN ARBOR,SCIO,Kamenec,"16 CW Area Jackson, Zeeb, Lohr",610-9464
SFE,4781,NEW25-02,RAISING CANE'S #1126,"1116 SOUTH UNIVERSITY AVENUE",ANN ARBOR,,,,972-769-3100
SFE,4781,NEW25-10,SAMOSA HOUSE,"16 S WASHTENAW",YPSILANTI,,Deedler,,734-786-8401
SST,4781,NEW25-14,CORNER CANTINA,"1595 HOLMES",YPSILANTI,,,,248-800-9222
SST,4781,NEW25-18,ROLLING MEADOWS FOOD TRUCK (STFU),"6484 SUTTON RD.",WHITMORE LAKE,NORTHFIELD,Matranga,"06 CW Area Plymth Rd, Ypsi",260-4327
SFE,4781,NEW25-19,YUNNAN KITCHEN,"16 S. WASHINGTON ST",YPSILANTI,,Pearson,"10 SM Area Mich Ave/Ypsi City",734-741-3177
DFE,4781,NEW25-21,FOOD EAZE INC,"922 WEST MICHIGAN AVE",YPSILANTI,,Pearson,,
SST,4781,NEW25-22,OH MY CHAI STFU,"45062 SALTZ RD",,,Yet,"Out of County TFU",313-365-0635
SST,4781,NEW25-23,UNCO CHADS,"5142 N. TERRITORIAL",DEXTER,,,,
SFE,4781,NEW25-26,MISFIT SOCIETY X VERVE,"721 S. FOREST AVE",ANN ARBOR,,,,810-923-2335
SFE,4781,NEW25-27,HALAL BROS 2 GO,"810 S. STATE ST",ANN ARBOR,,Kamenec,"04 VD Area UM Campus South",
SST,4781,NEW25-28,GARY'S DESSERTS STFU,"7581 DOVER DRIVE",YPSILANTI,,Pearson,,
SST,4781,NEW25-29,BRO BRO'S LEMONADE STFU,"8660 SANDY COVE",YPSILANTI,,Pearson,"10 SM Area Mich Ave/Ypsi City",
SFE,4781,NEW25-30,LAST BITE CHEF,"1608 JACKSON ROAD",ANN ARBOR,,Pearson,,617-817-1479
SST,4781,NEW25-31,QAMARIA COFFEE TRAILER (STFU),"2771 SALINA STREET",,,Deedler,"Out of County TFU",
SFE,4781,NEW25-32,MYNT HOUSE,"118 S. MAIN STREET",ANN ARBOR,,Sherwin,"14 RS Area Main Street AA",734-353-7336
SMF,4781,NEW25-33,YAKA-YO,"1344 BORGSTROM AVE",YPSILANTI,,,,734-483-5876
SST,4781,NEW25-34,O SO NAIJA,"3909 RESEARCH PARK DR",ANN ARBOR,,Kamenec,"20 CY Area Packard & Eisenhowr",734-213-3000
SFE,4781,NEW25-35,MANCHESTER SENIOR CENTER,"912 CITY ROAD",MANCHESTER,,,,734-385-6319
SFE,4781,NEW25-36,HOME2 SUITES ANN ARBOR,"361 W. EISENHOWER PARKWAY",ANN ARBOR,,,,734-251-3300
SFE,4781,NEW25-37,RECESS CAFE,"208 S. ASHLEY ST.",ANN ARBOR,,,,734-925-5446
SST,4781,NEW25-38,BOB'S FISH HOUSE,"12190 ISLAND LAKE RD",DEXTER,,,,734-645-7771
SFE,4781,Z038438,BAO BOYS - YORK LOCATION,"1928 PACKARD ST",ANN ARBOR,,Hansell,"20 CY Area Packard & Eisenhowr",714-719-3436